"Business name","Phone","Email","Website","State","City","Address"
"Honor Roll Delivery","(888) 884-7229","honorrolldelivery@gmail.com","http://www.honorrolldelivery.com","El Monte","California","El Monte, California US 91732"
"SGV MED EXPRESS","626-200-3587","sgv20132@yahoo.com","","Anywhere in SGV","ca","Anywhere in SGV, ca USA 91780"
"Buddies","626-238-8784","buddiesmedexpress@yahoo.com","","San Gabriel Valley","California","San Gabriel Valley, California US 91016"
"Blessed XPRS","626-684-0766","blessedxprs@gmail.com","","San Gabriel Valley","California","San Gabriel Valley, California US 91731"
"Hyperwolf - El Monte","310-566-8384","order@hyperwolf.com","http://www.HyperWolf.com","El Monte","California","El Monte, California US 91731"
"Stanky Danky","626-248-0180","stankydanky4200@gmail.com","http://stankydanky420.com","SAN GABRIEL VALLEY","","SAN GABRIEL VALLEY,  US 91776"
"Real Monster Delivery","8052856973","realmonsterdelivery@gmail.com","","El Monte","California","El Monte, California US 91732"
"420 Cure","626-991-3140","HEALTHYLIVING4200@GMAIL.COM","","El Monte","California","El Monte, California US 91770"
"High Rollers Xpress","626-615-3720","HIGHRx420@gmail.com","","El Monte","California","El Monte, California US 91732"
"The New Frontier","626-632-9598","thenewfrontierassoc@gmail.com","","Alhambra","California","Alhambra, California US 91801"
"ATF 420 DELIVERY","626-421-8801","atf420delivery@gmail.com","","Alhambra","California","Alhambra, California US 91801"
"Red Eye Meds","6265033912","TheRedEyeClub420@gmail.com","http://theredeyeclub.com/","San Gabriel Valley","CA","San Gabriel Valley, CA USA 91780"
"3rd Eye Healing","(562)324-4639","3rdeyehealing@gmail.com","http://3rdeyehealing.com","Alhambra","CA","Alhambra, CA  91780"
"All Star Delivery 323","3235228979","allstardeliveries323@gmail.com","","Alhambra","California","Alhambra, California US 91801"
"Wee-Delivery Medical Marijuana Collective","888-422-9658","donationsweedelivery@gmail.com","https://www.wee-delivery.com/","El Monte","California","El Monte, California US 91731"
"Delta 9 Organix","626-426-0138","delta9delivery@yahoo.com","","San Gabriel","CA","San Gabriel, CA  91776"
"World Class Cannabis","949-554-4233","WorldClassCannabis420@gmail.com","","El Monte","California","El Monte, California US 91732"
"Puffy Delivery - Alhambra","626-407-2690","support@puffydelivery.com","http://puffydelivery.com","Alhambra","California","Alhambra, California US 91801"
"The Green Coma","626-723-8423","thegreencoma@gmail.com","","El monte","California","El monte, California US 91731"
"THRC - VERIFIED PRODUCTS","(626) 272-4247","THRC1012@gmail.com","","Temple City","California","Temple City, California US 91775"
"The Green Coma","6267238423","thgreencoma@gmail.com","","Temple City","California","Temple City, California US 91780"
"5 Star Delivery","323-240-9957","fivestardel@gmail.com","","Alhambra","CA","Alhambra, CA  91776"
"Quality Meds Delivery","626-782-3270","qualitymedsdelivery@gmail.com","","RoseMead","California","RoseMead, California US 91801"
"Crystal Cannabis","626-689-5142","Crystalcannabisla@gmail.com","","Alhambra","California","Alhambra, California US 91776"
"KUSHAGRAM - SGV","323-739-1134","donations@kushagram.com","http://kushagram.com","San Gabriel","California","San Gabriel, California US 91776"
"Seven Leaves Delivery","626-489-9491","sevenleavesdelivery@gmail.com","","Temple City","California","Temple City, California US 91731"
"OG Maywood Delivery","323-208-9066","info@ogsinsemilla.delivery","http://www.OGMaywood.com","Monterey Park","California","Monterey Park, California US 91754"
"Mr.Chowws Remedies","16266225998","MrChowwsRemedies@Yahoo.com","","El Monte","California","El Monte, California US 91732"
"BudHub Delivery - Alhambra","626-615-3287","hello@gobudhub.com","","San Gabriel Valley","California","San Gabriel Valley, California US 91801"
"Sky High Originals","6264652724","weedmaps626@gmail.com","","El Monte","California","El Monte, California US 91731"
"Budlivery","424 279 4021","Budlivery@gmail.com","","Rosemead","California","Rosemead, California US 91770"
"Holy Smokes Delivery","747-609-6904","holysmokesdelivery@gmail.com","","Burbank","California","Burbank, California US 91801"
"Good Tree","562-315-8955","support@goodtreedelivery.com","http://GoodTreeDelivery.com","Los Angeles","California","Los Angeles, California US 91754"
