"Business name","Phone","Email","Website","State","City","Address"
"KUSHAGRAM","949-750-2001","Donations@kushagram.com","","Aliso Viejo","California","Aliso Viejo, California US 92656"
"Puffy Delivery","949-880-0599","support@puffydelivery.com","http://puffydelivery.com","Laguna Hills","California","Laguna Hills, California US 92653"
"SKY HIGH HOLISTIC DELIVERY","(949) 397-7424","skyhighholisticdelivery@gmail.com","","Laguna Niguel","California","Laguna Niguel, California US 92677"
"Clarity California Cannabis","(657) 254-6496","Michael@ObtainClarity.Com","http://www.obtainclarity.com","Aliso Viejo","California","Aliso Viejo, California US 92656"
"Euphorik Drop","(949) 394-1426","EuphorikDrop@gmail.com","","Laguna","California","Laguna, California US 92677"
"Premium Meds","949-278-6830","premiummedsoc@gmail.com","","Laguna Niguel","California","Laguna Niguel, California US 92677"
"Elevated Delivery","(917) 260-9421","admin@elevated-delivery.com","","Aliso Viejo","California","Aliso Viejo, California US 92677"
"Thin Air Nursery - Laguna Niguel & Aliso Viejo","(949) 291-8211","thinairnursery@gmail.com","","Laguna Niguel","California","Laguna Niguel, California US 92677"
"Private Label Organics - ALISO VIEJO, LAGUNA NIGUEL, LAGUNA HILLS Marijuana Delivery Service","949-202-9894","PrivateLabelOrganics@gmail.com","http://www.privatelabelorganics.net","Laguna Niguel","California","Laguna Niguel, California US 92677"
"RARE STONE - ALISO LAGUNA","949-235-2904","rarestoneoc@gmail.com","","Laguna Niguel","CA","Laguna Niguel, CA USA 92677"
"CPTN KUSH","949-484-3244","thecptnkush@gmail.com","","Laguna Niguel","CA","Laguna Niguel, CA USA 92677"
"KUSHAGRAM","949-750-2001","donations@kushagram.com","http://kushagram.com","Laguna Niguel","California","Laguna Niguel, California US 92677"
"PharmSquad- Laguna Niguel","(888) 627-7958 ","info@pharmsquad.com","http://www.pharmsquad.com","Laguna Niguel","California","Laguna Niguel, California US 92637"
"MCEC - Laguna Niguel","760-299-6232","customerservice@mcecdelivery.com","https://mcecdelivery.com/shopping-cart/","Laguna Niguel","California","Laguna Niguel, California US 92335"
"1-866-DELIVERY","1-866-DELIVERY","info@DeliveryGreens.com","http://www.DeliveryGreens.com","Aliso Viejo","CA","Aliso Viejo, CA  92677"
"Euphorik Drop","(949) 394-1426","EuphorikDrop@gmail.com","","Aliso Viejo","California","Aliso Viejo, California US 92653"
"OCPC","(949) 752-6272","ocpcdelivery123@gmail.com","http://orangecountyspatientcare.com/index.html","Aliso Viejo","CA","Aliso Viejo, CA USA 92656"
"Euphorik Drop","(949) 394-1426","EuphorikDrop@gmail.com","","Laguna Niguel","California","Laguna Niguel, California US 92677"
"1-866-DELIVERY","1-866-DELIVERY","info@DeliveryGreens.com","http://www.DeliveryGreens.com","Laguna Niguel","CA","Laguna Niguel, CA  92677"
"High Standards","949-973-0322","highstandardsoc@gmail.com","","Laguna Niguel / Aliso Viejo","CA","Laguna Niguel / Aliso Viejo, CA United States 92677"
"1-866-DELIVERY","1-866-DELIVERY","info@DeliveryGreens.com","http://www.DeliveryGreens.com","Aliso Viejo","CA","Aliso Viejo, CA  92656"
"High Standards","949-973-0322","highstandardsoc@gmail.com","","Laguna Niguel","CA","Laguna Niguel, CA United States 92677"
"GFD","949-520-3809","greenflash91@yahoo.com","","Aliso Viejo","California","Aliso Viejo, California US 92656"
"High Standards","949-973-0322","highstandardsoc@gmail.com","","Aliso Viejo","CA","Aliso Viejo, CA USA 92683"
"1-866-DELIVERY","1-866-DELIVERY","info@DeliveryGreens.com","http://www.DeliveryGreens.com","Laguna Woods","CA","Laguna Woods, CA  92637"
