"Business name","Phone","Email","Website","State","City","Address"
"KUSHAGRAM -","949-750-2002","donations@kushagram.com","","Orange","California","Orange, California US 92866"
"1-866-DELIVERY","1-866-DELIVERY","info@DeliveryGreens.com","http://www.DeliveryGreens.com","Anaheim Hills","CA","Anaheim Hills, CA  92807"
"Hyperwolf - Orange","(714) 988-4700","order@Hyperwolf.com","https://www.Hyperwolf.com","Orange","California","Orange, California US 92807"
"GTR GREEN TREE REMEDY","714-313-4704","greentreeremedy@gmail.com","","Anaheim Hills","CA","Anaheim Hills, CA USA 92807"
"Real Remedies","714-860-3240","realremediescollective@gmail.com","","Anaheim Hills","California","Anaheim Hills, California US 92807"
"Puffy Delivery - Anaheim Hills","657-254-5287","support@puffydelivery.com","http://puffydelivery.com","Anaheim","California","Anaheim, California US 92807"
"The Grasshopper Delivery","9493167235","grasshopperdelivery714@gmail.com","","Mission Viejo","California","Mission Viejo, California US 92651"
"Buderfly Delivery","909-438-7592","buderflydelivery@outlook.com","","Anaheim Hills","Ca","Anaheim Hills, Ca  92867"
"Golden Leaf","909-720-0205","weedmaps@goldenleaf420.com","http://goldenleaf420.com","Anaheim Hills","California","Anaheim Hills, California US 92861"
"Quality Providers","(562) 708-6867","qualityproviders420@gmail.com","","Anaheim Hills","California","Anaheim Hills, California US 92861"
"PULP | People Understanding Life's Purpose","1234567890","info@pulp.com","","Anaheim Hills","CA","Anaheim Hills, CA United States 92808"
"Secret Nug Exchange - Orange","714-420-6133","snedelivers@gmail.com","","Orange","California","Orange, California US 92867"
"Gold And Green Cannabis Delivery","714-349-4175","goldgreendelivery@gmail.com","","Orange","California","Orange, California US 92868"
"Hyperwolf - Anaheim 2.0","(714) 988-4700","order@Hyperwolf.com","http://Hyperwolf.com","Anaheim","California","Anaheim, California US 92807"
"Secret Nug Exchange","714-420-6133","snedelivers@gmail.com","","Orange","California","Orange, California US 92868"
"Stone Zone Delivery - Orange","714-696-8718","stonezonecollective@gmail.com","","Orange","CA","Orange, CA USA 92807"
"Exotik 420","714-586-2653","exotik420@protonmail.com","","Orange","California","Orange, California US 92865"
"SpaceLabz","714-905-9380","Spacelabsmedical221@gmail.com","","Orange","California","Orange, California US 92867"
"Secret Nug Exchange","714-420-6133","snedelivers@gmail.com","","Anaheim hIlls","California","Anaheim hIlls, California US 92807"
"Legendary Greens","(714)-408-5505","legendarygreens420@gmail.com","","Orange","California","Orange, California US 92866"
"Hot Box Xpress","714-559-2001","hotboxoc@gmail.com","https://weedmaps.com/deliveries/hot-box-xpress","anaheim","California","anaheim, California US 92807"
"Stone Zone Delivery - Orange","714-696-8718","stonezonecollective@gmail.com","","Orange","California","Orange, California US 92866"
"KUSHAGRAM - Anaheim Hills","949-750-2002","donations@kushagram.com","","Anaheim Hills","California","Anaheim Hills, California US 92807"
"Secret Nug Exchange","714-420-6133","snedelivers@gmail.com","","Orange","CA","Orange, CA  92865"
"POT Delivery","714-312-9707","potdeliveryoc@gmail.com","","Anaheim Hill s/ Orange","California","Anaheim Hill s/ Orange, California US 92807"
"Secret Nug Exchange","714-420-6133","snedelivers@gmail.com","","Orange","California","Orange, California US 92868"
"Hyperwolf - Orange 2.0","(714) 988-4700","order@Hyperwolf.com","http://Hyperwolf.com","Orange","California","Orange, California US 92865"
"West Coast Clones","714-583-5751","socalclonecollective@gmail.com","http://www.southerncaliforniaclones.com","Orange","California","Orange, California US 92807"
"Peoples OC","714-660-2521","marketing@pmcoc.com","https://www.peoplesorangecounty.com/menu","Orange","CA","Orange, CA USA 92705"
"1Stop OC","714-585-5657","santaanapc@gmail.com","","Anaheim Hills","CA","Anaheim Hills, CA  92807"
