"Business name","Phone","Email","Website","State","City","Address"
"East Bay Caregivers","925-206-8191","eastbaycaregivers@gmail.com","https://www.facebook.com/eastbaycaregivers","Oakley","","Oakley, US 94561"
"Taste","925-914-0540","tastedelivery@outlook.com","","Antioch","CA","Antioch, CA USA 94531"
"InstantGrams Delivery Inc - Oakley","(925) 339-9948","instantgramsca@gmail.com","http://instantgramsdelivery.com","Oakley","California","Oakley, California US 94561"
"Legal Treez Deliveries","(925) 864-7660","legaltreezdelivery@gmail.com","","Antioch","CA","Antioch, CA  94509"
"Violet - Antioch / Brentwood","925-471-1939","Violetpatientcontact@gmail.com","","Brentwood","California","Brentwood, California US 94513"
"420 Organics - Brentwood","(925) 848-8621","420organics@yahoo.com","","Brentwood","CA","Brentwood, CA USA 94511"
"TOP SHELF EXPRESS","408 703 4420","topshelfhomedelivery@gmail.com","","Antioch","California","Antioch, California US 90001"
"Green Coach - Antioch","925-339-2033","Greencoach420@gmail.com","","Antioch","California","Antioch, California US 94531"
"The 1 Delivery Service - Pittsburg","925-705-0831","eastbaythe1delivery@gmail.com","http://www.the1delivery.com","Pittsburg","California","Pittsburg, California US 94565"
"Mountain Remedy","9254204215","info@mountainremedy.com","https://www.mountainremedy.com","Pittsburg","CA","Pittsburg, CA  94520"
"Door Rush 420","1-866-787-4420","orders@doorrush420.com","https://www.doorrush420.com/","Antioch","California","Antioch, California US 94531"
"GLM Deliveries - Brentwood","(925) 428-0829","glmdeliveries@yahoo.com","","Brentwood","CA","Brentwood, CA USA 94513"
"Delta Organic","925-350-1424","info@deltaorganic.com","http://www.deltaorganic.com","Brentwood","CA","Brentwood, CA  94531"
"Mountain High Recreation","(415) 420-6470","mountainhighrec@gmail.com","http://www.mountainhighrec.com","Antioch","CA","Antioch, CA USA 94509"
"The Sticky Rose","877-420-0102","info@thestickyrose.com","http://thestickyrose.com","Antioch","CA","Antioch, CA  94505"
"Keep It Lit Collective","925-305-1187","keepitlitcollective@gmail.com","","Antioch","California","Antioch, California US 94531"
"The Sacred Stem","(510) 542-9579","thesacredstem@gmail.com","http://www.thesacredstem.com","Antioch","California","Antioch, California US 94509"
"420 Organics - Pittsburg","925-470-5001","420organics@hotmail.com","","Pittsburg","CA","Pittsburg, CA  94565"
"InstantGrams Delivery Inc - Brentwood","(925) 339 - 9948","instantgramsca@gmail.com","http://instantgramsdelivery.com","Oakley","CA","Oakley, CA  94561"
"Euphoric Phlowerz","925-428-1555","euphoricphlowerz@gmail.com","","Antioch","Ca","Antioch, Ca  94531"
"EBC Solutions","925-206-7010","ebcsolutions@yahoo.com","http://www.ebcsolutions.org","Antioch","Ca","Antioch, Ca (Select a country) 94531"
"420 Organics - Oakley","(925) 848-8621","420organics@yahoo.com","","Oakley","CA","Oakley, CA USA 94561"
"InstantGrams Delivery Inc - Discovery Bay","(925) 339 - 9948","instantgramsca@gmail.com","http://instantgramsdelivery.com","Discovery Bay","CA","Discovery Bay, CA  94505"
"InstantGrams Delivery Inc - Antioch","(925) 339 - 9948","instantgramsca@gmail.com","http://instantgramsdelivery.com","Brentwood","California","Brentwood, California US 94513"
"California's Best Genetics Powered by Herbal Solutions CBD","(925) 783-6406","herbalsolutionsCBD@gmail.com","","Brentwood","California","Brentwood, California US 94513"
"Euphoric Phlowerz","925-428-1555","euphoricphlowerz@gmail.com","","Pittsburg","CA","Pittsburg, CA  94565"
"420 Organics - Pleasant Hill","(925) 470-5001","420organics@yahoo.com","","Pleasant Hill","CA","Pleasant Hill, CA  94523"
"TLC The Leaves of Compassion","925-240-4996","theleaves1313@gmail.com","","Discovery Bay","CA","Discovery Bay, CA  94505"
"CalCare Group","925-490-9132","CalCareGroupDelivery@gmail.com","http://WWW.GOGREENFORTHEFUTURE.COM","Pittsburgh","California","Pittsburgh, California US 94565"
"CalCare Group","925-490-9132","CalCareGroupDelivery@gmail.com","http://WWW.GOGREENFORTHEFUTURE.COM","Pittsburgh","California","Pittsburgh, California US 94565"
"Golden State Canna","5109934535","Goldenstatecann@gmail.com","","Discovery Bay","California","Discovery Bay, California US 94505"
"Golden State Canna","5109934535","GoldenStateCann@Gmail.Com","","Pittsburg","California","Pittsburg, California US 94565"
"The Sacred Stem","(510) 542-9579","thesacredstem@gmail.com","http://www.thesacredstem.com","Brentwood","California","Brentwood, California US 94513"
"InstantGrams Delivery Inc - Pittsburg","(925) 339-9948","instantgramsca@gmail.com","http://instantgramsdelivery.com","Pittsburg","CA","Pittsburg, CA  9456"
"Proper Rx Collective - Brentwood","888-317-8795 ext. 1","info@properrx.com","http://www.ProperRx.com","Brentwood","California","Brentwood, California US 94513"
"Rubyâ€™s Green Garden (RGG LLC)","925-915-1028","rubysgreengarden.inc@gmail.com","http://rubysgreengarden.com","Pittsburg","California","Pittsburg, California US 94565"
"CBD - East Bay CBD","9255973492","info@eastbaycbd.com","","Antioch","CA","Antioch, CA  94509"
"Golden State Canna","5109934535","GoldenStateCann@Gmail.Com","","Brentwood","California","Brentwood, California US 94513"
"The Cookie House","925-848-5796","bigboymusik@gmail.com","","Pitsburg","California","Pitsburg, California US 94509"
"Urban Flavours Delivery - Antioch","855-205-3380","orders@urbanflavoursdelivery.com","https://urbanflavoursdelivery.com","Antioch","California","Antioch, California US 94509"
"Smoakland - Antioch","510-513-9570","register@smoakland.com","https://www.smoakland.com","Antioch","California","Antioch, California US 94509"
"Budee","(925)953-2850","contact@budee.org","http://www.budee.org","Antioch","California","Antioch, California US 94565"
"Door Rush 420","1-866-787-4420","orders@doorrush420.com","http://doorrush420.com","Brentwood","California","Brentwood, California US 94513"
"Angel Care 360","(925) 658 - 8040","info@angelcare360.com","http://www.angelcare360.org","Antioch","CA","Antioch, CA  94509"
"The Sticky Rose","877-420-0102","info@thestickyrose.com","http://thestickyrose.com","Oakley","CA","Oakley, CA  94561"
"The Sticky Rose","877-420-0102","info@thestickyrose.com","http://thestickyrose.com","Emmanton","CA","Emmanton, CA  94571"
"Budee","925-953-2850","contact@budee.org","http://www.budee.org","Antioch","California","Antioch, California US 94509"
"Budee","925-953-2850","contact@budee.org","http://www.budee.org","Antioch","California","Antioch, California US 94509"
"Higher Elevation","(925)579-3330","info@higherelevation.com","http://higherelevation.com","antioch","California","antioch, California US 94509"
"West Coast Green Rush- Antioch","1-833-420-7874","info@westcoastgreenrush.com","http://www.westcoastgreenrush.com","Brentwood","California","Brentwood, California US 94513"
"Royal Greens","(510) 491-0899","info@royalgreens.shop","http://www.royalgreens.shop","Antioch","California","Antioch, California US 94509"
