"Business name","Phone","Email","Website","State","City","Address"
"Blum Delivery - Costa Mesa","949-238-4203","ca-info@letsblum.com","http://www.letsblum.com/shop-blum","Costa Mesa","California","Costa Mesa, California US 92627"
"KUSHAGRAM","949-750-2003","donations@kushagram.com","http://kushagram.com","Costa Mesa","California","Costa Mesa, California US 92626"
"1-866-DELIVERY","1-866-DELIVERY","info@DeliveryGreens.com","http://www.DeliveryGreens.com","Costa Mesa","CA","Costa Mesa, CA USA 92626"
"Green Tree Remedy - Costa Mesa","3238005420","sales@greentreeremedy.com","","Costa Mesa","Ca","Costa Mesa, Ca  92627"
"Sky High Holistic Delivery","714-620-4205","N/A@NA.COM","","Costa Mesa","California","Costa Mesa, California US 92626"
"Puffy Delivery","714-406-2742","support@puffydelivery.com","http://puffydelivery.com","Costa Mesa","California","Costa Mesa, California US 92626"
"OC Compassionate Care - Costa Mesa","949-751-9747","occcdelivery@gmail.com","http://www.occompassionatecare.org","Costa Mesa","California","Costa Mesa, California US 92627"
"Golden Leaf","909-720-0205","weedmaps@goldenleaf420.com","http://goldenleaf420.com","Costa Mesa","California","Costa Mesa, California US 92627"
"QUIKBUDS Premium Delivery - Costa Mesa","714-697-7003","quikbuds@gmail.com","http://quikbuds.com","Costa Mesa","California","Costa Mesa, California US 92627"
"Extraction - Costa Mesa","949-375-8936","extraction420@gmail.com","","Costa Mesa","California","Costa Mesa, California US 92626"
"SCQM - Costa Mesa","(714) 878-6069","SCQMDelivery@gmail.com","http://www.scqmdelivery.com","Costa Mesa","CA","Costa Mesa, CA United States 92626"
"Herbaculture","(949) 514-1616","herbacultureinc@gmail.com","http://www.herbacultureoc.com","Costa Mesa","CA","Costa Mesa, CA  92627"
"AGT - Costa Mesa","949-533-5223","alphagardentech@gmail.com","http://agt420.com/","Costa Mesa","California","Costa Mesa, California US 92627"
"GasCar - Costa Mesa","714-450-5401","gascar420@gmail.com","","Costa Mesa","CA","Costa Mesa, CA  92626"
"Dank Drop","(949)-402-5090","dankdropco@gmail.com","","Costa Mesa","CA","Costa Mesa, CA (Select a country) 92626"
"OCPC","949-752-6272","ocpcdelivery123@gmail.com","http://www.ocpcdelivery.com","Costa Mesa","CA","Costa Mesa, CA USA 92627"
"Natures Cure","949-205-0603","NaturesCureDeliveryService@gmail.com","","Costa Mesa","California","Costa Mesa, California US 92626"
"Kingdom Of Ounces","657-271-5372","Kingdomofounces@gmail.com","","Costa Mesa","California","Costa Mesa, California US 92626"
"KUSHAGRAM - SOUTH COAST METRO","949-750-2003","donations@kushagram.com","","Costa Mesa","California","Costa Mesa, California US 92626"
"Higher Healing Delivery","714-312-9228","higherhealing420@yahoo.com","","Costa Mesa","California","Costa Mesa, California US 92626"
"KUSHAGRAM - FAIRGROUNDS","949-750-2003","donations@kushagram.com","http://kushagram.com","Costa Mesa","California","Costa Mesa, California US 92626"
"KUSHAGRAM","949-750-2003","donations@kushagram.com","","Costa Mesa","California","Costa Mesa, California US 92627"
"Juicebox Cartel","(310) 998-7507","jc@juiceboxcartel.com","https://juiceboxcartel.com/about-4/","Costa Mesa","California","Costa Mesa, California US 92627"
"1Stop OC","714-585-5657","santaanapc@gmail.com","","Costa Mesa","CA","Costa Mesa, CA  92626"
"Peoples OC","714-660-2521","marketing@pmcoc.com","https://www.peoplesorangecounty.com/","Costa Mesa","CA","Costa Mesa, CA USA 92626"
