"Business name","Phone","Email","Website","State","City","Address"
"OMG Delivery","909-586-1806","Originalmedicalgroupsb@gmail.com","","Colton","California","Colton, California US 92376"
"Green Tree Remedy","3238005420","gtrdelivery@gmail.com","","Colton","CA","Colton, CA  92316"
"4 Twenty","951-800-8228","Join420now@gmail.com","http://www.4twentyhub.com","Rialto","California","Rialto, California US 92376"
"Healing Leaf Village","951-437-5363","info@healingleafvillage.com","http://www.healingleafvillage.com","Rialto","California","Rialto, California US 92376"
"Medical Reserve","7027873532","medicalreserveonline@gmail.com","http://medicalreserve.org","Rialto","California","Rialto, California US 92376"
"Inland Plug","(909) 961-5692","inlandplug4200@gmail.com","https://www.instagram.com/inlandplug4200/","Rialto","California","Rialto, California US 92316"
"Nurse K","888-463-3155","nursek420@gmail.com","","Rialto","CA","Rialto, CA 91786 92376"
"Weed Hut","909-368-6264","weedhutco@gmail.com","","Rialto","California","Rialto, California US 92376"
"NICE DREAMS DELIVERY","9097613542","NICEDREAMSMJ@YAHOO.COM","","Rialto","California","Rialto, California US 92376"
"SoCAL Green Meds","760-514-7007","patientinfo@socalgreenmeds.com","","Rialto","California","Rialto, California US 92376"
"Best Budz Delivery 909","909-775-2280","bestbudzdelivery909@gmail.com","","Bloomington","California","Bloomington, California US 92316"
"The Highwaze Co.","9092436020","info@highwaze.co","http://www.thehighwazeco.com","Colton","California","Colton, California US 92324"
"O & J Meds","909-561-7510","deliverynuggs13@gmail.com","","Rialto","CA","Rialto, CA  92376"
"Rehab Delivery","4422679282","rehabdelivery@gmail.com","http://www.rehabdeliveries.com","Rialto","California","Rialto, California US 92376"
"Dank.Meds909","(909)-728-8237","dank.meds909@gmail.com","","Rialto","California","Rialto, California US 92316"
"Dank Bank Collective","9095330065","superstickyy710@gmail.com","","Colton","CA","Colton, CA  92324"
"ARC Collective","951-217-0052","arccollective25@gmail.com","http://arccollective25.com","Delivery","CA","Delivery, CA USA 92376"
"Green Bee Meds - Rialto","909-251-2465","GreenBeeMeds420@gmail.com","","Rialto","CA","Rialto, CA  92376"
"Cured Delivery","(909) 329-7809","thecurecollectivee@gmail.com","","Rialto","California","Rialto, California US 92376"
"Black Sheep Co.","909-301-7948","blacksheepmeds2018@icloud.com","","Rialto","California","Rialto, California US 92376"
