"Business name","Phone","Email","Website","State","City","Address"
"Fly Delivery - Burbank","(323) 905-4359","flydelivery@yahoo.com","","Burbank","CA","Burbank, CA USA 91505"
"Kush Mobile","3232078089","qnicorporation@gmail.com","https://www.kush-mobile.com","Burbank","California","Burbank, California US 91505"
"Green Tree Remedy","(323)714-0420","sales@greentreeremedy.com","","Burbank","CA","Burbank, CA  91502"
"Golden Leaf","818-699-4541","weedmaps@goldenleaf420.com","http://goldenleaf420.com","Burbank","California","Burbank, California US 91505"
"BudExpress","3237902727","bigbudexpress@gmail.com","","Burbank","CA","Burbank, CA  91506"
"Compassion Union","323-818-2837","compassionun@gmail.com","","Burbank","California","Burbank, California US 91502"
"Level Up Delivery","(323) 873-0777","level420delivery@gmail.com","","Burbank","CA","Burbank, CA USA 91502"
"GRASSDOOR","310.749.9135","support@grassdoor.com","http://www.grassdoor.com","Burbank","California","Burbank, California US 91501"
"OrangeLeaf","818-572-5156 ","orangeleaf2007@gmail.com","","Burbank","California","Burbank, California US 91506"
"Sky High Originals -","3239011198","weedmaps626@gmail.com","","Burbank","California","Burbank, California US 91505"
"Cloud Nine Delivery - Burbank","213-760-6102","cloud9delivery@aol.com","","Burbank","CA","Burbank, CA  91505"
"Puffy Delivery - Burbank","747-200-1626","support@puffydelivery.com","http://puffydelivery.com","Burbank","California","Burbank, California US 91504"
"The Spot Delivery - Burbank","747-998-9199","TheSpotDelivery818@yahoo.com","","Burbank","California","Burbank, California US 91502"
"Trap House Delivery","323-346-7248","ttraphouseboyz@gmail.com","","Burbank","California","Burbank, California US 91502"
"Daily Dose Delivery","TEXT 818-274-6453","dailydosedelivery818@gmail.com","","Burbank","California","Burbank, California US 91501"
"Whisper Weed","818-815-1983","whisperweeddelivery@gmail.com","","Burbank","California","Burbank, California US 91502"
"iWeed","747-203-5085","iweed007@gmail.com","https://iweed.me/","Burbank","California","Burbank, California US 91505"
"Delivery Service","949-445-6468","DeliveryService2045@gmail.com","","Burbank","CA","Burbank, CA (Select a country) 91506"
"Top Shelf California","323-494-8861","TopShelfDeliveryServices@gmail.com","http://topshelf.delivery","Los Angeles","California","Los Angeles, California US 91506"
"Starleaf - Burbank","501-550-5055","starleaf@yahoo.com","","Burbank","CA","Burbank, CA  91505"
"Cannix","833-462-2664","management@dannyvisualstv.com","","Burbank","California","Burbank, California US 91501"
"Exotic Gas","818-303-6950","exoticgasfast@gmail.com","","Burbank","California","Burbank, California US 91504"
"Magna Med","TEXT (747) 201-0802","magnamed@yahoo.com","","Burbank","","Burbank, US 91506"
"DHC Delivery","747 888 6000","oscarlopez7441@yahoo.com","","Burbank","California","Burbank, California US 91502"
"HCMA - NC Co-Op Delivery","(818)699-9333","hcmadelivery@gmail.com","https://hcmadelivery.com/","Burbank","California","Burbank, California US 91502"
"BudHut","8187399008","budhutla@gmail.com","http://budhut.la","Burbank","California","Burbank, California US 91502"
"Exhalence","(818) 394-9094","exhalencedelivery@gmail.com","","Burbank","California","Burbank, California US 91503"
"Green Ways Delivery","8184786473","greenways323@yahoo.com","","Burbank","California","Burbank, California US 91504"
"Joy Delivery","818-423-3744","joydelivered420@gmail.com","","Burbank","California","Burbank, California US 91505"
"Deluxe Caregivers","818-427-6706","deluxecaregiversds@gmail.com","","Burbank","California","Burbank, California US 91505"
"ganjarunner","(855) 554-2652","contact@ganjarunner.com","http://ganjarunner.com","Burbank","California","Burbank, California US 91505"
"Pineapple Express","877 WE-Deliver","Support@PineappleExpress.com","https://pineappleexpress.com/","Burbank","California","Burbank, California US 91506"
"Cloud 420 Delivery","818-270-0979","cloud420w@gmail.com","","Burbank","California","Burbank, California US 99999"
"Urban Treez Delivery","844-688-7339","Contact@UrbanTreez.com","http://www.urbantreez.com","Burbank","California","Burbank, California US 91505"
"HCMA - NC Co-Op Delivery","(818)699-9333","hcmadelivery@gmail.com","https://hcmadelivery.com/","Burbank","California","Burbank, California US 91505"
