"Business name","Phone","Email","Website","State","City","Address"
"Central Valley Green","559-754-5049","centralvalleygreen@outlook.com","","Visalia","CA","Visalia, CA  93277"
"Top Shelf","559-397-3753","topshelfvisalia92@icloud.com","","Visalia","CA","Visalia, CA  90001"
"Valley's Finest Herbs - Visalia","559-341-7308","valleysfinestherbs@gmail.com","","Visalia","California","Visalia, California US 93673"
"Designer Genetics","(559) 356-7033","designergenetics9@yahoo.com","","Visalia","CA","Visalia, CA USA 93277"
"MMJ Deliveries","559-397-3562","deliveriesmmj@gmail.com","","Visalia","California","Visalia, California US 93277"
"Hermies Herbs","5593562673","hermiesherbs@gmail.com","","Visalia","(Select a state)","Visalia, (Select a state) US 93277"
"Strictly Green","559-201-7720","strictlygreens@outlook.com","","Visalia","California","Visalia, California US 93277"
"Leaf Kings","5597255086","leafkings@icloud.com","","Dinuba","California","Dinuba, California US 93618"
"Touch of Green","5593000441","touchofgreen559@gmail.com","","Visalia","California","Visalia, California US 93291"
"Mary Jane's Sweet Leafs Inc","559-690-0100","MaryJanesSweetLeafsInc@gmail.com","","Visalia","California","Visalia, California US 93277"
"Richfield Grass Station","559.468.6172 ","help@richfieldgrassstation.com","","Visalia","California","Visalia, California US 93277"
"Always Lit Medicinal","209-324-7740","alwayslit420@gmail.com","http://www.alwayslitmedicinal.com","Visalia","California","Visalia, California US 93277"
"Organic Medicine Delivery - Visalia","559-704-7993","organicmedicinedelivery@outlook.com","","Visalia","CA","Visalia, CA USA 93277"
"Green Stop Inc.","559-967-8455","greenstopdelivery@yahoo.com","","Visalia","california","Visalia, california  93235"
"Green Stop Inc","559-967-8455","greenstopdelivery@yahoo.com","","Hanford","CA","Hanford, CA  93230"
"Naked Collective","559-999-9844","nakedcollective420@gmail.com","http://www.thenakedcollective.com","Visalia","CA","Visalia, CA  93291"
"Busy Bee Services","(775) 773-8741 ","busy710bee@gmail.com","","Visalia","CA","Visalia, CA USA 93277"
"Herb N Terp Farms","559-798-6380","herbnterpfarms@gmail.com","","Visalia","California","Visalia, California US 93291"
"Central Valley Alternative","800- 976-2406","support@cvaltvisalia.com","https://cvalt.online","Dinuba","California","Dinuba, California US 93618"
"Valley's Finest Herbs - Hanford"," 559-369-3300 ","valleysfinestherbs@gmail.com","","Hanford","California","Hanford, California US 93230"
"Strictly Green","559-201-7720","strictlygreens@outlook.com","","Hanford","California","Hanford, California US 93230"
"CentralCare","(559) 991-3908","centralcare559@yahoo.com","","Tulare","CA","Tulare, CA United States 93291"
"Green Stop Inc.","559-967-8455","greenstopdelivery@yahoo.com","","Selma","CA","Selma, CA  93662"
"The Chronic inc.","559-483-5405","TheChronicinc@gmail.com","","Porterville","California","Porterville, California US 93257"
"CentralCare","(559) 991-3908","centralcare559@yahoo.com","","Lemoore","CA","Lemoore, CA United States 80201"
"Valley's Finest Herbs - Dinuba","(559)341-7308","valleysfinestherbs@gmail.com","","Dinuba","California","Dinuba, California US 93618"
"Hermies Herbs","5593077803","hermiesherbs@gmail.com","","Hanford","California","Hanford, California US 93230"
"Designer Genetics - Hanford","559-356-7033","designergenetics9@yahoo.com","","Hanford","CA","Hanford, CA USA 93230"
"Herbal Therapy","(559) 756-2941","herbaltherapy559@gmail.com","","Porterville","California","Porterville, California US 93257"
"Hermies Herbs","5593562673","hermiesherbs@gmail.com","","Exeter","California","Exeter, California US 93221"
"Top Shelf","559-397-3753","topshelfvisalia92@icloud.com","","Tulare","California","Tulare, California US 93274"
"Hermies Herbs","5593314868","hermiesherbs@gmail.com","","Dinuba","California","Dinuba, California US 93618"
"Top Shelf","559-397-3753","topshelfvisalia92@icloud.com","","LeMoore","California","LeMoore, California US 93245"
"Empire Delivery - Tulare","(209) 299-6760","empirehealthandwellness64@gmail.com","http://www.empirehw.com","Tulare","California","Tulare, California US 93274"
"Budee","925-953-2850","contact@budee.org","http://www.budee.org","Visalia","California","Visalia, California US 93291"
"Top Shelf","559-397-3753","topshelfvisalia92@icloud.com","","Hanford","California","Hanford, California US 93230"
"Empire Delivery - Delano","(209) 299-6760","empirehealthandwellness64@gmail.com","http://www.empirehw.com","Delano","California","Delano, California US 93215"
"Empire Delivery -Visalia","(209) 299-6760","empirehealthandwellness64@gmail.com","http://www.empirehw.com","Visalia","California","Visalia, California US 93291"
