"Business name","Phone","Email","Website","State","City","Address"
"Best Remedy","626-371-5321","sgvbestremedy@yahoo.com","","Chino","CA","Chino, CA (Select a country) 91710"
"Hyperwolf - Chino","951-200-2088","order@Hyperwolf.com","https://www.Hyperwolf.com","Chino","California","Chino, California US 91709"
"Jane Welnis","951-512-0000","sales@janewelnis.com","","Chino","California","Chino, California US 91710"
"OG Pharmacy","626-991-6909","og.pharmacyco@gmail.com","https://ogpharmacy.dropdelivery.app","Chino Hills","California","Chino Hills, California US 91709"
"Reptar's Delivery- Chino","9516420279","highsky850@gmail.com","","Chino","California","Chino, California US 91710"
"Buddies","626-238-8784","buddiesmedexpress@yahoo.com","","Chino","California","Chino, California US 91709"
"Wings of Wellness - Chino HIlls","(909) 921-7447","wingsofwellnessie@gmail.com","http://wingsofwellnessie.com","Chino HIlls","California","Chino HIlls, California US 91709"
"The Highest Choice","(626) 413-2682","thehighestchoice@gmail.com","","Chino Hills","California","Chino Hills, California US 91709"
"Medicated Excellence","(909) 288-9920","medicatedexcellence@gmail.com","","Chino","California","Chino, California US 91709"
"Cali Dreamz","909 536 6130","calidreamzdelivery@gmail.com","","Chino Hills","CA","Chino Hills, CA  91709"
"420 Nugz","951-310-7231","info@420nugz.com","http://www.420nugz.com","Chino","California","Chino, California US 92882"
"A1 Collective","626-598-0878","a1collectivea1@gmail.com","","Chino","CA","Chino, CA  91710"
"Flight Meds 101","909-374-6762","Flightmeds101@gmail.com","","Chino hills","","Chino hills,  US 91709"
"Connoisseur Club Chino Hills","909-703-5222","Connoisseurclubs@gmail.com","https://www.instagram.com/connoisseur_club_/","Chino Hills","California","Chino Hills, California US 91709"
"TKO Delivery - Chino","(909) 325-0163","tkodelivery420@gmail.com","","Chino","CA","Chino, CA USA 91710"
"World Class Cannabis","949-554-4233","WorldClassCannabis420@gmail.com","","Chino Hills","California","Chino Hills, California US 91709"
"FTP Gifts Everyday","909-927-7795","ftpeveryday420@gmail.com","","Chino Hills","CA","Chino Hills, CA  91709"
"FTP Gifts Everyday","909-927-7795","ftpeveryday420@gmail.com","","Chino","CA","Chino, CA  91710"
"WeedBell Delivery- Chino","(909)696-1041","hello@weedbell.com","http://www.weedbell.com","Chino","California","Chino, California US 91709"
"Farm Fresh J's","909-529-6055","farmfreshjs@gmail.com","http://www.FarmFreshjs.com","Chino Hills","CA","Chino Hills, CA  91709"
"Green Pinnacle","909-345-4373","GreenPinnacle420@gmail.com","","Chino HIlls","CA","Chino HIlls, CA  91709"
"Pot Mates","6262067594","potmatesdelivery420@gmail.com","","Chino","California","Chino, California US 91710"
"Pot Mates","(626)206-7594","potmatesdelivery420@gmail.com","","Chino","California","Chino, California US 91710"
"Pot Mates","6262067594","potmatesdelivery420@gmail.com","","Chino","California","Chino, California US 91710"
"Pelican","909-696-5425","thepelican10@gmail.com","","Chino","CA","Chino, CA  91710"
"Best Coast Delivery","909-306-9579","bestcoastdelivery909@gmail.com","","Chino","CA","Chino, CA  92879"
"TKO Delivery - Chino Hills","(909) 325-0163","tkodelivery420@gmail.com","","Chino Hills","CA","Chino Hills, CA  91709"
"Mr.Chowws Remedies","909-282-3683","MrChowwsRemedies@Yahoo.com","","Chino","California","Chino, California US 91710"
"OG Pharmacy","626-991-6909","og.pharmacyco@gmail.com","https://ogpharmacy.dropdelivery.app","Chino","California","Chino, California US 91710"
"The House Of Ounces","2132145440","TheLAhouseofounces@gmail.com","","chino","California","chino, California US 91708"
"Todays Meds Chino Hills","1-877-420-Meds","todaysmeds@yahoo.com","http://www.todaysmeds.com","Chino","CA","Chino, CA USA 91709"
"Rehab Delivery","4422679282","rehabdelivery@gmail.com","","Chino","California","Chino, California US 91710"
"35 Cap PRC - Chino","(909) 242-9226","prc40cap@gmail.com","","Chino","California","Chino, California US 91767"
"Flavors Club","9095521175","flavorscclub@gmail.com","","Chino Hills","California","Chino Hills, California US 91709"
"Hyperwolf- Chino Hills 2.0","951-200-2088","Info@Hyperwolf.com","http://Hyperwolf.com","Chino Hills","California","Chino Hills, California US 91709"
