"Business name","Phone","Email","Website","State","City","Address"
"WeedBell Delivery - Corona","(909)359-8432","hello@weedbell.com","http://WeedBell.com","Corona","California","Corona, California  92879"
"Reptar's Delivery-Corona","9516420279","highsky850@gmail.com","","Corona","California","Corona, California US 92882"
"Hyperwolf - Corona","951-200-2088","order@hyperwolf.com","https://www.Hyperwolf.com","Corona","California","Corona, California US 92881"
"The Grasshopper Delivery","9514370277","grasshopperdelivery714@gmail.com","","Corona","California","Corona, California US 92879"
"Green Tree Remedy","3238005420","sales@greentreeremedy.com","","Corona","California","Corona, California US 92882"
"Infinite Kindness - Corona","951-454-6105","infinitekindness@infinitekindness.com","http://www.ikdelivery.com","Corona","California","Corona, California US 92860"
"Cali Greens Co. - Corona","310-492-3781","caligreensco@gmail.com","","Corona","California","Corona, California US 92882"
"IE OG","(951) 776-6591","InlandEmpireOG951@gmail.com","","Corona","CA","Corona, CA USA 92879"
"420 Nugz","951-310-7231","info@420nugz.com","https://www.420nugz.com/","Corona","CA","Corona, CA  92882"
"Redrum Inc","951-373-4388","redrumind@gmail.com","","Corona","California","Corona, California US 98221"
"Diamond Medicines","855-202-6435","diamondmedicines@gmail.com","","Corona","California","Corona, California US 92879"
"Green Star Holistics","951-603-6950","greenstar0420@gmail.com","https://www.facebook.com/?sk=nf","Corona","Ca","Corona, Ca USA 92883"
"Pristine Greens","951-254-2391","pristinegreens19@gmail.com","","Corona","California","Corona, California US 92880"
"Jane Welnis","951-512-0000","sales@janewelnis.com","","Corona","California","Corona, California US 92879"
"FTP Gifts Everyday","909-927-7795","ftpeveryday420@gmail.com","","Corona","CA","Corona, CA USA 92882"
"Nothing But Fire","909-234-5790","nothingbutfire2018@yahoo.com","","Corona","California","Corona, California US 92882"
"From The Heart","909-536-7655","FromTheHeartChino@yahoo.com","","Eastvale","California","Eastvale, California US 92880"
"Legendary Greens","714-408-5505","legendarygreens420@gmail.com","","Corona","California","Corona, California US 92882"
"Puffy Delivery - Corona","951-356-0042","support@puffydelivery.com","http://puffydelivery.com","Corona","California","Corona, California US 92879"
"All Star Medz","951-708-0636 ","allstarmedz@gmail.com","","Norco","California","Norco, California US 92860"
"Green Star Holistics","951-603-6950","greenstar0420@gmail.com","https://www.facebook.com/?sk=nf","Corona","California","Corona, California US 92880"
"Skydweller Farms - Corona / Norco","(951) 444-1189","skydwellerfarms@gmail.com","http://www.skydwellerfarms.com","Corona","Ca","Corona, Ca USA 92879"
"Stone Garden","951-741-1567","stonegardenie@gmail.com","","Norco","California","Norco, California US 92860"
"Todays Meds - Corona/Norco","1-877-420-Meds","todaysmeds@yahoo.com","http://www.todaysmeds.com","Corona","CA","Corona, CA  92879"
"Great Lakes Health & Wellness","951-768-2981","GLHW2015@yahoo.com","http://GLHealthandWellness.com","Corona","California","Corona, California US 92882"
"Green Star Holistics","951-603-6950","greenstar0420@gmail.com","","Corona","Ca","Corona, Ca USA 92883"
"Leaf House Delivery","951-496-9466","theleafhousedelivery@gmail.com","https://theleafhouse.net/","Eastvale","California","Eastvale, California US 92880"
"Rehab Delivery","4422679282","rehabdelivery@gmail.com","","corona","California","corona, California US 92879"
"Alpha Delivery","(951) 417-9941","none@gmail.com","","Corona","California","Corona, California US 92879"
"Top Knotch","951-758-0533","topknotchinc86@gmail.com","","Corona","California","Corona, California US 92860"
"Leaf House Delivery","9514969466","theleafhousedelivery@gmail.com","","Corona","CA","Corona, CA  92881"
"The Petro Shop","626-412-5118","thepetroshop@gmail.com","","Corona","California","Corona, California US 92878"
"Mr.Chowws Remedies","909-282-3683","MrChowwsRemedies@Yahoo.com","","Eastvale","California","Eastvale, California US 92880"
"Flower and Honey","(951) 422-9540","flowerhoney666@gmail.com","","Murrieta","California","Murrieta, California US 92563"
"Flower and Honey","(951) 422-9540","flowerhoney666@gmail.com","","Corona","California","Corona, California US 92883"
"Mr.Chowws Remedies","909-282-3683","MrChowwsRemedies@Yahoo.com","","Corona","California","Corona, California US 92880"
