"Business name","Phone","Email","Website","State","City","Address"
"MedMen Delivery - Culver City","(310) 307-3478","info.beverlyhills@medmen.com","https://medmen.com/stores/los-angeles-beverly-hills","Culver City","California","Culver City, California US 90232"
"Green Tree Remedy","3238005420","sales@greentreeremedy.com","","Culver City","Ca","Culver City, Ca US 90230"
"Hyperwolf - Culver City","310-566-8384","order@HyperWolf.com","http://www.HyperWolf.com","Culver City","California","Culver City, California US 90232"
"FCC FLIGHT CLUB COLLECTIVE","(310) 422-6992","FCCWESTLA@gmail.com","https://fccwestla.greenlightapp.com/product","Culver City","California","Culver City, California US 90230"
"The Pottery Delivery","(424) 256-5388","soco.losangeles@gmail.com","http://thepottery.delivery","Culver City","California","Culver City, California US 90034"
"Westside Botanicals","310-433-9393","wsbotanicals@gmail.com","","Los Angeles","CA","Los Angeles, CA  90034"
"Kush House","626-328-9108","Kushhouse@gmail.com","","Culver City","California","Culver City, California US 90230"
"GRASSDOOR","310-749-9135","support@grassdoor.com","http://www.grassdoor.com","Culver City","California","Culver City, California US 90034"
"Golden Leaf","424-444-3363","weedmaps@goldenleaf420.com","http://www.goldenleaf420.com","Culver City","California","Culver City, California US 90034"
"WeeDeals","+1 (323) 9556947","weedeliver420la@gmail.com","","Culver City","CA","Culver City, CA  90265"
"Venice Buds Delivery- Culver City","747-777-2275","venicebudsdelivery@gmail.com","","Culver City","California","Culver City, California US 90034"
"Puffy Delivery","424-258-3266","support@puffydelivery.com","http://puffydelivery.com","Culver City","California","Culver City, California US 90230"
"Xaler Delivery","424-261-9333","xalercollective@gmail.com","","Culver City","California","Culver City, California US 90232"
"Green Monkey","323-738-6976","rudylinares8@gmail.com","","Culver City","California","Culver City, California US 90232"
"420 CaliWeed","(424) 625-4460","laxcaliweed@gmail.com","http://420caliweed.com/","Los Angeles","CA","Los Angeles, CA USA 90045"
"Metro Green Meds - Culver City","310 261 8827","mgmmeds@gmail.com","http://metrogreenmeds.com","Los Angeles","California","Los Angeles, California US 90230"
"VIP LA","323-334-5153","VeryImportantPatients@gmail.com","","Los Angeles","California","Los Angeles, California US 90034"
"KUSHAGRAM","323-739-1134","donations@kushagram.com","","Culver City","California","Culver City, California US 90035"
"Soulgoods","323-498-4566","soulgoods420@gmail.com","","Los Angeles","California","Los Angeles, California US 90035"
"FAST and FRIENDLY","310-870-7115","fastandfriendlydeliveries@gmail.com","http://fastandfriendly.us","Culver City","California","Culver City, California US 90232"
"Cannix","323-406-5833","management@dannyvisualstv.com","","Culver City","California","Culver City, California US 93036"
"Cannabees","424-744-7461","cannabees.delivery@gmail.com","http://cannabees.club","Los Angeles","CA","Los Angeles, CA  90034"
"Honor Roll Delivery","(888) 884-7229","honorrolldelivery@gmail.com","http://www.honorrolldelivery.com","Culver City","California","Culver City, California US 90232"
"LuvBrite Delivery","310-697-2611","info@luvbrite.com","http://www.luvbrite.com","Culver City","CA","Culver City, CA (Select a country) 99999"
"Uplift","2132672466","upliftdelivery02@gmail.com","","Culver City","California","Culver City, California US 90034"
"PineX","310-294-0217","pinexdelivery@gmail.com","","Culver City","California","Culver City, California US 90034"
"Uplift","2132672466","upliftdelivery02@gmail.com","","Culver City","California","Culver City, California US 90034"
"Good Tree","562-315-8955","support@goodtreedelivery.com","http://goodtreedelivery.com","Los Angeles","California","Los Angeles, California US 90064"
"Cannary West","424-293-2479","info@cannarywest.com","","Los Angeles","California","Los Angeles, California US 90034"
