"Business name","Phone","Email","Website","State","City","Address"
"Violet - Danville / San Ramon","(925) 471-1939","Violetpatientcontact@gmail.com","","Danville","California","Danville, California US 94506"
"Healthy Greens - Danville","(510)240-2437","hgnewpatient@gmail.com","http://www.healthygreensdelivery.com","San Ramon","Ca","San Ramon, Ca USA 94583"
"A Cut Above Now Enjoymint","6692717566","info@enjoymintdelivered.com","http://www.mintxpress.net","San Ramon","California","San Ramon, California US 94518"
"TOP SHELF EXPRESS","408 703 4420","topshelfhomedelivery@gmail.com","","San Ramon","California","San Ramon, California US 94583"
"Mobile420rx","925-984-3483","mobile420rx@gmail.com","http://mobile420rx.com","San Ramon","CA","San Ramon, CA  94583"
"Overland","(844) 687-5263","info@overlanddelivery.com","","Danville","California","Danville, California US 94506"
"MCDG","(925) 899-6292","info@TEAMMCDG.com","https://teammcdg.com/","Danville","CA","Danville, CA  94526"
"ZENGANIC","(925) 421-5894","info@zenganic.us","http://www.zenganic.us","San Ramon","CA","San Ramon, CA  94583"
"Royal Greens","(510) 491-0899","royalgreensca@gmail.com","http://www.royalgreens.shop","Danvile","California","Danvile, California US 94577"
"California Patients Club","510-342-9655","californiapatientsclub@gmail.com","","San Ramon","California","San Ramon, California US 94583"
"Strong Strain Holistics - San Ramon","510-575-3481","jessejuice420@gmail.com","","San Ramon","California","San Ramon, California US 94582"
"Cal Care Group","(925) 557-8046","CalCareGroupDelivery@gmail.com","http://WWW.GOGREENFORTHEFUTURE.COM","Danville","California","Danville, California US 94526"
"Golden State Canna","5104993681","goldenstatecann@gmail.com","","Danville","CA","Danville, CA  94526"
"Smoakland - San Ramon","510-513-9570","register@smoakland.com","https://www.smoakland.com/","San Ramon","CA","San Ramon, CA USA 94582"
"Only Exclusivez powered by Highwayz","209-640-4215","onlyexclusivez@gmail.com","http://OnlyExclusivez.com","Alamo","California","Alamo, California US 94507"
"Euphoric Phlowerz","925-428-1555","euphoricphlowerz@gmail.com","","San Ramon","CA","San Ramon, CA  94583"
"Golden State Canna","5104993681","Goldenstatecann@gmail.com","http://BioMassGardens.Com","San Ramon","California","San Ramon, California United States 94583"
"Green Line Delivery","5103558661","greenlinepatientcenter@gmail.com","http://greenlinedelivery.com","Danville","CA","Danville, CA (Select a country) 94526"
"Urban Flavours Delivery - San Ramon","855-635-2868","orders@urbanflavoursdelivery.com","https://urbanflavoursdelivery.com","San Ramon","California","San Ramon, California US 94507"
"The Sticky Rose","877-420-0102","info@thestickyrose.com","http://thestickyrose.com","Danville","CA","Danville, CA  94526"
"Higher Elevation","(925)579-3330","info@higherelevation.com","http://higherelevation.com","San Ramon","California","San Ramon, California US 94583"
"Green On The Go - San Ramon","510-688-4396","greenonthego7@gmail.com","","San Ramon","California","San Ramon, California US 94583"
"A Cut Above Deliveries","(408) 326-0777","info@enjoymintdelivered.com","","San Ramon","California","San Ramon, California US 94506"
"Rubyâ€™s Green Garden (RGG LLC)","925-915-1028","rubysgreengarden.inc@gmail.com","http://rubysgreengarden.com","Danville","California","Danville, California US 94526"
