"Business name","Phone","Email","Website","State","City","Address"
"KUSHAGRAM","323-739-1134","donations@kushagram.com","","Long Beach","California","Long Beach, California US 90802"
"Weedrive2U - Long Beach","(562) 350-5637","weedrive2u@gmail.com","","Long Beach","California","Long Beach, California US 90802"
"Green Tree Remedy","3238005420","sales@greentreeremedy.com","","Long Beach","CA","Long Beach, CA  90802"
"Friendly Strangers","(562) 682-8953","friendlystrangersdeliveries@gmail.com","","Long Beach","CA","Long Beach, CA  90813"
"ABC Delivery","562-826-2052","O@O.com","http://abccollective.com","Long Beach","CA","Long Beach, CA  90813"
"Divine Choice Delivery","562-743-9352","divinechoicedelivery@outlook.com","","Long Beach","California","Long Beach, California US 90802"
"GRASSDOOR","310.749.9135","support@grassdoor.com","http://www.grassdoor.com","Long Beach","California","Long Beach, California US 90802"
"Canna Harbor -Downtown Long Beach","1-424-305-4416","elevateharborcitydelivery@gmail.com","","long beach","California","long beach, California US 90802"
"LB Collective","562-522-4205","lbcollective@yahoo.com","","Long Beach","CA","Long Beach, CA  90805"
"Good Tree","562-315-8955","support@goodtreedelivery.com","http://goodtreedelivery.com","Downtown Long Beach","California","Downtown Long Beach, California US 90813"
"NU CULTURE","562-446-1752","NuCulture420@gmail.com","","Long Beach","California","Long Beach, California US 90813"
"Higher Purpose Delivery","562-552-0889","higherpurposedelivery@gmail.com","http://HigherPurposeDelivery.com","Long Beach","CA","Long Beach, CA  90802"
"HIGH EXPECTATIONS","562 419 0891","lbhighexpectations420@gmail.com","http://www.lbhighexpectations.com","Long Beach","CA","Long Beach, CA USA 90802"
"LONG BEACH CHRONIC","562-420-4420","LONGBEACHCHRONICDELIVERY@GMAIL.COM","http://WWW.LONGBEACHCHRONICDELIVERY.COM","Long Beach","California","Long Beach, California US 90802"
"Puffy Delivery","805-316-1093","support@puffydelivery.com","http://puffydelivery.com","Long Beach","California","Long Beach, California US 90802"
"The Healing Nug Delivery"," 562-245-8801","thehealingnug@gmail.com","","Long Beach","CA","Long Beach, CA USA 90802"
"Green Tiger Delivery","562-235-8185","greentigerlbc@gmail.com","http://GreenTiger420.com","Long Beach","California","Long Beach, California US 90802"
"This Budds 4 U","(323) 694-8795","Hennywear@gmail.com","","Long Beach","California","Long Beach, California US 90802"
"Clarity Extracts","(562) 453-0628","forestmgd2018@gmail.com","","Long Beach","California","Long Beach, California US 90802"
"Long Beach Flowers Delivery","562-213-9073","LBCFlowerDelivery@outlook.com","https://longbeachflowersdelivery.com","Long Beach","California","Long Beach, California  90813"
"Kadabra Kush Delivery","562-388-3559","Kadabrakushdelivery@gmail.com","http://Www.KadabraKush.com","Long Beach","California","Long Beach, California US 90802"
"Deals on Wheels 420 Wellness","949-546-7131","dealsonwheelslb@gmail.com","","Long Beach","California","Long Beach, California US 90813"
"Good Tree","562-315-8955","support@goodtreedelivery.com","","Long Beach","California","Long Beach, California US 90001"
"The Station - Delivery"," 562-221-1490","longbeachstation@gmail.com","http://thestationlb.com","Long Beach","California","Long Beach, California US 90802"
"Pineapple Express COMING SOON!","877 WE-Deliver","Support@PineappleExpress.com","https://pineappleexpress.com/","Glendale","California","Glendale, California US 90802"
