"Business name","Phone","Email","Website","State","City","Address"
"Violet - Dublin / Pleasanton","(925) 471-1939","Violetpatientcontact@gmail.com","","Dublin","California","Dublin, California US 94568"
"A Cut Above Now Enjoymint","9253223797","info@enjoymintdelivered.com","http://www.mintxpress.net","Pleasanton","California","Pleasanton, California US 94583"
"TOP SHELF EXPRESS","408 703 4420","topshelfhomedelivery@gmail.com","","Pleasanton","California","Pleasanton, California US 94566"
"Royal Greens","(510) 491-0899","royalgreensca@gmail.com","http://www.royalgreens.shop","Dublin","California","Dublin, California US 94577"
"Mobile420rx - Pleasanton","(925) 984-3483","mobile420rx@gmail.com","http://mobile420rx.com","Pleasanton","CA","Pleasanton, CA  94566"
"Tweedys","925-344-5366","tweedys.express@gmail.com","","Pleasanton","CA","Pleasanton, CA United States 94566"
"The 1 Delivery Service - Pleasanton","925-705-0831","eastbaythe1delivery@gmail.com","http://www.the1delivery.com","Pleasanton","California","Pleasanton, California US 94566"
"Four Horsemen Wellness - Dublin","925-621-9927","fourhorsemenwellness@gmail.com","","Dublin","CA","Dublin, CA  94568"
"BayQueen","510-460-0822","bayqueenunlimited@gmail.com","http://www.bayqueen.life","Dublin","CA","Dublin, CA  94568"
"Overland","(844) 687-5263","info@overlanddelivery.com","","Dublin","California","Dublin, California US 94568"
"MCDG","(925) 899-6292","info@teammcdg.com","","Pleasanton","California","Pleasanton, California US 94566"
"GoTreez - Pleasanton/Dublin","(888)801-0877","gotreez1@gmail.com","http://gotreez.com/wj-menu/","Pleasanton","California","Pleasanton, California US 94588"
"Calico Buds RX","510-954-1494","CalicoBudsRX@gmail.com","","Dublin","California","Dublin, California US 94568"
"Citadel Alternative Care","844-778-6741","order.citadel@gmail.com","","Dublin","CA","Dublin, CA  94566"
"CPC Delivery","925-420-4272","CPCdelivery@gmail.com","http://facebook.com/CPC-Delivery-1870667283205078","Dublin","California","Dublin, California US 94568"
"ZENGANIC","(925) 421-5894","info@zenganic.us","http://www.zenganic.us","Dublin","California","Dublin, California US 94568"
"California Patients Club"," (510) 342 - 9655","californiapatientsclub@gmail.com","","Dublin","California","Dublin, California US 94568"
"Higher Elevation","(925)579-3330","info@higherelevation.com","http://higherelevation.com","Pleasanton","California","Pleasanton, California US 94566"
"Strong Strain Holistics - Dublin","510-575-3481","jessejuice420@gmail.com","","Dublin","California","Dublin, California US 94568"
"Cal Care Group","925-557-8046","CalCareGroupDelivery@gmail.com","http://WWW.GOGREENFORTHEFUTURE.COM","Pleasanton","California","Pleasanton, California US 94588"
"Euphoric Phlowerz","925-428-1555","euphoricphlowerz@gmail.com","","Pleasanton","CA","Pleasanton, CA  94588"
"Golden State Canna","510-499-3681","goldenstatecann@gmail.com","","Pleasanton","California","Pleasanton, California US 94588"
"Citadel Alternative Care","844-778-6741","order.citadel@gmail.com","","Dublin","CA","Dublin, CA  94566"
"Fresh Mint - Dublin","(510) 692-5365","freshmintmd@gmail.com","http://www.freshmintmd.com","Dublin","California","Dublin, California US 94568"
"Green Line Delivery","5103558661","greenlinepatientcenter@gmail.com","http://www.Greenlinedelivery.com","Dublin","California","Dublin, California US 94568"
"Golden State Canna","510-499-3681","goldenstatecann@gmail.com","","Pleasanton","California","Pleasanton, California US 94566"
"A Cut Above Deliveries","(650)581-9288","info@enjoymintdelivered.com","https://www.mintxpress.net/","Dublin","California","Dublin, California US 94583"
"The Farmer's Flower - Dublin / Pleasanton","510-940-3288","TheFarmersFlower@gmail.com","","Pleasanton","California","Pleasanton, California US 94566"
"Healthy Greens - Dublin/ Pleasanton","510-240-2437","hgnewpatient@gmail.com","http://www.healthygreensdelivery.com","Dublin","California","Dublin, California US 94568"
"Budee","925-953-2850","contact@budee.org","http://www.budee.org","Dublin","California","Dublin, California US 94588"
"Arch Medical Delivery â€‹","510-600-7948","arch.420.215@gmail.com","","Pleasanton","California","Pleasanton, California US 94566"
"West Coast Green Rush- Pleasanton","1-833-420-7874","info@westcoastgreenrush.com","http://www.westcoastgreenrush.com","Pleasanton","California","Pleasanton, California US 94588"
"Mary & Joe","510-282-9557","info@supremeoakllc.com","http://www.maryandjoeshop.com","Dublin","California","Dublin, California US 94568"
"Budee","(925)953-2850","contact@budee.org","http://www.budee.org","Pleasanton","California","Pleasanton, California US 94566"
"Herbi- Dublin","844-464-3724","support@herbi.com","http://www.herbi.com","Dublin","California","Dublin, California US 94568"
