"Business name","Phone","Email","Website","State","City","Address"
"KUSHAGRAM","323-739-1134","donations@kushagram.com","http://kushagram.com","Montebello","California","Montebello, California US 90022"
"OG Maywood Delivery","323-208-9066","info@ogsinsemilla.delivery","http://www.OGMaywood.com","East Los Angeles","California","East Los Angeles, California US 90640"
"Hyperwolf - Montebello","310-566-8384","order@hyperwolf.com","http://www.HyperWolf.com","Montebello","California","Montebello, California US 90640"
"Greenfer","323-631-2975","collectivegreenfer@gmail.com","","Lincoln Heights","California","Lincoln Heights, California US 90031"
"Golden Flower - East LA","323-480-1498","goldenflower.ela@gmail.com","","East Los Angeles","California","East Los Angeles, California US 90023"
"5 Star Delivery","323-240-9957","fivestardel@gmail.com","","Montebello","California","Montebello, California US 90640"
"The Green Coma","323-809-3694","thegreencoma@gmail.com","","East Los Angeles","California","East Los Angeles, California US 90022"
"All Star Delivery 323","3235228979","allstardeliveries323@gmail.com","","Los Angeles","California","Los Angeles, California US 90022"
"BudEx Delivery","626-554-4813","sgvbudex@yahoo.com","","East La","California","East La, California US 90640"
"Eagles Green","7608089669","eaglesgreen420@gmail.com","","Montebello","California","Montebello, California US 99999"
"Puffy Delivery","213-218-6667","support@puffydelivery.com","http://puffydelivery.com","East LA","California","East LA, California US 90022"
"The Green Coma","2133029198","thegreencoma@gmail.com","","East LA","California","East LA, California US 90033"
"Green Bae Collective","3235782876","GreenBaeCollective@gmail.com","","East Los Angeles","California","East Los Angeles, California US 90022"
"Real Monster Delivery","8052856973","realmonsterdelivery@gmail.com","","Montebello","California","Montebello, California US 90640"
"The Green Coma","3238093694","thegreencoma@aol.com","","Montebello","California","Montebello, California US 90640"
"The Green Coma","2133029198","thegreencoma@gmail.com","","East LA","California","East LA, California US 90032"
"Cal Cultivation Clones","323-451-9118","calcultivationconcepts@gmail.com","","East Los Angeles","California","East Los Angeles, California US 90022"
"BGM","626-703-2720","theblackmarketla@gmail.com","","Montebello","CA","Montebello, CA  90640"
"Buddha Company - East LA","(213) 628-3144","thebuddhacompanyla@gmail.com","","Los Angeles","California","Los Angeles, California US 90022"
"KUSHAGRAM","323-739-1134","donations@kushagram.com","http://kushagram.com","Lincoln Heights","California","Lincoln Heights, California US 90033"
"Buddha Company - East LA","(213) 628-3144","thebuddhacompanyla@gmail.com","","Los Angeles","California","Los Angeles, California US 90023"
"Cannix","323-406-5833","management@dannyvisualstv.com","","Los Angeles","California","Los Angeles, California US 90022"
"KUSHAGRAM - Montebello","323-739-1134","donations@kushagram.com","http://kushagram.com","Montebello","California","Montebello, California US 90640"
"Green Supply","(213) 407-2915","greensupplydelivery@gmail.com","","Los Angeles","California","Los Angeles, California US 90023"
"Always Sunny Delivery","323-795-8242","alwayssunnydelivery@gmail.com","","Los Angeles","CA","Los Angeles, CA USA 90032"
"BudHub Delivery - East Los Angeles","626-615-3287","hello@gobudhub.com","","East Los Angeles","California","East Los Angeles, California US 90022"
"Green Supply","(213) 407-2915","greensupplydelivery@gmail.com","","Los Angeles","California","Los Angeles, California US 90033"
"Good Tree","562-315-8955","support@goodtreedelivery.com","http://goodtreedelivery.com","Los Angeles","California","Los Angeles, California US 90001"
"Sky High Originals","3239011198","weedmaps626@gmail.com","","los angeles","California","los angeles, California US 90014"
"Green Buddha","(213) 290-5869","greenbuddha.la@gmail.com","","Los Angeles","","Los Angeles,  US 90033"
"Joy Delivery","818-423-3744 ","joydelivered420@gmail.com","","East LA","California","East LA, California US 90040"
"Green Lion Delivery","2132733841","lionvapesnmore@gmail.com","","Los Angeles","California","Los Angeles, California US 90032"
