"Business name","Phone","Email","Website","State","City","Address"
"Taste","925-914-0540","tastedelivery@outlook.com","","Concord","California","Concord, California US 94519"
"Mountain Remedy - Concord","925-420-4215","info@mountainremedy.com","https://www.mountainremedy.com","Concord","CA","Concord, CA USA 94521"
"InstantGrams Delivery Inc","(925) 339-9948","instantgramsca@gmail.com","http://instantgramsdelivery.com","Concord","","Concord, US 94521"
"MINT XPRESS now Enjoymint","(669) 900-4955","info@enjoymintdelivered.com","http://www.mintxpress.net","Concord","California","Concord, California US 94518"
"The 1 Delivery Service - Concord","925-705-0831","eastbaythe1delivery@gmail.com","http://www.the1delivery.com","Concord","CA","Concord, CA  94520"
"Violet - Concord","(925) 471-1939","Violetpatientcontact@gmail.com","","Concord","California","Concord, California US 94518"
"Mountain High Recreation","(415) 420-6470","mountainhighrec@gmail.com","http://www.mountainhighrec.com","Concord","CA","Concord, CA  94519"
"TOP SHELF EXPRESS","408 703 4420","topshelfhomedelivery@gmail.com","","Concord","California","Concord, California US 94519"
"GLM Deliveries Concord","925-428-0829","glmdeliveries@yahoo.com","","Concord","California","Concord, California US 94520"
"West Coast Premium Medz - Concord","(925) 214-8743","wcpremiummedz@gmail.com","https://westcoastpremiummedz.com","Concord","California","Concord, California US 94521"
"Angel Care 360","(925) 658 - 8040","info@angelcare360.com","http://www.angelcare360.org","Concord","CA","Concord, CA  94520"
"MCPG Happy Herbs Delivery Service - East Bay / Concord","707 567-1790","mcpgmembership@gmail.com","","East Bay / Concord","California","East Bay / Concord, California US 94519"
"GreenLight Logistics","(925) 951-7453","greenlightlogistics1@gmail.com","","Concord","California","Concord, California US 94518"
"Cali Organix Delivery (C.O.D.) - Concord / Walnut Creek","Text (925)435-3356 ","caliorganixdelivery@gmail.com","","Concord","CA","Concord, CA  94521"
"420 Organics - Concord","(925) 470-5001","420organics@yahoo.com","","Concord","CA","Concord, CA USA 94519"
"Euphoric Phlowerz","925-428-1555","euphoricphlowerz@gmail.com","","Concord","CA","Concord, CA  94521"
"My Green Giant - Concord","925-470-3715","greengiant783@yahoo.com","","Concord","ca","Concord, ca  94521"
"CannEx","925-381-5035","cannexcollective@gmail.com","","Concord","California","Concord, California US 94518"
"Prehistoric Cure","(925) 510-9102","PrehistoricCure@gmail.com","","Concord","California","Concord, California US 94520"
"Golden State Canna","5109934535","Goldenstatecann@gmail.com","","Concord","California","Concord, California US 94520"
"Buzz Delivery","(844) 420-2899","info@buzzdelivery.org","http://www.buzzdelivery.org/","Concord","California","Concord, California US 94520"
"CalCare Group","925-490-9132 ","CalCareGroupDelivery@gmail.com","http://WWW.GOGREENFORTHEFUTURE.COM","Concord","California","Concord, California US 94520"
"Smoakland - Concord","510-513-9570","register@smoakland.com","http://www.smoakland.com","Concord","CA","Concord, CA USA 94518"
"The Sacred Stem"," 510-542-9579","thesacredstem@gmail.com","http://thesacredstem.com","Concord","California","Concord, California US 94520"
"Green Coach - Concord","925-339-2033","greencoach420@gmail.com","","Concord","California","Concord, California US 94518"
"Mountain Remedy","9254204215","info@mountainremedy.com","https://www.mountainremedy.com","Concord","CA","Concord, CA  94565"
"Rubyâ€™s Green Garden (RGG LLC)","925-915-1028","rubysgreengarden.inc@gmail.com","https://www.rubysgreengarden.com","Concord","","Concord, US 94518"
"EBC Solutions","925-206-7010","ebcsolutions@yahoo.com","http://ebcsolutions.org","Concord","CA","Concord, CA (Select a country) 94519"
"The Cookie House","925-848-5796","bigboymusik@gmail.com","","Concord","California","Concord, California US 94520"
"Urban Flavours Delivery - East Bay","855-205-3380","orders@urbanflavoursdelivery.com","https://urbanflavoursdelivery.com","Concord","California","Concord, California US 94519"
"Cookie King Delivery","415-756-1474","cookiekingsdelivery@gmail.com","","Concord","CA","Concord, CA  94520"
"MINT XPRESS - East Bay","(408) 495-4893","info@mintxpress.net","http://www.mintxpress.net","Concord","California","Concord, California US 94518"
"The Sticky Rose - Concord","877-420-0102","info@thestickyrose.com","http://thestickyrose.com","Concord","CA","Concord, CA  94518"
"Flavas 24/7","4159557959","treehouseflava@gmail.com","http://flavas247.com","Concord","CA","Concord, CA USA 94520"
"Herbi","844-464-3724","support@herbi.com","http://herbi.com","Concord","CA","Concord, CA USA 94518"
"Overland","(844) 687-5263","info@overlanddelivery.com","","East Bay","California","East Bay, California US 94521"
"Budee","925-953-2850","contact@budee.org","http://www.budee.org","Concord","California","Concord, California US 94519"
"Cannabud Express","5108336372","customer.service@cannabudexpress.com","http://www.cannabudexpress.com","Concord","California","Concord, California US 94518"
"Royal Greens","(510) 491-0899","info@royalgreens.shop","http://www.royalgreens.shop","Concord","California","Concord, California US 94518"
