"Business name","Phone","Email","Website","State","City","Address"
"CanEx Delivery","(310) 384-8880","CanexDelivery@gmail.com","http://www.canexdelivery.org","Encino","California","Encino, California US 91316"
"THE HEALING TOUCH Delivery","(818) 881-1462","delivery@thtcannabis.com","https://www.thtcannabis.com","Encino","CA","Encino, CA (Select a country) 91436"
"GRASSDOOR","310.749.9135","support@grassdoor.com","http://www.grassdoor.com","Encino","California","Encino, California US 91316"
"The Shop WH","(818) 884-LOFT","theloftcoop@gmail.com","http://www.theloftonline.net","Encino","California","Encino, California US 91436"
"Cloud 420 Delivery","818-270-0979","cloud420w@gmail.com","","Encino","California","Encino, California US 91316"
"The Backyard","747-276-8191","TheBackyard@gmail.com","","Encino","California","Encino, California US 91316"
"Green Kingdom - Encino","(747)248-8952","greenkingdomla@yahoo.com","","Encino","CA","Encino, CA USA 91316"
"MHPC 2 Go","818-422-7479","mhpc2go@gmail.com","","Reseda","California","Reseda, California US 91316"
"HIGH HOPES LA","8189603636","highhopesla@gmaill.com","","Encino","California","Encino, California US 91316"
"Tasty Farms Delivery - Encino","(818) 388-1920","tastyfarmsdelivery@gmail.com","","Encino","California","Encino, California US 91436"
"Dino Delivery","2133168626","dinodeliveryla@gmail.com","","Encino","California","Encino, California US 91316"
"We The Best Delivery - Encino","213-712-3607","wethebestdelivery420@gmail.com","","Encino","CA","Encino, CA USA 91316"
"iWeed","747-203-5085","iweed007@gmail.com","https://iweed.me/","Encino","California","Encino, California US 91436"
"Deluxe Caregivers","8184276706","DeluxeCaregiversDS@gmail.com","","Encino","California","Encino, California US 91316"
"BudHut","818-739-9008","budhutla@gmail.com","","Encino","California","Encino, California US 91436"
"Canoga Budz Delivery","(747) 214 - 9421","Canoga0800@gmail.com","","Encino","California","Encino, California US 91316"
"Emberz Delivery","3109350063","emberzdelivery@gmail.com","https://emberzdelivery.com/","Encino","California","Encino, California US 91316"
"DC Delivers","818-887-0980","info@dccollective.com","http://www.dccollective.com","Encino","California","Encino, California US 91316"
"FLOWER CO.","415-360-0896","hello@flowercompany.com","https://www.flowercompany.com","Encino","California","Encino, California US 91436"
