"Business name","Phone","Email","Website","State","City","Address"
"The Gas Station - Fresno","559-981-0696","thegasstationfresno@gmail.com","","Fresno","CA","Fresno, CA USA 93711"
"Young Power 420 - Fresno","559-394-2025","youngpower42093706@gmail.com","https://www.youngpowerhealing.com","Fresno","California","Fresno, California US 93726"
"Hempceuticals","559-412-6078","hempceuticals559@gmail.com","","Fresno","California","Fresno, California US 93711"
"Central Valley Green","559-578-7904","centralvalleygreen@outlook.com","","Fresno","CA","Fresno, CA USA 93650"
"Mountain High Recreation","(415) 420-6470","mountainhighrec@gmail.com","http://www.mountainhighrec.com","Fresno","California","Fresno, California US 93702"
"Guaranteed Flight 559 - Fresno","559-288-4044","guaranteedflight559@gmail.com","","Fresno","California","Fresno, California US 93704"
"Hermies Herbs","559-643-6966","hermiesherbs@gmail.com","","Fresno","California","Fresno, California US 93720"
"Half Baked Deliveries","559-545-4986","nicklenickle9559@gmail.com","","Fresno","CA","Fresno, CA  93724"
"Supreme Team Express","559-515-5382","Supremeexpress100@gmail.com","","Fresno","California","Fresno, California US 93701"
"WeedMart","559-761-8573","weedmartfresno@gmail.com","http://www.weedmartca.co","Fresno","California","Fresno, California US 93728"
"CLOUD LEGENDS 420","559-269-7236","cloudlegends420@gmail.com","http://www.CLOUDLEGENDS420.COM","Fresno","California","Fresno, California US 93711"
"Green Medical Express","5595936337","greenmedicalexpress@gmail.com","","fresno","ca","fresno, ca usa 93888"
"Tiny Weeds","5594121658","420tinyweeds@gmail.com","","Fresno","California","Fresno, California US 93650"
"Healthy Hemp Grove","(559)270-5119","healthyhemp76@yahoo.com","","Fresno","CA","Fresno, CA  93726"
"OCP","559-458-9407","ocp3473@yahoo.com","","Fresno","CA","Fresno, CA  93722"
"Valley Extracts Express","5592837118","valleyextractsexpress@gmail.com","","Fresno","California","Fresno, California US 93720"
"California Chronic Medical Group","559-785-7677","ccmedicalgroup@gmail.com","","Fresno","California","Fresno, California US 93705"
"Green Country Meds","(559) 393-2983","greencountrymeds@gmail.com","","Reedly","California","Reedly, California US 93618"
"The Valleys Finest","559-575-5554","thevalleysfinest215@gmail.com","","Fresno","California","Fresno, California US 93711"
"Guaranteed Flight 559","5592884044","guaranteedflight559@gmail.com","","Fresno","California","Fresno, California US 93612"
"One OZ 88","559-442-9498","oneoz88@yahoo.com","","Fresno","CA","Fresno, CA  93650"
"Top Shelf","559-349-0109","topshelf92@yahoo.com","","Fresno","CA","Fresno, CA  93725"
"THE PLUG","(559) 668-6444","FresnoPlug@GMAIL.com","","FRESNO","California","FRESNO, California US 93701"
"Valley's Finest Herbs - Selma","5593417308","valleysfinestherbs@gmail.com","","Selma","California","Selma, California US 93662"
"Smuve","5594944490","Mrtirez@yahoo.com","","Fresno","California","Fresno, California US 93710"
"Top Shelf"," 559-349-0109","topshelf92@yahoo.com","","Fresno","CA","Fresno, CA  93725"
"CG SOLUTIONS","5599035427","CGSOLUTIONS17@YAHOO.COM","","FRESNO","California","FRESNO, California US 93726"
"Gaia's Garden","5592467654","gaiasgardenfresno559@gmail.com","","Fresno","California","Fresno, California US 93711"
"Gods Gift","559-571-2119","godsweed559@gmail.com","","Fresno","California","Fresno, California US 93702"
"Cali Plug","(559)293-1099","Calisidekicks7@gmail.com","https://weedmaps.com/deliveries/cali-plug","Fresno","California","Fresno, California US 93705"
"ganjarunner","(855) 554-2652","contact@ganjarunner.com","http://ganjarunner.com","Fresno","California","Fresno, California US 93720"
"24/7 Heaven","5592173161","247heavencoop@gmail.com","","Fresno","CA","Fresno, CA (Select a country) 93711"
"Pen Pals","559-392-0138","penpals559@gmail.com","","Fresno","California","Fresno, California US 93701"
"Tha_plugg","5597957474","420tha.plugg@gmail.com","","Fresno","California","Fresno, California US 93705"
"Dealz on Wheelz","213-610-0743","DealzOnWheelz@gmail.com","","fresno","California","fresno, California US 93721"
"Budee","925-953-2850","contact@budee.org","http://www.budee.org","Fresno","California","Fresno, California US 93705"
"Central Valley Alternative","(800) 976-2406","support@cvaltvisalia.com","http://Www.cvalt.online","Fresno","California","Fresno, California US 93710"
"Empire 21+ Madera Fresno","209-589-6475","empirehealthandwellness64@gmail.com","http://www.Empirehw.com","Fresno","California","Fresno, California US 93650"
"Pink Panther Delivery","559-4931897","jeremiah.garcia@live.com","","Fresno","California","Fresno, California US 93728"
"CannaBabes","559-795-6000","cannababesfresno@gmail.com","","Fresno","California","Fresno, California US 93711"
"Happy Tree Farms","559-285-5416","happytreefarms18@gmail.com","","Fresno","California","Fresno, California US 93701"
"Top Shelf","(559) 779-8621","topshelf92@yahoo.com","","Fresno","California","Fresno, California US 93722"
"Mantis Farms & Extracts","(559) 403-8894","mantisfarmandextracts@gmail.com","","Fresno","California","Fresno, California US 93278"
