"Business name","Phone","Email","Website","State","City","Address"
"Hyperwolf - Fullerton","(714) 988-4700","order@Hyperwolf.com","http://Hyperwolf.com","Fullerton","California","Fullerton, California US 92831"
"KUSHAGRAM - CSUF","949.750.2002","donations@kushagram.com","","Fullerton","California","Fullerton, California US 92831"
"Fullerton- ECC Ease Cannabis Delivery","714-888-1176","eccdelivery@gmail.com","","Fullerton","California","Fullerton, California US 92831"
"Puffy Delivery","714-733-7093","support@puffydelivery.com","http://puffydelivery.com","Fullerton","California","Fullerton, California US 92629"
"Clarity California Cannabis","(657) 254-6496","Michael@obtainclarity.com","","Fullerton","CA","Fullerton, CA  90001"
"Golden Leaf","909-720-0205","weedmaps@goldenleaf420.com","http://goldenleaf420.com","Fullerton","California","Fullerton, California US 92833"
"Mr.Chowws Remedies","714-773-2107","MrChowwsRemedies@Yahoo.com","","Fullerton","CA","Fullerton, CA  92833"
"Stone Zone Delivery - Fullerton","714-696-8718","stonezonecollective@gmail.com","","Fullerton","California","Fullerton, California US 92831"
"Quality Providers","(562) 708-6867","qualityproviders420@gmail.com","","Fullerton","California","Fullerton, California US 92831"
"GreenGo","7148898103","GreenGoDeliveries@gmail.com","","Fullerton","California","Fullerton, California US 90620"
"Advanced Holistic HealTHCare","714-423-3215","irw74@me.com","http://ahhcollective.com","Buena Park","CA","Buena Park, CA USA 90621"
"Hill Valley Healers - Fullerton","657-234-7783","hillvalleyhealers@gmail.com","","Fullerton","California","Fullerton, California US 92832"
"POT Delivery","714-312-9707","potdeliveryoc@gmail.com","","Fullerton","California","Fullerton, California US 92831"
"SpaceLabz","714-905-9380","Spacelabsmedical221@gmail.com","","Fullerton","California","Fullerton, California US 92832"
"Buds On The Run","714 574 7278","BUDSONTHERUN@gmail.com","","Fullerton","ca","Fullerton, ca  90620"
"1-866-DELIVERY","1-866-DELIVERY","info@DeliveryGreens.com","http://www.DeliveryGreens.com","Fullerton","California","Fullerton, California USA 92831"
"Buderfly Delivery","909-438-7592","Buderflydelivery@hotmail.com","","Fullerton","California","Fullerton, California US 92831"
"Flowers and Wax - Fullerton","(657) 234-1420","fullerton@flowersandwax.com","http://fullerton.flowersandwax.com","Fullerton","California","Fullerton, California US 90621"
"West Coast Delivery","949-281-1020","westcoastdeliverymeds@gmail.com","","Fullerton","CA","Fullerton, CA USA 92831"
"Nug Runner - Fullerton","562-714-1002","thenugrunner420@gmail.com","","Fullerton","California","Fullerton, California US 92608"
"Secret Nug Exchange","714-420-6133","snedelivers@gmail.com","","Fullerton","CA","Fullerton, CA  92832"
"Stone Zone Delivery - Fullerton","714-696-8718","stonezonecollective@gmail.com","","Fullerton","CA","Fullerton, CA  92832"
"UGC - UnderGround Cannabis","5623629052","closed@gmail.com","","Fullerton","California","Fullerton, California US 90620"
"Nug Runner - Buena Park","562-714-1002","thenugrunner420@gmail.com","","Buena Park","California","Buena Park, California US 92835"
"Hot Box Xpress","714-559-2001","hotboxoc@gmail.com","https://weedmaps.com/deliveries/hot-box-xpress","Fullerton","California","Fullerton, California US 92831"
"Secret Nug Exchange - Fullerton","714-420-6133","snedelivers@gmail.com","","Fullerton","CA","Fullerton, CA  92832"
"1-866-DELIVERY","1-866-DELIVERY","info@DeliveryGreens.com","","Fullerton","CA","Fullerton, CA USA 92801"
"Tip Top Meds","7146787746","nomail@gmail.com","","Fullerton","CA","Fullerton, CA USA 92832"
"1-866-DELIVERY","1-866-DELIVERY","info@DeliveryGreens.com","http://www.DeliveryGreens.com","Fullerton","CA","Fullerton, CA USA 92833"
"Buds on the Run","714 574 7278","budsontherun@gmail.com","http://www.mybudguy.com","BUENA PARK","","BUENA PARK,  US 90621"
"1-866-DELIVERY","1-866-DELIVERY","info@DeliveryGreens.com","http://www.DeliveryGreens.com","Fullerton","CA","Fullerton, CA USA 92835"
"Good Tree","562-315-8955","support@goodtreedelivery.com","http://goodtreedelivery.com","Fullerton","California","Fullerton, California US 90621"
"1-866-DELIVERY","1-866-DELIVERY","info@DeliveryGreens.com","http://www.DeliveryGreens.com","Fullerton","CA","Fullerton, CA USA 92833"
"1-866-DELIVERY","1-866-DELIVERY","info@DeliveryGreens.com","http://www.DeliveryGreens.com","Fullerton","CA","Fullerton, CA USA 92832"
"40 Cap CC Delivery - Fullerton","562-631-4161","40capCC@gmail.com","","Fullerton","California","Fullerton, California US 91748"
"KUSHAGRAM - BUENA PARK","949-750-2002","Donations@kushagram.com","http://kushagram.com","Buena Park","California","Buena Park, California US 90621"
"KUSHAGRAM - FJC","949-750-2002","donations@kushagram.com","http://kushagram.com","Fullerton","California","Fullerton, California US 92832"
"Herbavors","(714) 770-6058","herbavorscollective@gmail.com","","fullerton","California","fullerton, California US 92835"
"1Stop OC","714-585-5657","santaanapc@gmail.com","","Fullerton","CA","Fullerton, CA  92831"
