"Business name","Phone","Email","Website","State","City","Address"
"KUSHAGRAM","949-750-2002","Donations@kushagram.com","http://kushagram.com","Garden Grove","California","Garden Grove, California US 92843"
"Puffy Delivery","714-733-7083","support@puffydelivery.com","http://puffydelivery.com","Garden Grove","California","Garden Grove, California US 92868"
"Straight Fire","657-722-9436","straightfire.oc@gmail.com","","Garden Grove","California","Garden Grove, California US 92843"
"GTR GREEN TREE REMEDY","714-313-4704","greentreeremedy@gmail.com","","Garden Grove","CA","Garden Grove, CA USA 90680"
"Nug Runner - Garden Grove","562-714-1002","thenugrunner420@gmail.com","","Garden Grove","California","Garden Grove, California US 90632"
"Golden Leaf","909-720-0205","goldenleaftopshelf@gmail.com","http://goldenleaf420.com","Garden Grove","California","Garden Grove, California US 92840"
"Euphorik Drop","(949) 394-1426","EuphorikDrop@gmail.com","","Graden Grove","California","Graden Grove, California US 92840"
"1 Stop OC - Garden Grove","714-585-5657","santaanapc@gmail.com","","Garden Grove","CA","Garden Grove, CA  12345"
"Quality Providers","(562) 708-6867","qualityproviders420@gmail.com","","Garden Grove","California","Garden Grove, California US 92841"
"GreenGo","7148898103","GreenGoDeliveries@gmail.com","","Garden Grove","California","Garden Grove, California US 92840"
"Pure Fire Delivery - Garden Grove","714-583-0925","purefiredelivery@gmail.com","","Garden Grove","CA","Garden Grove, CA USA 92840"
"Daily Dose - Garden Grove","(714) 592-8962","ddcwholesellers@gmail.com","","Garden Grove","CA","Garden Grove, CA  90680"
"Higher Healing Delivery","714-312-9228","higherhealing420@yahoo.com","","Garden Grove","California","Garden Grove, California US 92843"
"Buderfly Delivery","909-438-7592","Buderflydelivery@hotmail.com","","Garden Grove","California","Garden Grove, California US 92841"
"KUSHAGRAM","949-750-2002","Donations@kushagram.com","http://kushagram.com","Garden Grove","California","Garden Grove, California US 92843"
"Kingdom Of Ounces","657-271-5372","Kingdomofounces@gmail.com","","Garden Grove","California","Garden Grove, California US 90717"
"Mr.Chowws Remedies","714-773-2107","MrChowwsRemedies@Yahoo.com","","Garden Grove","CA","Garden Grove, CA  92840"
"Euphorik Drop","(949) 394-1426","EuphorikDrop@gmail.com","","Garden Grove","California","Garden Grove, California US 92840"
"Good Tree","562-315-8955","support@goodtreedelivery.com","http://goodtreedelivery.com","Garden Grove","California","Garden Grove, California US 92841"
"Joint Delivery - Garden Grove","6546152213","HI@gmail.com","","Garden Grove","CA","Garden Grove, CA  90680"
