"Business name","Phone","Email","Website","State","City","Address"
"Fly Delivery - Hollywood","(323) 905-4359","flydelivery@yahoo.com","https://weedmaps.com/deliveries/fly-delivery-3","Hollywood","CA","Hollywood, CA United States 90028"
"BudHub Delivery - Hollywood","213-806-9508","hello@gobudhub.com","","Hollywood","California","Hollywood, California US 90038"
"GRASSDOOR","310-749-9135","support@grassdoor.com","http://www.grassdoor.com","Hollywood","California","Hollywood, California US 90038"
"Fast Buds Organic","818-422-6788","organicfastbuds@gmail.com","","Hollywood","California","Hollywood, California US 90068"
"420 Open Late","424.240.8768","jd420222@gmail.com","http://420openlate.com/","Hollywood","CA","Hollywood, CA  90027"
"AFFCO","323-986-1927","affco.delivery@gmail.com","","Hollywood","California","Hollywood, California US 90028"
"KUSHAGRAM","323-739-1134","donations@kushagram.com","http://kushagram.com","LA","California","LA, California US 90027"
"The Private Reserve","323-488-5050","ThePrivateReserveLA@gmail.com","","Hollywood","California","Hollywood, California US 90068"
"420 King Delivery","3235735431","420kingdelivery@gmail.com","http://420KingLA.com","Hollywood","CA","Hollywood, CA  90028"
"Hollywood Hitters","(323) 800-1204","hollywoodhitters18@gmail.com","http://hollywoodhitters.com","Los Angeles","California","Los Angeles, California US 90027"
"Kush Factory Delivery","323-633-1007","kushdelivery3@gmail.com","","Hollywood","California","Hollywood, California US 90028"
"Med City Delivery - Hollywood","3233358623","420citydelivery@gmail.com","","Hollywood","California","Hollywood, California US 90028"
"Best Remedy","626-554-4811","sgvbestremedy@yahoo.com","","Hollywood","Ca","Hollywood, Ca  90029"
"OrangeLeaf","818-572-5156 ","orangeleaf2007@mail.com","","Hollywood","California","Hollywood, California US 90061"
"Level Up Delivery","(323) 873-0777","level420delivery@gmail.com","","Hollywood","CA","Hollywood, CA  90028"
"RUSH","818-927-9923","rushdeliveryla@gmail.com","","Hollywood","California","Hollywood, California US 90068"
"DR Kush Delivery ðŸ”¥","(818) 855-0602","drkushdelivery@gmail.com","","Hollywood","CA","Hollywood, CA  90028"
"Cloud Nine Delivery - Hollywood","213-760-6102","cloud9delivery@aol.com","","Hollywood","CA","Hollywood, CA (Select a country) 90028"
"Green Guest","(424) 362-6244 ","jordangest1@gmail.com","","Hollywood","California","Hollywood, California US 90068"
"Top Shelf California","323-494-8861","TOPshelfdeliveryservices@gmail.com","http://topshelf.delivery","Hollywood","California","Hollywood, California US 90028"
"Puffy Delivery","323-306-5156","support@puffydelivery.com","http://puffydelivery.com","Los Angeles","California","Los Angeles, California US 90027"
"DGLA","3234644745","DGLAORDERS@gmail.com","","Los Angeles","California","Los Angeles, California US 90029"
"Greenline Express - Hollywood","818-422-6644","GreenLineExpressLA@yahoo.com","","Hollywood","CA","Hollywood, CA USA 90038"
"Hello Happy Delivery - Hollywood","818-912-4745","hellohappydelivery@gmail.com","","Hollywood","California","Hollywood, California US 90029"
"Green2Go","(310) 739-4283","green2goLA@gmail.com","","Los Angeles","California","Los Angeles, California US 90020"
"Fly Delivery - Hollywood","(323) 905-4359","flydelivery@yahoo.com","http://www.flydeliveryca.com","Hollywood","CA","Hollywood, CA  90068"
"Green Ways Delivery","8184786473","greenways323@yahoo.com","","Hollywood","California","Hollywood, California US 90028"
"Pure Decision","818-288-1435","puredecision@icloud.com","","Hollywood","CA","Hollywood, CA  90038"
"Mary Couture Delivery Service","3108703434","marycouture420@gmail.com","","Hollywood","California","Hollywood, California US 90028"
"StarBuds"," (323) 382-8176","valleygrass747@gmail.com","","Hollywood","California","Hollywood, California US 90038"
"We The Best Delivery - Hollywood","213-712-3607","wethebestdelivery420@gmail.com","","Hollywood","CA","Hollywood, CA USA 90028"
"HCMA - NC Co-Op Delivery","(818)699-9333","hcmadelivery@gmail.com","https://hcmadelivery.com/","Hollywood","California","Hollywood, California US 90028"
"Angry Buds","(818)423-6981","Nugghut@gmail.com","","Hollywood","California","Hollywood, California US 90038"
"Greenz BOGO","(747)240-8696","Tbd@gmail.com","","Hollywood","California","Hollywood, California US 90038"
"Diamond Garden","(310) 883-8935","jfloyd479@gmail.com","","Hollywood","California","Hollywood, California US 90028"
"Limited Edition 420","323-800-1985","limitededition420@yahoo.com","https://limitededition420delivery.wordpress.com/","Hollywood","California","Hollywood, California US 90028"
"Bud Runners - Hollywood","323-455-6464","budrunnersla@gmail.com","http://budrunnersla.com","Hollywood","California","Hollywood, California US 90038"
"Kushfly","(855) 571-0420","support@kushfly.com","https://Kushfly.com","Hollywood","California","Hollywood, California US 90028"
"The Spot Delivery- Hollywood","(747) 998-9199","TheSpotDelivery818@yahoo.com","","Hollywood","California","Hollywood, California US 90028"
"LA JUNGLE ON DEMAND","213-433-8851","Lajungleondemand@gmail.com","","Hollywood","California","Hollywood, California US 90028"
"Clones, Ready To Flower","(323) 484-2780","readytoflower1@gmail.com","http://readytoflower.org","Los Angeles","California","Los Angeles, California US 90043"
"Green Ways Delivery","818-478-6473","greenways323@yahoo.com","","Hollywood","California","Hollywood, California US 90027"
"DHC Delivery","747 888 6000","oscarlopez7441@yahoo.com","","Hollywood","California","Hollywood, California US 91325"
"Smartweed Delivery","(323) 672-8383","vhc420@yahoo.com","http://www.smartweedcollective.com","Holywood","","Holywood, US 90029"
"LA's Finest","323-482-4218","lasfinest215@gmail.com","","Hollywood","CA","Hollywood, CA  90038"
"Magna Med","TEXT (747) 201-0802","magnamed@yahoo.com","","Los Angeles","California","Los Angeles, California US 90038"
"BudHut","818-739-9008","budhutla@gmail.com","","Hollywood","California","Hollywood, California US 90028"
"KUSHAGRAM","323-739-1134","donations@kushagram.com","http://kushagram.com","Hollywood","California","Hollywood, California US 90048"
"Foreign Flowers","562 447 6432","foreignflowersinc@gmail.com","","Los Angeles","California","Los Angeles, California US 91405"
"iWeed","747-203-5085","iweed007@gmail.com","https://iweed.me/","Los Angeles","California","Los Angeles, California US 90028"
"KUSHAGRAM","323-739-1134","donations@kushagram.com","http://kushagram.com","Los Angeles","California","Los Angeles, California US 90029"
"KUSHAGRAM - Hollywood","323-739-1134","donations@kushagram.com","http://kushagram.com","Hollywood","California","Hollywood, California US 90038"
"Express Buds","424-522-6065","expressbuds424@gmail.com","","Hollywood","California","Hollywood, California US 90028"
"Kush Mobile","3232078089","qnicorporation@gmail.com","https://www.yelp.com/biz/kushmobile-los-angeles-2?utm_campaign=www_business_share_popup&utm_medium=copy_link&utm_source=(direct)","Hollywood","California","Hollywood, California US 90038"
"Buddha Company - Hollywood","(213) 628-3144","thebuddhacompanyla@gmail.com","","Los Angeles","California","Los Angeles, California US 90029"
"HCMA - NC Co-Op Delivery","(818)699-9333","hcmadelivery@gmail.com","https://hcmadelivery.com/","Los Angeles","California","Los Angeles, California US 90027"
"Med City Delivery - Los Angeles","3233358623","420citydelivery@gmail.com","","Hollywood","California","Hollywood, California US 90068"
"HCMA - NC Co-Op Delivery","(818)699-9333","hcmadelivery@gmail.com","https://hcmadelivery.com/","Los Angeles","California","Los Angeles, California US 90038"
"ganjarunner","(855) 554-2652","contact@ganjarunner.com","http://www.ganjarunner.com","Hollywood","California","Hollywood, California US 90028"
"Holy Smokes Delivery","747-609-6904","holysmokesdelivery@gmail.com","","Hollywood","California","Hollywood, California US 90027"
"Joy Delivery","818-423-3744","joydelivered420@gmail.com","","Hollywood","California","Hollywood, California US 90038"
"Good Tree","562-315-8955","support@goodtreedelivery.com","http://www.goodtreedelivery.com","Los Angeles","California","Los Angeles, California US 90027"
"Green Love Delivery","818 739 9191","greenlovela@gmail.com","","Hollywood","","Hollywood, US 90028"
"Greenhouse Herbal Center - Delivery","323-741-0213","hello@greenhouseherbalcenter.com","http://www.greenhousedelivers.com","Hollywood","California","Hollywood, California US 90027"
"HCMA - NC Co-Op Delivery","(818)699-9333","hcmadelivery@gmail.com","https://hcmadelivery.com/","Hollywood","California","Hollywood, California US 90068"
"Kushfly","(855) 571-0420","support@kushfly.com","https://Kushfly.com","Los Angeles","California","Los Angeles, California US 90068"
"Kushfly","(855) 571-0420","support@kushfly.com","https://Kushfly.com","Los Angeles","California","Los Angeles, California US 90028"
"MOTA (Medicine Of The Angels)","323-522-3024","info@mota.la","http://www.mota.la","Hollywood","California","Hollywood, California US 90028"
"Uplift","2132672466","upliftdelivery02@gmail.com","","Los Angeles","California","Los Angeles, California US 90028"
"Currency One","9376018320+4242592102","currencyonedelivery@gmail.com","","Hollywood","California","Hollywood, California US 90038"
