"Business name","Phone","Email","Website","State","City","Address"
"KUSHAGRAM","949-750-2003","donations@kushagram.com","http://kushagram.com","Irvine","California","Irvine, California US 92606"
"Clarity California Cannabis","(657) 254-6496","Michael@ObtainClarity.Com","http://www.ObtainClarity.Com","Irvine","CA","Irvine, CA  92821"
"Releaf","(949) 439-3574","Releaf2deliveries@gmail.com","","Irvine","California","Irvine, California US 92651"
"MedMen Delivery - Irvine","(714) 515-8506","info.oc@medmen.com","https://medmen.com/stores/orange-county-santa-ana/","Irvine","California","Irvine, California US 92618"
"Puffy Delivery","949-313-8720","support@puffydelivery.com","http://puffydelivery.com","Irvine","California","Irvine, California US 92602"
"Natures Cure","949-205-0603","NaturesCureDeliveryService@gmail.com","","Irvine","California","Irvine, California US 92614"
"The Grasshopper Delivery - Irvine","(714) 425-0121","grasshopperdelivery714@gmail.com","","Irvine","California","Irvine, California US 92503"
"Green Tree Remedy - Irvine","3238005420","sales@greentreeremedy.com","","Irvine","Ca","Irvine, Ca  92604"
"Golden Leaf","909-720-0205","weedmaps@goldenleaf420.com","http://goldenleaf420.com","Irvine","California","Irvine, California US 92602"
"Euphorik Drop","(949) 394-1426","EuphorikDrop@gmail.com","","Irvine","California","Irvine, California US 92627"
"949 Insta-Grams","949-422-2206","xyz@gmail.com","","Irvine","CA","Irvine, CA USA 92620"
"OCPC","949-752-6272","ocpcdelivery123@gmail.com","http://www.ocpcdelivery.com","Irvine","CA","Irvine, CA USA 92606"
"Blum Delivery - Irvine","949-238-4203","ca-info@letsblum.com","https://www.letsblum.com/shop-blum","Irvine","California","Irvine, California US 92618"
"Cannabis on Wheels","949-522-0904","420otw@gmail.com","","Irvine","California","Irvine, California US 92618"
"OTCPA","9494056716","onthecoastpa@gmail.com","","irvine","California","irvine, California US 92614"
"Peoples OC","714-660-2521","marketing@pmcoc.com","https://www.peoplesorangecounty.com/menu","Irvine","CA","Irvine, CA USA 92602"
"Extraction - Irvine","949-375-8936","extraction420@gmail.com","","Irvine","CA","Irvine, CA USA 92612"
"OC Compassionate Care - Irvine","949-751-9747","occcdelivery@gmail.com","http://www.occompassionatecare.org","Irvine","CA","Irvine, CA United States 92614"
"QUIKBUDS Premium Delivery - Irvine","714-697-7003","quikbuds@gmail.com","http://quikbuds.com","Irvine","California","Irvine, California US 92604"
"MedExpress","9492452771","medexpressoc@protonmail.com","","Irvine","CA","Irvine, CA USA 92618"
"HIGHWAY","949-275-1099","ochighway420@gmail.com","","Irvine","California","Irvine, California US 92612"
"SCQM Delivery Irvine UCI","714-878-6069","SCQMDelivery@gmail.com","http://www.scqmdelivery.com","Irvine","CA","Irvine, CA USA 92612"
"THE REAL OG's Delivery","707-391-3031","REALOGSOC@GMAIL.COM","","Irvine","California","Irvine, California US 92602"
"KUSHAGRAM - UCI","949-750-2003","Donations@Kushgram.com","http://kushagram.com","Irvine","California","Irvine, California US 92604"
"GrassRoots Collective","949 432 0456","GRDeliveryService@gmail.com","","Irvine","CA","Irvine, CA  92617"
"Elevate Delivery","949-484-8880","ElevateDelivery@outlook.com","","Irvine","California","Irvine, California US 92606"
"PharmSquad","888-627-7958","info@pharmsquad.com","http://www.pharmsquad.com","Irvine","California","Irvine, California US 92620"
"The House Of Ounces","657-289-8133","TheOChouseofounces@gmail.com","","Irvine","California","Irvine, California US 92617"
"The Herb Collective - Irvine","844-THC-88OC","none@none.com","http://www.theherbcollectiveoc.com","Irvine","California","Irvine, California US 92618"
"PharmSquad - Irvine","888-627-7958","info@pharmsquad.com","http://www.pharmsquad.com","Irvine","California","Irvine, California US 92618"
"GasCar - Irvine","714-450-5401","gascar420@gmail.com","","Irvine","CA","Irvine, CA  92604"
"Jungle Tree","(310) 403-4092","jungletreedelivery@gmail.com","http://www.jungletreedelivery.com","Irvine","California","Irvine, California US 92697"
"KUSHAGRAM","949-750-2003","Donations@kushagram.com","","Irvine","California","Irvine, California US 92612"
"HOLY HEALERS","714-686-9903","holyhealersdelivery@gmail.com","","Irvine","California","Irvine, California US 90604"
"Euphorik Drop","(949) 394-1426","EuphorikDrop@gmail.com","","Irvine","California","Irvine, California US 92617"
"Orange County Green Lab","(714) 651-8527","scdcollective@gmail.com","","Irvine","California","Irvine, California US 92620"
"KUSHAGRAM - THE DISTRICT","949-750-2003","Donations@kushagram.com","","Irvine","California","Irvine, California US 92612"
"Bud Man Orange County","949-520-1021","info@budmanoc.com","https://budmanoc.com","Irvine","CA","Irvine, CA United States 92618"
"GFD","949-520-3809","greenflash91@yahoo.com","","Irvine","California","Irvine, California US 92612"
"KUSHAGRAM","949-750-2003","donations@kushagram.com","","Irvine","California","Irvine, California US 92603"
"WeedCounty","949-287-9644","Weedcounty714@gmail.com","","Irvine","California","Irvine, California US 92606"
"1-866-DELIVERY","1-866-DELIVERY","info@DeliveryGreens.com","http://www.DeliveryGreens.com","Irvine","CA","Irvine, CA  92606"
"1-866-DELIVERY","1-866-DELIVERY","info@DeliveryGreens.com","http://www.DeliveryGreens.com","Irvine","CA","Irvine, CA  92620"
"Juicebox Cartel","(310) 998-7507","jc@juiceboxcartel.com","https://juiceboxcartel.com/about-4/","irvine","California","irvine, California US 92602"
"949 Insta-Grams","949-422-2206","949instagrams@gmail.com","","Irvine","CA","Irvine, CA United States 92618"
"Euphorik Drop","(949) 394-1426","EuphorikDrop@gmail.com","","Irvine","California","Irvine, California US 92618"
"Kingdom Of Ounces","657-271-5372","Kingdomofounces@gmail.com","","Irvine","California","Irvine, California US 92604"
"DD420","(714) 215-3732","onendunocthc@yahoo.com","","Irvine","California","Irvine, California US 92620"
"Elevated Delivery","(917) 260-9421","admin@elevated-delivery.com","http://elevatedelivery.com","Irvine","California","Irvine, California US 92612"
"KUSHAGRAM","949-750-2001","donations@kushagram.com","","Irvine","California","Irvine, California US 92620"
"KUSHAGRAM","949-750-2003","donations@kushagram.com","http://kushagram.com","Irvine","California","Irvine, California US 92614"
"Green Heart Delivery","714-660-7341","GreenHeartDelivery710@GMail.com","https://GreenHeartOC.com","Irvine","CA","Irvine, CA USA 92618"
"Irvine Seeds","714-864-4886","jason@irvineseeds.com","http://www.irvineseeds.com","Irvine","CA","Irvine, CA  92603"
"1-866-DELIVERY","1-866-DELIVERY","info@DeliveryGreens.com","http://www.DeliveryGreens.com","Irvine","CA","Irvine, CA  92603"
"KUSHAGRAM","949-750-2001","donations@kushagram.com","","Irvine","California","Irvine, California US 92618"
"1-866-DELIVERY","1-866-DELIVERY","info@DeliveryGreens.com","http://www.DeliveryGreens.com","Irvine","CA","Irvine, CA  92618"
"1-866-DELIVERY","1-866-DELIVERY","info@DeliveryGreens.com","http://www.DeliveryGreens.com","Irvine","CA","Irvine, CA  92604"
"KUSHAGRAM","949-750-2003","donations@kushagram.com","http://kushagram.com","Irvine","California","Irvine, California US 92612"
"KUSHAGRAM","949-750-2001","donations@kushagram.com","","Irvine","California","Irvine, California US 92604"
"1-866-DELIVERY","1-866-DELIVERY","DeliveryGreensOC@gmail.com","http://www.DeliveryGreens.com","Irvine","CA","Irvine, CA  92603"
"1-866-DELIVERY","1-866-DELIVERY","info@DeliveryGreens.com","http://www.DeliveryGreens.com","Irvine","CA","Irvine, CA  92618"
"OC Compassionate Care - UCI","949-751-9747","occcdelivery@gmail.com","http://www.occompassionatecare.org","Irvine","CA","Irvine, CA USA 92617"
"The Grasshopper Delivery - UCI","(714) 425-0121","grasshopperdelivery714@gmail.com","","Irvine","California","Irvine, California US 92618"
"WeedCounty","949-287-9644","Weedcounty714@gmail.com","","Irvine","California","Irvine, California US 92612"
"KUSHAGRAM","949-750-2001","donations@kushagram.com","","Irvine","California","Irvine, California US 92604"
"1Stop OC","714-585-5657","santaanapc@gmail.com","","Irvine","CA","Irvine, CA  92618"
"Stone Zone Delivery","949-416-5154","StoneZoneOC@gmail.com","","Irvine","California","Irvine, California US 92617"
"Paper Town","+(657) 777 -2540","papertownmeds@gmail.com","","Irvine","California","Irvine, California US 92618"
"Strain Delivery - Irvine","1-714-631-0425","stoneydeliveryservice@gmail.com","","Irvine","CA","Irvine, CA  92618"
