"Business name","Phone","Email","Website","State","City","Address"
"KUSHAGRAM - Silverlake","323-739-1134","donations@kushagram.com","http://kushagram.com","Silverlake","California","Silverlake, California US 90039"
"BudEx Delivery - Korea Town","626-554-4813","sgvbudex@yahoo.com","","Korea Town","California","Korea Town, California US 90005"
"TMC The Members Club","(213) 700-1579","themembersclub420@gmail.com","","Los Angeles","California","Los Angeles, California US 90026"
"The Pottery Delivery","424-256-5388","soco.losangeles@gmail.com","http://thepottery.delivery","Los Angeles","CA","Los Angeles, CA USA 90004"
"Kush Factory Delivery","323-633-1007","kushdelivery3@gmail.com","","SilverLake","California","SilverLake, California US 90005"
"OrangeLeaf","818-572-5156 ","orangeleaf2007@gmail.com","","Koreatown","California","Koreatown, California US 90057"
"Kush Coast LA","(213) 999-1760","kushcoastla@gmail.com","","Korea Town","California","Korea Town, California US 90005"
"LA KUSH Delivery","2133524108","orders@lakushep.com","https://lakushep.com/","Los Angeles","California","Los Angeles, California US 90026"
"Top Shelf California","323-494-8861","TopShelfDeliveryServices@gmail.com","http://topshelf.delivery","Silver Lake","CA","Silver Lake, CA  90026"
"Kush House","626-328-9108","Kushhouse@gmail.com","","Korea Town","California","Korea Town, California US 90006"
"LYT Delivery","(213) 706-3342","info@lyt.delivery","http://lyt.delivery","Korea Town","California","Korea Town, California US 90010"
"HCC Delivery","3232364912","hiighcitycollective@gmail.com","","Los Angles","California","Los Angles, California US 90057"
"GRASSDOOR","310.749.9135","support@grassdoor.com","http://www.grassdoor.com","Los Angeles","California","Los Angeles, California US 90020"
"LA DANKTOWN","213-999-1387","ladanktown@gmail.com","","Korea Town","CA","Korea Town, CA (Select a country) 90005"
"RUSH","818-927-9923","rushdeliveryla@gmail.com","","Los Angeles","California","Los Angeles, California US 90017"
"Hello Happy Delivery - Korea Town / Echo Park","818-912-4745","hellohappydelivery@gmail.com","","Los Angeles","California","Los Angeles, California US 90004"
"LCI","323-813-1116","lci420delivery@gmail.com","","Korea Town","California","Korea Town, California US 90004"
"Pure Decision","818-288-1435","puredecision@icloud.com","","Korea Town","California","Korea Town, California US 90005"
"Fly Delivery - Silver Lake / Atwater","(323) 905-4359","flydelivery@yahoo.com","","Los Angeles","CA","Los Angeles, CA United States 90039"
"Green Tree Remedy","3238005420","sales@greentreeremedy.com","","LA","CA","LA, CA  90006"
"Green Bakery","7472560059","greenbakeryla@yahoo.com","","Los Angeles","California","Los Angeles, California US 90026"
"DGLA","3234644745","DGLAORDERS@gmail.com","","Korea Town","California","Korea Town, California US 90020"
"Honor Roll Delivery","(888) 884-7229","honorrolldelivery@gmail.com","http://www.honorrolldelivery.com","KoreaTown","California","KoreaTown, California US 90005"
"AFFCO","(323) 986-1927","affco.delivery@gmail.com","","Los Angeles","California","Los Angeles, California US 90027"
"Mood Delivery","8186174444","support@mooddelivery.com","https://www.mooddelivery.com","Los Angeles","California","Los Angeles, California US 90026"
"THRC - VERIFIED PRODUCTS","323-868-2207","THRC1012@gmail.com","","Los Angeles","California","Los Angeles, California US 90004"
"Level Up Delivery","323-873-0777","level420delivery@gmail.com","","Los Angeles","CA","Los Angeles, CA USA 90010"
"Golden leaf","818-699-4541","weedmaps@goldenleaf420.com","http://goldenleaf420.com","Silver Lake","California","Silver Lake, California US 90026"
"The Original 24/7 Top Shelf Deliveries","(213) 262-2578","twenty47deliveries@yahoo.com","","Los Angeles","CA","Los Angeles, CA USA 90006"
"The House Of Ounces","213-985-5615","TheLAhouseofounces@gmail.com","","Korea Town","California","Korea Town, California US 90005"
"Green Ways Delivery","(818)478-6473","greenways323@yahoo.com","","Los Angeles","California","Los Angeles, California US 90026"
"The Pottery Delivery","424-256-5388","soco.losangeles@gmail.com","http://www.thepottery.delivery","Los Angeles","CA","Los Angeles, CA (Select a country) 90039"
"The Spot Delivery - Los Angeles","(747) 998-9199","TheSpotDelivery818@yahoo.com","","Los Angeles","California","Los Angeles, California US 90027"
"Metro Green Meds - Korea Town","310-261-8827","MGMmeds@gmail.com","http://metrogreenmeds.com","Los Angeles","California","Los Angeles, California US 90005"
"420 Ganja Delivery","(323)580-1650","420ganja.org@gmail.com","","Los Angeles","California","Los Angeles, California US 90010"
"Starleaf","501-550-5055","starleaf@yahoo.com","","Koreatown","CA","Koreatown, CA  90006"
"We The Best Delivery - Silverlake","213-712-3607","wethebestdelivery420@gmail.com","","Silverlake","CA","Silverlake, CA  90004"
"THRC - VERIFIED PRODUCTS","(323) 868-2207","THRC1012@gmail.com","","Los Angeles","California","Los Angeles, California US 90005"
"Med City Delivery - LA / Silver Lake","3233358623","420citydelivery@gmail.com","","Silver Lake","California","Silver Lake, California US 90026"
"Cannix","323-406-5833","management@dannyvisualstv.com","","Korea Town","California","Korea Town, California US 90010"
"LA JUNGLE ON DEMAND","213-433-8851","Lajungleondemand@gmail.com","","Koreatown","California","Koreatown, California US 90005"
"KUSHAGRAM KTOWN","323-739-1134","donations@kushagram.com","http://kushagram.com","Korea Town","California","Korea Town, California US 90006"
"Buddha Company - Korea Town","(213) 628-3144","thebuddhacompanyla@gmail.com","","Los Angeles","California","Los Angeles, California US 90020"
"Green2Go","(310) 739-4283","green2goLA@gmail.com","","Los Angeles","California","Los Angeles, California US 90006"
"THRC - VERIFIED PRODUCTS","(323) 868-2207","THRC1012@gmail.com","","Los Angeles","California","Los Angeles, California US 90026"
"KUSHAGRAM","323-739-1134","donations@kushagram.com","http://kushagram.com","Echo Park","California","Echo Park, California US 90026"
"Cloud Nine Delivery","2137606102","cloud9delivery@aol.com","","Los Angeles","California","Los Angeles, California US 90026"
"Diamond Garden","(310) 883-8935","jfloyd479@gmail.com","","Silver Lake","California","Silver Lake, California US 90026"
"Da Green Corner 140oz","310-894-9727","dagreencorner@gmail.com","http://DAGREENCORNER.COM","Los Angeles","California","Los Angeles, California US 90005"
"HCMA - NC Co-Op Delivery","(818)699-9333","hcmadelivery@gmail.com","https://hcmadelivery.com/","Los Angeles","California","Los Angeles, California US 90026"
"ganjarunner","(855) 554-2652","contact@ganjarunner.com","http://www.ganjarunner.com","Koreatown","California","Koreatown, California US 90010"
"Joy Delivery","818-423-3744","joydelivered420@gmail.com","","Korea Town","California","Korea Town, California US 90005"
"Uplift","2132672466","upliftdelivery02@gmail.com","","Korea Town","California","Korea Town, California US 90005"
"Good Tree","562-315-8955","support@goodtreedelivery.com","http://GoodTreeDelivery.com","Los Angeles","California","Los Angeles, California US 90001"
"THRC - VERIFIED PRODUCTS","(323) 868-2207","THRC1012@gmail.com","","Los Angeles","California","Los Angeles, California US 90020"
"Sky High Originals","3239011198","weedmaps626@gmail.com","","Los Angeles","California","Los Angeles, California US 90005"
