"Business name","Phone","Email","Website","State","City","Address"
"EZY Delivery","9515812977","ezydelivery951@gmail.com","","Lake Elisnore","California","Lake Elisnore, California US 92551"
"HoneyBudz - LAKE ELSINORE / WILDOMAR","(951) 783-6886","honeybudz@gmail.com","","Lake Elsinore","California","Lake Elsinore, California US 92350"
"WeedBell Delivery - Lake Elsinore","9514098388","hello@weedbell.com","http://weedbell.com","Lake Elsinore","California","Lake Elsinore, California US 92530"
"Lyftd","951-609-6853","420Lyftd@gmail.com","","Lake Elsinore","CA","Lake Elsinore, CA  92530"
"Apothecary Genetics - Lake Elsinore","954-336-8500","apogendelivery@gmail.com","","LAKE ELSINORE","California","LAKE ELSINORE, California US 92530"
"Green Care 74","7605322847","info@gscbd.club","","Lake Elsinore","Ca","Lake Elsinore, Ca USA 92532"
"On Deck Delivery","7608811025","OnDeckDelivery420@gmail.com","","Lake Elsinore","California","Lake Elsinore, California US 92530"
"PACK BOYZ UNLIMITED","951-263-8583","packboyz420@gmail.com","","Lake Elsinore","CA","Lake Elsinore, CA  92532"
"Ganja Goddess","9514488402 ","green2go420@gmail.com","","Lake Elsinore","California","Lake Elsinore, California US 92595"
"Baked","(951)-805-5729","BakedCeo420@gmail.com","","Lake Elsinore","California","Lake Elsinore, California US 92530"
"IE Meds","(951) 442-8462","iemeds951@gmail.com","","Lake Elsinore","California","Lake Elsinore, California US 92530"
"Extraction - Canyon Lake","949-375-8936","extraction420@gmail.com","","Canyon Lake","CA","Canyon Lake, CA CA 92587"
"The High Church","760-468-1658","info@thehighchurch.com","http://thehighchurch.com","Lake Elsinore","California","Lake Elsinore, California US 92532"
"Green Bear Solutions Elsinore","(951) 972-9043","greenbearmeds@gmail.com","","Lake Elsinore","","Lake Elsinore,  US 92530"
"Puffy Delivery - Lake Elsinore","951-268-2872","support@puffydelivery.com","http://puffydelivery.com","Lake Elsinore","California","Lake Elsinore, California US 92530"
"Hyperwolf - Lake Elsinore 2.0","951-200-2088","order@Hyperwolf.com","https://www.Hyperwolf.com","Lake Elsinore","California","Lake Elsinore, California US 92532"
"Todays Meds - Lake Elsinore","1-877-420-Meds","todaysmeds@yahoo.com","http://www.todaysmeds.com","Lake Elsinore","Ca","Lake Elsinore, Ca usa 92530"
"Green Titanium Generation","(951) 409 1374","laroycampbell@yahoo.com","","Lake Elsinore","California","Lake Elsinore, California US 92530"
"The Gold Owl","951-399-3666","verify@thegoldowl.com","https://thegoldowl.com/","Lake Elsinore","California","Lake Elsinore, California US 92530"
"Flower and Honey"," (951) 422-9540","flowerhoney666@gmail.com","","Wildomar","California","Wildomar, California US 92532"
