"Business name","Phone","Email","Website","State","City","Address"
"Empire - Livermore","(209) 589-6475","empirehealthandwelless64@gmail.com","http://www.empirehw.com","Livermore","California","Livermore, California US 94550"
"West Coast Green Rush","1-833-420-7874","info@westcoastgreenrush.com","http://www.westcoastgreenrush.com","Livermore","California","Livermore, California US 94551"
"Violet - Livermore","(925) 471-1939","Violetpatientcontact@gmail.com","","Livermore","California","Livermore, California US 94550"
"TOP SHELF EXPRESS","408 703 4420","topshelfhomedelivery@gmail.com","","Livermore","California","Livermore, California US 94588"
"Mobile420rx - Livermore","925-984-3483","mobile420rx@gmail.com","http://mobile420rx.com","Livermore","CA","Livermore, CA  94551"
"Green Line Delivery","5103558661","greenlinepatientcenter@gmail.com","http://greenlinecollective.com/","Livermore","CA","Livermore, CA  94550"
"Four Horsemen Wellness - Livermore","925-621-9927","fourhorsemenwellness@gmail.com","","Livermore","CA","Livermore, CA USA 94551"
"Holistic Harvest","925-290-5955","contact@holisticharvest.org","http://www.holisticharvest.org","Livermore","CA","Livermore, CA  94550"
"GoTreez - Livermore","(888)801-0877","gotreez1@gmail.com","http://gotreez.com/wj-menu/","Livermore","California","Livermore, California US 94551"
"Royal Greens","(510) 491-0899","royalgreensca@gmail.com","http://www.royalgreens.shop","Livermore","California","Livermore, California US 92105"
"Strong Strain Holistics - Livermore","510-575-3481","jessejuice420@gmail.com","","Livermore","California","Livermore, California US 94550"
"Euphoric Phlowerz","925-428-1555","euphoricphlowerz@gmail.com","","Livermore","CA","Livermore, CA  94551"
"The Farmer's Flower - Livermore","510-940-3288","TheFarmersFlower@gmail.com","","Livermore","California","Livermore, California US 94551"
"Golden State Canna","510-499-3681","goldenstatecann@gmail.com","","Livermore","California","Livermore, California US 94550"
"Golden State Canna","510-499-3681","goldenstatecann@gmail.com","","Livermore","California","Livermore, California US 94550"
"Green On The Go - Livermore","510-688-4396","greenonthego7@gmail.com","","Livermore","CA","Livermore, CA  94550"
"Mary & Joe","510-282-9557","info@supremeoakllc.com","http://www.maryandjoeshop.com","Livermore","California","Livermore, California US 94551"
"Budee","925-953-2850","contact@budee.org","http://www.budee.org","Livermore","California","Livermore, California US 94550"
"Mary & Joe","510-282-9557","info@supremeoakllc.com","http://www.maryandjoeshop.com","Livermore","California","Livermore, California US 94551"
