"Business name","Phone","Email","Website","State","City","Address"
"The Natural Fix - Pleasant Hill","707-580-1522 707-365-5104","thenaturalfix18@gmail.com","","Pleasant Hill","California","Pleasant Hill, California US 94523"
"Taste","925-914-0540","tastedelivery@outlook.com","","Pleasant Hill","CA","Pleasant Hill, CA  94523"
"West Coast Premium Medz - Martinez","9252148743","bayareagreenery@gmail.com","http://wcpremiummedz.com","Martinez","California","Martinez, California US 94523"
"Mountain Remedy - Pleasant Hill","925-420-4215","info@mountainremedy.com","http://www.mountainremedy.com","Pleasant Hill","CA","Pleasant Hill, CA  94523"
"The 1 Delivery Service - Martinez","925-705-0831","eastbaythe1delivery@gmail.com","http://www.the1delivery.com","Martinez","California","Martinez, California US 94553"
"TOP SHELF EXPRESS","408 703 4420","topshelfhomedelivery@gmail.com","","Pleasant Hill","California","Pleasant Hill, California US 94523"
"Violet - Pleasant Hill / Martinez","(925) 471-1939","Violetpatientcontact@gmail.com","","Martinez","California","Martinez, California US 94523"
"Rapid Relief Delivery","9252143941","info@rapidreliefdelivery.com","http://www.rapidreliefdelivery.com","Martinez","California","Martinez, California US 94553"
"MCPG Happy Herbs Delivery Service - Martinez / Pleasant Hill","707 567-1790","mcpgmembership@gmail.com","","Martinez","CA","Martinez, CA  94523"
"Royal Greens","(510) 491-0899","info@royalgreens.shop","http://www.royalgreens.shop","Martinez","California","Martinez, California US 94553"
"Tree4Life Mobile Dispensary","(707) 419 2934","tree4lifemedical@gmail.com","","Pleasant Hills","California","Pleasant Hills, California US 94523"
"MINT XPRESS now Enjoymint","8312451760","info@enjoymintdelivered.com","http://www.mintxpress.net","Pleasant Hill","California","Pleasant Hill, California US 94518"
"CannaBliss - Martinez","925-708-9800","emailCannaBliss@gmail.com","http://www.420cannabliss.com","Martinez","California","Martinez, California US 94520"
"Golden State Canna","5109934535","Goldenstatecann@gmail.com","","Martinez","California","Martinez, California US 94553"
"InstantGrams Delivery Inc","(925) 339-9948","instantgramsca@gmail.com","http://instantgramsdelivery.com","Martinez","CA","Martinez, CA United States 94553"
"Door Rush 420","1-866-787-4420","orders@doorrush420.com","http://doorrush420.com","Pleasant Hill","California","Pleasant Hill, California US 94523"
"C3 Delivery","(510) 616-8381","C3DeliveryBay@gmail.com","http://C3Delivered.com","Pleasant Hill","California","Pleasant Hill, California US 94523"
"Urban Flavours Delivery - Martinez","855-205-3380","orders@urbanflavoursdelivery.com","https://urbanflavoursdelivery.com","Martinez","California","Martinez, California US 94553"
"Budee","925-953-2850","contact@budee.org","http://www.budee.org","Martinez","California","Martinez, California US 94523"
"Budee","(925)953-2850","contact@budee.org","http://www.budee.org","Martinez","California","Martinez, California US 94553"
"MINT XPRESS - Pleasant Hill","(408) 495-2473","info@mintxpress.net","http://www.mintxpress.net","Pleasant Hill","California","Pleasant Hill, California US 94553"
