"Business name","Phone","Email","Website","State","City","Address"
"Kush House","626-328-9108","Kushhouse@gmail.com","","Mid Town","California","Mid Town, California US 90018"
"HCC Delivery","(323)236-4912","hiighcitycollective@gmail.com","","Los Angles","California","Los Angles, California US 90019"
"The Original 24/7 Top Shelf Deliveries","(213) 262-2578","twenty47deliveries@yahoo.com","","Los Angeles","California","Los Angeles, California US 90019"
"GRASSDOOR","310.749.9135","support@grassdoor.com","http://www.grassdoor.com","Mid Town","California","Mid Town, California US 90019"
"Kush Coast LA","(213) 999-1760","kushcoastla@gmail.com","","Los Angeles","California","Los Angeles, California US 90007"
"Curb Delivery","(323)937-0299","whealth420@gmail.com","https://www.curb-delivery.com/","Los Angeles","California","Los Angeles, California US 90016"
"Mr Smiley Guy","323-799-8632","MrSmileyGuyLA@gmail.com","","Los Angeles","CA","Los Angeles, CA  90019"
"BudEx Delivery","626-554-4813","sgvbudex@yahoo.com","","Mid Town","CA","Mid Town, CA  90007"
"LA DANKTOWN - MID CITY","213-999-1387","ladanktown@gmail.com","","Mid Town","CA","Mid Town, CA (Select a country) 90019"
"Best Remedy","626-554-4811","sgvbestremedy@yahoo.com","","Mid Town","CA","Mid Town, CA  90016"
"Joy Delivery","818-423-3744","joydelivered420@gmail.com","","Mid Town","California","Mid Town, California US 90019"
"Da Green Corner 140oz","(310) 894-9727","dagreencorner@gmail.com","http://dagreencorner.com/","Los Angeles","California","Los Angeles, California US 90001"
"Green2Go","(310) 739-4283","green2goLA@gmail.com","","Los Angeles","California","Los Angeles, California US 90019"
"Green Lion Delivery - Mid Town","2132733841","lionvapesnmore@gmail.com","","los angeles","California","los angeles, California US 90019"
"EZ Serve","310-272-0523","ezserve@hotmail.com","","Mid Town","California","Mid Town, California US 90019"
"The Pottery Delivery","424-256-5388","soco.losangeles@gmail.com","http://www.thepottery.delivery","Mid Town","California","Mid Town, California US 90019"
"Uplift","2132672466","upliftdelivery02@gmail.com","","Mid Town","California","Mid Town, California US 90019"
"KUSHAGRAM","323-739-1134","donations@kushagram.com","http://kushagram.com","Los Angeles","California","Los Angeles, California US 90007"
"KUSHAGRAM - USC","323-739-1134","donations@kushagram.com","http://kushagram.com","Los Angeles","California","Los Angeles, California US 90007"
"CHC Delivery - Mid Town","323-407-5785","chcpico@gmail.com","","Los Angeles","California","Los Angeles, California US 90019"
"Good Tree","562-315-8955","support@goodtreedelivery.com","http://www.goodtreedelivery.com","Los Angeles","California","Los Angeles, California US 90016"
"HOLLYWEED DELIVERY","(323) 592-3113","hollyweedhollywood@gmail.com","http://hollyweed420.com","Los Angeles","California","Los Angeles, California US 90019"
