"Business name","Phone","Email","Website","State","City","Address"
"Breathe","4243555208","info@breatheca.co","https://www.webreatheca.com/","North Hollywood","California","North Hollywood, California US 91601"
"Hyperwolf - North Hollywood","310-566-8384","order@HyperWolf.com","http://www.HyperWolf.com","North Hollywood","California","North Hollywood, California US 91609"
"Fountain of Wellbeing - FWB","844-933-3240","fwbnhla@gmail.com","http://www.fwblosangeles.com","Los Angeles","California","Los Angeles, California US 91605"
"Redeye","+18183704892","redeye.glendale@gmail.com","","North Hollywood","California","North Hollywood, California US 91601"
"Compassion Union","323-818-2837","compassionun@gmail.com","","North Hollywood","California","North Hollywood, California US 91605"
"GRASSDOOR","310-749-9135","support@grassdoor.com","http://www.grassdoor.com","North Hollywood","California","North Hollywood, California US 91607"
"Green Panda Express","(818) 747-0514","Greenpandaexpress90@yahoo.com","","North Hollywood","California","North Hollywood, California US 91605"
"Cloud 420 Delivery","818-270-0979","cloud420w@gmail.com","","North Hollywood","California","North Hollywood, California US 91602"
"BudExpress","3237902727","bigbudexpress@gmail.com","","North Hollywood","CA","North Hollywood, CA  91601"
"RUSH","818-927-9923","rushdeliveryla@gmail.com","","North Hollywood","California","North Hollywood, California US 91605"
"ganjarunner","855-554-2652","contact@ganjarunner.com","https://ganjarunner.com/","North Hollywood","California","North Hollywood, California US 91601"
"OrangeLeaf","818-572-5156 ","orangeleaf2007@gmail.com","","North Hollywood","California","North Hollywood, California US 91601"
"Level Up Delivery","3238730777","level420delivery@gmail.com","","North Hollywood","California","North Hollywood, California US 91606"
"CanEx Delivery","(310) 384-8880","CanexDelivery@gmail.com","http://www.canexdelivery.org","North Hollywood","California","North Hollywood, California US 91606"
"Cloud Nine Delivery","213-760-6102","cloud9delivery@aol.com","","North Hollywood","CA","North Hollywood, CA  91606"
"Express Buds","424-522-6065","expressbuds424@gmail.com","","North Hollywood","California","North Hollywood, California US 91601"
"Green Love Delivery","818 739 9191","greenlovela@gmail.com","","North Hollywood","CA","North Hollywood, CA  91606"
"Puffy Delivery","747-248-2626","support@puffydelivery.com","http://puffydelivery.com","North Hollywood","California","North Hollywood, California US 91606"
"Med City Delivery - North Hollywood","323-335-8623","420citydelivery@gmail.com","","North Hollywood","California","North Hollywood, California US 91606"
"DGLA","3234644745","DGLAORDERS@gmail.com","","North Hollywood","California","North Hollywood, California US 91601"
"Post Meds","818-747-3046","POSTMEDS@gmail.com","","North Hollywood","California","North Hollywood, California US 91601"
"Whisper Weed","818-815-1983","whisperweeddelivery@gmail.com","","Toluca Lake","CA","Toluca Lake, CA USA 91602"
"The Private Reserve","323-488-5050","ThePrivateReserveLA@gmail.com","","North Hollywood","California","North Hollywood, California US 91606"
"Whisper Weed","818-815-1983","whisperweeddelivery@gmail.com","","North Hollywood","California","North Hollywood, California US 91601"
"iWeed","747-203-5085","iweed007@gmail.com","https://iweed.me/","North Hollywood","California","North Hollywood, California US 91605"
"Weedmates","(818)-964-6010","weedmates19@gmail.com","","North Hollywood","California","North Hollywood, California US 91606"
"AceBuds","8189153311","Acebuds19@gmail.com","","North Hollywood","California","North Hollywood, California US 91601"
"Tasty Farms Delivery - North Hollywood","818-388-1920","tastyfarmsdelivery@gmail.com","http://www.tastyfarmsdelivery.com","Hollywood","California","Hollywood, California US 91601"
"HCMA - NC Co-Op Delivery","(818)699-9333","hcmadelivery@gmail.com","https://hcmadelivery.com/","North Hollywood","California","North Hollywood, California US 91606"
"BudHut","818-739-9008","budhutla@gmail.com","","Hollywood","California","Hollywood, California US 91606"
"Starleaf - North Hollywood","501-550-5055","starleaf@yahoo.com","","Los Angeles","CA","Los Angeles, CA  91606"
"Emberz Delivery","3109350063","emberzdelivery@gmail.com","https://emberzdelivery.com/","North Hollywood","California","North Hollywood, California US 91601"
"Magna Med","TEXT (747) 201-0802","magnamed@yahoo.com","","North Hollywood","California","North Hollywood, California US 91606"
"Green Ways Delivery","8184786473","greenways323@yahoo.com","","North Hollywood","California","North Hollywood, California US 91607"
"We The Best Delivery - North Hollywood","213-712-3607","wethebestdelivery420@gmail.com","","North Hollywood","CA","North Hollywood, CA USA 91606"
"Trap House Delivery","323-346-7248","ttraphouseboyz@gmail.com","","Hollywood","California","Hollywood, California US 91601"
"Limited Edition 420","323-800-1985","limitededition420@yahoo.com","https://limitededition420delivery.wordpress.com/","North Hollywood","Colorado","North Hollywood, Colorado US 91607"
"Shake House","818-747-6485","medsondemand420@gmail.com","","North Hollywood","California","North Hollywood, California US 91605"
"Joy Delivery","818-423-3744","joydelivered420@gmail.com","","North Hollywood","California","North Hollywood, California US 91607"
"Mary Couture Delivery Service","(310)8703434","marycouture420@gmail.com","https://www.instagram.com/marycouture1/","North Hollywood","California","North Hollywood, California US 91601"
"Urban Treez Delivery","844-688-7339","Contact@UrbanTreez.com","http://www.urbantreez.com","North Hollywood","California","North Hollywood, California US 91601"
