"Business name","Phone","Email","Website","State","City","Address"
"KUSHAGRAM","949-750-2002","Donations@kushagram.com","","Anaheim","California","Anaheim, California US 92802"
"Puffy Delivery","714-984-0038","support@puffydelivery.com","http://puffydelivery.com","Anaheim","California","Anaheim, California US 92806"
"1-866-DELIVERY","1-866-DELIVERY","info@DeliveryGreens.com","http://www.DeliveryGreens.com","Anaheim","California","Anaheim, California USA 92805"
"Clarity California Cannabis","(657) 254-6496","Michael@ObtainClarity.Com","","Anahiem","California","Anahiem, California US 92805"
"GTR GREEN TREE REMEDY","714-313-4704","greentreeremedy@gmail.com","","Anaheim","California","Anaheim, California US 92807"
"Hello THC - Anaheim","714-467-8765","hellothcdelivery@gmail.com","","Anaheim","CA","Anaheim, CA USA 92802"
"Golden Leaf","909-720-0205","weedmaps@goldenleaf420.com","http://goldenleaf420.com","Anaheim","California","Anaheim, California US 92801"
"HOLY HEALERS","714-686-9903","holyhealersdelivery@gmail.com","","Anaheim","California","Anaheim, California US 92807"
"Mr.Chowws Remedies","714-773-2107","MrChowwsRemedies@Yahoo.com","","Anaheim","CA","Anaheim, CA  92806"
"Green Tree Remedy - Anaheim","3238005420","sales@greentreeremedy.com","","Anaheim","Ca","Anaheim, Ca  92802"
"West Coast Delivery","949-281-1020","westcoastdeliverymeds@gmail.com","","Anaheim","CA","Anaheim, CA USA 92805"
"Quality Providers - Anaheim","(562) 708-6867","qualityproviders420@gmail.com","","Anaheim","California","Anaheim, California US 92612"
"Euphorik Drop","(949) 394-1426","EuphorikDrop@gmail.com","","Anaheim","California","Anaheim, California US 92802"
"Droppin Dreams Delivery","562-228-2965","Droppindreams710@yahoo.com","","Anaheim","California","Anaheim, California US 92805"
"GreenGo","7148898103","GreenGoDeliveries@gmail.com","","Anaheim","California","Anaheim, California US 92805"
"Real Remedies - Anaheim","714-860-3240","realremediescollective@gmail.com","http://RealRemediesCollective.com","Anaheim","CA","Anaheim, CA USA 92804"
"Annie's Carts","(714) 694-7936","anniescarts@gmail.com","","Anaheim","CA","Anaheim, CA  92801"
"The House Of Ounces","657-289-8133","TheOChouseofounces@gmail.com","","Anaheim","California","Anaheim, California US 92804"
"UGC - UnderGround Cannabis","5623629052","ugclbc420@gmail.com","","Anaheim","California","Anaheim, California US 92805"
"Secret Nug Exchange","714-420-6133","snedelivers@gmail.com","","Anaheim","CA","Anaheim, CA  92802"
"KUSHAGRAM - ANAHEIM","949-750-2002","donations@kushagram.com","http://kushagram.com","Anaheim","California","Anaheim, California US 92806"
"Secret Nug Exchange","714-420-6133","snedelivers@gmail.com","","Anaheim","CA","Anaheim, CA  92802"
"Buderfly Delivery","909-438-7592","buderflydelivery@outlook.com","","Anaheim","CA","Anaheim, CA  92802"
"Flowers and Wax - Anaheim","(657) 234-1420","anaheim@flowersandwax.com","http://anaheim.flowersandwax.com","Anaheim","California","Anaheim, California US 92802"
"Kingdom Of Ounces","657-271-5372","Kingdomofounces@gmail.com","","Anaheim","California","Anaheim, California US 92801"
"The Spot 714","(714) 675-2835","sathespot@gmail.com","","Anaheim","California","Anaheim, California US 92802"
"Nug Runner - Anaheim","562-714-1002","thenugrunner420@gmail.com","","Anaheim","California","Anaheim, California US 92805"
"KUSHAGRAM - STANTON","949-750-2003","donations@kushagram.com","","Stanton","California","Stanton, California US 90680"
"Tip Top Meds","7146787746","nomail@gmail.com","","Anaheim","California","Anaheim, California US 92805"
"Secret Nug Exchange","714-420-6133","snedelivers@gmail.com","","Anaheim","California","Anaheim, California  92801"
"Good Tree","562-315-8955","support@goodtreedelivery.com","http://goodtreedelivery.com","Anaheim","California","Anaheim, California US 92805"
"West Coast Clones - Anaheim","714-583-5751 ","socalclonecollective@gmail.com","http://www.southerncaliforniaclones.com","Anaheim","California","Anaheim, California US 92805"
"Hot Box Xpress","714-559-2001","hotboxoc@gmail.com","https://weedmaps.com/deliveries/hot-box-xpress","Anaheim","California","Anaheim, California US 92808"
"1Stop OC-Anaheim","714-585-5657","santaanapc@gmail.com","","Anaheim","CA","Anaheim, CA  92802"
"Joint Delivery - Anaheim","123452225","HIHIHIH@gmail.com","","Anaheim","CA","Anaheim, CA  92801"
"Hyperwolf - Anaheim 2.0","(714) 988-4700","order@Hyperwolf.com","http://Hyperwolf.com","Anaheim","California","Anaheim, California US 92805"
"Peoples OC","714-660-2521","marketing@pmcoc.com","https://www.peoplesorangecounty.com/menu","Anaheim","CA","Anaheim, CA USA 92801"
