"Business name","Phone","Email","Website","State","City","Address"
"BudEx Delivery - Ontario / Montclair","626-425-0432","sgvbudex@yahoo.com","","Ontario","CA","Ontario, CA  91762"
"WeedBell Delivery - Ontario / Montclair","(909)696-1041","hello@weedbell.com","http://weedbell.com","Ontario","CA","Ontario, CA USA 91763"
"The Marathon Delivery","909-509-9769","sales@themarathondelivery.com","","Ontario/ Montclair","California","Ontario/ Montclair, California US 91762"
"Hyperwolf - Ontario","(951) 200-2088","order@hyperwolf.com","https://www.Hyperwolf.com","Ontario","California","Ontario, California US 91761"
"Golden leaf","818-726-0600","weedmaps@goldenleaf420.com","http://goldenleaf420.com","Ontario","California","Ontario, California US 91761"
"A1 Collective","626-598-0878","a1collectivea1@gmail.com","","Ontario","CA","Ontario, CA  91762"
"Green Care Solutions","(951) 609-4071","greencare.solutions@yahoo.com","","Ontario","California","Ontario, California US 91764"
"Nurse K","(888)463-3155","nursek420@gmail.com","","Ontario","CA","Ontario, CA USA 91762"
"Wings of Wellness - Ontario","(909) 921-7447","wingsofwellnessie@gmail.com","http://wingsofwellnessie.com","Ontario","California","Ontario, California US 91762"
"World Class Cannabis","949-554-4233","WorldClassCannabis420@gmail.com","","Montclair","California","Montclair, California US 91763"
"Green Bee Meds - Ontario","(909) 714-1407","GreenBeeMeds420@gmail.com","","Ontario","CALIFORNIA","Ontario, CALIFORNIA United States 91761"
"Quality Meds Delivery","626-782-3270","qualitymedsdelivery@gmail.com","","Ontario","CA","Ontario, CA CA 91763"
"Ceebud","(909)703-5325","ceebudiejua@gmail.com","","Ontario","California","Ontario, California US 91764"
"Green Lotus XIII","909 724-1291","rvalencia46@gmail.com","","Ontario","CA","Ontario, CA  91761"
"FTP Gifts Everyday","909-927-7795","ftpeveryday420@gmail.com","","Montclair","California","Montclair, California US 90000"
"Green Pinnacle","909-345-4373","GreenPinnacle420@gmail.com","","Ontario","CA","Ontario, CA USA 91762"
"Pot Mates","6262067594","potmatesdelivery420@gmail.com","","Ontario","California","Ontario, California US 91763"
"Pot Mates","6262067594","potmatesdelivery420@gmail.com","","Ontario","California","Ontario, California US 91764"
"Cali Holistic","(909) 303-3998","Cali_holistic@yahoo.com","http://www.caliholistic.com","Ontario","CA","Ontario, CA  91764"
"California Care Group Ontario / Montclair","909-809-1342","delivery@calicaregroup.com","http://www.calicaregroup.com","Ontario","California","Ontario, California US 91763"
"Pot Mates","6262067594","potmatesdelivery420@gmail.com","","Ontario","California","Ontario, California US 91761"
"Green Lotus XIII","909 724-1291","rvalencia46@gmail.com","","Ontario","CA","Ontario, CA USA 91761"
"Manchester's Finest 420","909-319-0743","manchestersfinest420@gmail.com","","Ontario","CA","Ontario, CA  91764"
"Todays Meds - Ontario","1-877-420-Meds","todaysmeds@yahoo.com","http://www.todaysmeds.com","Ontario","CA","Ontario, CA USA 91762"
"Buderfly Delivery","909-438-7592","buderflydelivery@outlook.com","","Ontario","California","Ontario, California US 91710"
"OG Pharmacy","626-991-6909","og.pharmacyco@gmail.com","https://ogpharmacy.dropdelivery.app","Montclair","California","Montclair, California US 91763"
"The Highest Choice","(626) 413-2682","thehighestchoice@gmail.com","","Montclair","California","Montclair, California US 91763"
"Sweet Dreams Delivery","(213)-362-8574","WeHaveSweetDreams@Gmail.com","","Ontario","California","Ontario, California US 91764"
"Mr. Chowws Remedies","909-706-5526","MrChowwsRemedies@Yahoo.com","","Montclair","CA","Montclair, CA  91761"
"Green Mind Solutions","9092425053","greenmindsolutions@outlook.com","","Ontario","CA","Ontario, CA USA 91762"
"35 Cap PRC - Ontario","(909) 242-9226","prc40cap@gmail.com","","Ontario","CA","Ontario, CA  91763"
"The House Of Ounces","213-214-5440","TheLAhouseofounces@gmail.com","","Ontario","California","Ontario, California US 91710"
"Cannalife365","9093074475","cannalife365@gmail.com","","Ontario","California","Ontario, California US 92880"
"Chocolate City Collective","951-347-8439","chocolatecitycollective@yahoo.com","","Ontario","CA","Ontario, CA  91786"
"Green Eagle Collective","909-307-4985","greeneaglecollective@gmail.com","","Ontario","California","Ontario, California US 91764"
"MCEC - Ontario","(760) 299-6232","customerservice@mcecdelivery.com","https://mcecdelivery.com/shopping-cart/","Ontario","California","Ontario, California US 91762"
"Best Coast Delivery - Ontario","909-306-9579","bestcoastdelivery909@gmail.com","","ontario","ca","ontario, ca  91762"
"PDC","909-757-3336","pdcollective100@gmail.com","","Ontario","CALIFORNIA","Ontario, CALIFORNIA United States 92561"
"Hyperwolf - Ontario 2.0","951-200-2088","Info@Hyperwolf.com","http://Hyperwolf.com","Ontario","California","Ontario, California US 91761"
"Cured Delivery","(909) 329-7809","thecurecollectivee@gmail.com","","Ontario","California","Ontario, California US 91761"
