"Business name","Phone","Email","Website","State","City","Address"
"Hyperwolf - Pasadena","310-566-8384","order@hyperwolf.com","http://www.HyperWolf.com","Pasadena","CA","Pasadena, CA  91106"
"MedMen Delivery - Pasadena","(213) 908 2244","info.dtla@medmen.com","https://medmen.com/stores/los-angeles-downtown-dtla","Pasadena","California","Pasadena, California US 91101"
"BudHub Delivery - Pasadena","626-615-3287","hello@gobudhub.com","","Pasadena","California","Pasadena, California US 91107"
"GRASSDOOR","310.749.9135","support@grassdoor.com","http://www.grassdoor.com","Pasadena","California","Pasadena, California US 91104"
"Honor Roll Delivery","(888) 884-7229","honorrolldelivery@gmail.com","http://www.honorrolldelivery.com","Pasadena","California","Pasadena, California US 91107"
"AltaPas 30 Min Delivery","626-421-3345","altapas30mindelivery@gmail.com","","Pasadena","California","Pasadena, California US 91104"
"Greenfer","323-631-2975","collectivegreenfer@gmail.com","","Pasadena","California","Pasadena, California US 91106"
"ganjarunner","(855) 554-2652","contact@ganjarunner.com","http://www.ganjarunner.com","Pasadena","California","Pasadena, California US 91101"
"Golden leaf","818-726-0600","weedmaps@goldenleaf420.com","http://www.goldenleaf420.com","Pasadena","California","Pasadena, California US 91104"
"Top Flight","213-800-1666","TopFlightPasadena@gmail.com","","Pasadena","California","Pasadena, California US 91107"
"Green Tree Remedy","(323)714-0420","sales@greentreeremedy.com","","Pasadena","California","Pasadena, California US 91105"
"Buddies Delivery","16262557771","Buddeesbuds@gmail.com","","Pasadena","California","Pasadena, California US 91106"
"Quality Meds Delivery","626-782-3270","qualitymedsdelivery@gmail.com","","Pasadena","California","Pasadena, California US 91101"
"3rd Eye Healing","(562)324-4639","3rdeyehealing@gmail.com","http://WWW.3RDEYEHEALING.COM","Pasadena","CA","Pasadena, CA  91030"
"Sky High Originals -","3239011198","weedmaps626@gmail.com","","Pasadena","California","Pasadena, California US 90069"
"Crystal Cannabis","626-689-5142","Crystalcannabisla@gmail.com","","Pasadena","California","Pasadena, California US 91101"
"Budlivery","424 279 4021","Budlivery@gmail.com","","San Gabriel valley","California","San Gabriel valley, California US 91101"
"BudEx Delivery - Pasadena/Altadena","626-425-0432","sgvbudex@yahoo.com","","Pasadena","California","Pasadena, California US 91001"
"Puffy Delivery - Pasadena","626-229-2192","support@puffydelivery.com","http://puffydelivery.com","Pasadena","California","Pasadena, California US 91101"
"Green Guest - Pasadena","(424) 362-6244 ","jordangest1@gmail.com","","Pasadena","California","Pasadena, California US 91106"
"Greenline Express - Pasadena","818-422-6644","GreenLineExpressLA@yahoo.com","","Pasadena","CA","Pasadena, CA USA 91106"
"Delta 9 Organix","626-426-0138","delta9delivery@yahoo.com","","Pasadena","CA","Pasadena, CA  91107"
"Speedy Meds","747-229-5111","speedymeds365@gmail.com","","Pasadena","CA","Pasadena, CA  91125"
"Delivery Service","949-445-6468","DeliveryService2045@gmail.com","","Pasadena","CA","Pasadena, CA (Select a country) 91106"
"Real Monster Delivery","8052856973","realmonsterdelivery@gmail.com","","Pasadena","California","Pasadena, California US 91101"
"Fly Delivery - Pasadena","(323) 905-4359","flydelivery@yahoo.com","","Pasadena","Ca","Pasadena, Ca  92867"
"Speedy Meds","747-229-5111","speedymeds365@gmail.com","","South Pasadena","CA","South Pasadena, CA  91106"
"EXOTIC MEDS","626-455-8302","exoticmeds626@gmail.com","","Pasadena","California","Pasadena, California US 91103"
"The Spot Delivery - Pasadena","(747)998-9199","TheSpotDelivery818@yahoo.com","","Pasadena","California","Pasadena, California US 91104"
"OrangeLeaf","818-572-5156 ","orangeleaf2007@gmail.com","","Pasadena","California","Pasadena, California US 91106"
"SGV Green","626-241-8274","sgvgreendeliver@gmail.com","","San Gabriel","California","San Gabriel, California US 91775"
"Med City Delivery - Pasadena","3233358623","420citydelivery@gmail.com","","Pasadena","California","Pasadena, California US 91105"
"Starleaf","501-550-5055","starleaf@yahoo.com","","Pasadena","CA","Pasadena, CA  91106"
"Kush Mobile","3232078089","qnicorporation@gmail.com","https://www.yelp.com/biz/kushmobile-los-angeles-2?utm_campaign=www_business_share_popup&utm_medium=copy_link&utm_source=(direct)","Pasadena","CA","Pasadena, CA  91106"
"Green Ways Delivery","8184786473","greenways323@yahoo.com","","Pasadena","California","Pasadena, California US 91105"
"5 Star Delivery","323-240-9957","fivestardel@gmail.com","","Pasadena","CA","Pasadena, CA  91103"
"HCMA - NC Co-Op Delivery","(818)699-9333","hcmadelivery@gmail.com","https://hcmadelivery.com/","Pasadena","California","Pasadena, California US 91101"
"THRC - VERIFIED PRODUCTS","(323) 868-2207","THRC1012@gmail.com","","Pasadena","California","Pasadena, California US 91106"
"Holy Smokes Delivery","747-609-6904","holysmokesdelivery@gmail.com","","Pasadena","California","Pasadena, California US 91108"
"Joy Delivery","818-423-3744 ","joydelivered420@gmail.com","","Pasadena","California","Pasadena, California US 91106"
"Good Tree","562-315-8955","support@goodtreedelivery.com","","Los Angeles","California","Los Angeles, California US 91106"
"HCMA - NC Co-Op Delivery","(818)699-9333","hcmadelivery@gmail.com","https://hcmadelivery.com/","Pasadena","California","Pasadena, California US 91104"
