"Business name","Phone","Email","Website","State","City","Address"
"Hyperwolf - Diamond Bar","(714) 988-4700","order@hyperwolf.com","https://www.Hyperwolf.com","Diamond Bar","California","Diamond Bar, California US 91765"
"Green Tree Remedy","3238005420","sales@greentreeremedy.com","","Pomona","CA","Pomona, CA (Select a country) 91766"
"OG Pharmacy","9094564169","og.pharmacyco@gmail.com","https://ogpharmacy.dropdelivery.app","Pomona","California","Pomona, California US 91768"
"BudEx Delivery","626-425-0432","sgvbudex@yahoo.com","","Pomona","CA","Pomona, CA  91768"
"Diamond Budz Association","909-326-9378","diamondbudzassociation@gmail.com","","Diamond Bar","CA","Diamond Bar, CA  91765"
"Mr. Chowws Remedies","909-706-5526","MrChowwsRemedies@Yahoo.com","","Pomona","CA","Pomona, CA  91766"
"Golden leaf","818-726-0600","weedmaps@goldenleaf420.com","http://goldenleaf420.com","Pomona","California","Pomona, California US 91766"
"Sky High Originals","6264652724","weedmaps626@gmail.com","","Pomona","California","Pomona, California US 91767"
"WeeWoo Delivery","(626) 727-0939","order@weewoo.delivery","https://weewoo.delivery/","Pomona","California","Pomona, California US 91765"
"A1 Collective","626-598-0878","a1collectivea1@gmail.com","","Pomona","CA","Pomona, CA  91767"
"Best Remedy","626-371-5321","sgvbestremedy@yahoo.com","","Pomona","CA","Pomona, CA (Select a country) 91776"
"420 Lover","(818) 966-8333","love420smoker@gmail.com","","Pomona","California","Pomona, California US 91766"
"The Green Goose - Pomona","(626)848-5060","thegreengoose420@gmail.com","","Pomona","California","Pomona, California US 91768"
"World Class Cannabis","949-554-4233","WorldClassCannabis420@gmail.com","","Pomona","California","Pomona, California US 91768"
"FTP Gifts Everyday","909-927-7795","ftpeveryday420@gmail.com","","Diamond Bar","California","Diamond Bar, California US 91765"
"WeedBell Delivery- Pomona","(909)696-1041","hello@weedbell.com","http://www.weedbell.com","Diamond Bar","California","Diamond Bar, California US 91768"
"Green Pinnacle","909-345-4373","GreenPinnacle420@gmail.com","","Pomona","California","Pomona, California US 91766"
"Green Pinnacle - Diamond Bar","909-345-4373","GreenPinnacle420@gmail.com","","Diamond Bar","CA","Diamond Bar, CA USA 91765"
"Pot Mates","6262067594","potmatesdelivery420@gmail.com","","Pomona","California","Pomona, California US 91766"
"Pot Mates","6262067594","potmatesdelivery420@gmail.com","","Pomona","California","Pomona, California US 91750"
"Green Mind Solutions","9092425053","greenmindsolutions@outlook.com","","Pomona","CA","Pomona, CA USA 91766"
"Pot Mates","6262067594","potmatesdelivery420@gmail.com","","Pomona","California","Pomona, California US 91768"
"Buderfly Delivery","909-438-7592","buderflydelivery@outlook.com","","Pomona","California","Pomona, California US 91767"
"IE Greenmeds","(909) 243-0220","IEGREENMEDS@GMAIL.COM","http://IEGREENMEDS.COM","Pomona","CA","Pomona, CA USA 91767"
"The Highest Choice","(626) 413-2682","thehighestchoice@gmail.com","","Pomona","California","Pomona, California US 91766"
"Route 22","909-569-4529","myroute2248@yahoo.com","","Pomona","California","Pomona, California US 91768"
"Connoisseur Club Diamond Bar","909-703-5222","Connoisseurclubs@gmail.com","https://www.instagram.com/connoisseur_club_/","Diamond Bar","California","Diamond Bar, California US 91765"
"The Petro Shop","(909) 600-3982","thepetroshop@gmail.com","","Pomona","California","Pomona, California US 91766"
"OG Pharmacy","626-991-6909","og.pharmacyco@gmail.com","https://ogpharmacy.dropdelivery.app","Diamond BAr","California","Diamond BAr, California US 91765"
