"Business name","Phone","Email","Website","State","City","Address"
"Hyperwolf - Rancho Cucamonga","951-200-2088","order@hyperwolf.com","https://www.hyperwolf.com","Rancho Cucamonga","California","Rancho Cucamonga, California US 91730"
"Best Remedy","626-371-5321","sgvbestremedy@yahoo.com","","Rancho Cucamonga","California","Rancho Cucamonga, California US 91739"
"The Marathon Delivery","909-509-9769","sales@themarathondelivery.com","","Rancho Cucamonga","California","Rancho Cucamonga, California US 92507"
"Reptar's Delivery-Rancho Cucamonga","9516425899","highsky850@gmail.com","","Rancho Cucamonga","California","Rancho Cucamonga, California US 91730"
"So Cal Members","9092696783 TEXTONLY","SoCalMembers420@Gmail.com","","Rancho Cucamonga","California","Rancho Cucamonga, California US 91730"
"Golden leaf","818-726-0600","weedmaps@goldenleaf420.com","http://goldenleaf420.com","Rancho Cucamonga","California","Rancho Cucamonga, California US 91730"
"Nurse K","(888) 463-3155 ","nursek420@gmail.com","","Rancho Cucamonga","ca","Rancho Cucamonga, ca USA 91730"
"Wako Bako","323-371-6171","wakobakoinc@gmail.com","http://wakobako.com","Rancho Cucamonga","California","Rancho Cucamonga, California US 91730"
"THRC - VERIFIED PRODUCTS","(626) 272-4247","THRC1012@gmail.com","","Rancho Cucamonga","California","Rancho Cucamonga, California US 91730"
"Wings of Wellness - Rancho Cucamonga","909 921-7447","mostovoyleon@gmail.com","http://wingsofwellnessie.com","Rancho Cucamonga","California","Rancho Cucamonga, California US 91701"
"True Medical Health Care, Inc.","909-758-1046","truemedicalhealthcare@gmail.com","http://www.truemedicalhealthcare.com","Rancho Cucamonga","CA","Rancho Cucamonga, CA USA 91730"
"Green Lotus XIII - Rancho Cucamonga","909 724-1291","rvalencia46@gmail.com","http://Good%20afternoon%20.%20%20","Rancho Cucamonga","CA","Rancho Cucamonga, CA  91730"
"Manchester's Finest 420","909-319-0743","manchestersfinest420@gmail.com","","Rancho Cucamonga","CA","Rancho Cucamonga, CA  91701"
"Cannalife365","(909) 3074475","cannalife365@gmail.com","","Rancho Cucamonga","California","Rancho Cucamonga, California US 91739"
"Healing Leaf Village","9095570766","info@healingleafvillage.com","https://healingleafvillage.com","Rancho Cucamonga","California","Rancho Cucamonga, California US 91730"
"RICO","(507)400-7426","RICO2Help@gmail.com","http://RicoToGo.com","Rancho Cucamonga","California","Rancho Cucamonga, California US 91701"
"BudEx Delivery","626-425-0432","sgvbudex@yahoo.com","","Ranch Cucamonga","California","Ranch Cucamonga, California US 91730"
"FTP Gifts Everyday","909-927-7795","ftpeveryday420@gmail.com","","Walnut","CA","Walnut, CA  90000"
"WeedBell Delivery - Rancho Cucamonga","(909)359-8432","hello@weedbell.com","http://www.weedbell.com","Rancho Cucamonga","California","Rancho Cucamonga, California US 91730"
"ASAP","909-684-6865","asapmeddelivery@gmail.com","http://goldstardelivery.com","Rancho Cucamonga","California","Rancho Cucamonga, California US 91730"
"Happy Budzzz","(909) 686-0015","happybudzzzdelivery@gmail.com","http://www.HappyBudzzz.com","Rancho Cucamonga","CA","Rancho Cucamonga, CA USA 91730"
"Green Bee Meds - Rancho Cucamonga","(909) 714-1407","GreenBeeMeds420@gmail.com","","Rancho Cucamonga","CALIFORNIA","Rancho Cucamonga, CALIFORNIA United States 91730"
"Highly Elevated","909-329-9413","hollyweedwellness@gmail.com","","Rancho Cucamonga","California","Rancho Cucamonga, California US 91730"
"Gas Company","562-390-0898","gasco.rx@gmail.com","","Rancho Cucamonga","","Rancho Cucamonga,  US 91730"
"Buderfly Delivery","909-438-7592","buderflydelivery@outlook.com","","Rancho Cucamonga","California","Rancho Cucamonga, California US 91701"
"Cured Delivery","(909) 329-7809","thecurecollectivee@gmail.com","","Rancho Cucamonga","California","Rancho Cucamonga, California US 91701"
"A1 Collective","(626)598-0878","a1collectivea1@gmail.com","","Rancho Cucamonga","CA","Rancho Cucamonga, CA  91730"
"The Stoned Factory","909-701-7289","Thestonedfactory@gmail.com","","Upland","California","Upland, California US 91786"
"The King's Garden","(909) 296-9991","kingsgardenmedicinal@gmail.com","","Rancho Cucamonga","California","Rancho Cucamonga, California US 91730"
"Celebrity Budz","3233748878 ","CELEBRITYBUDZTHO@gmail.com","https://www.instagram.com/celebritybudzdelivery/","Rancho Cucamonga","California","Rancho Cucamonga, California US 91701"
"Status Collective","(909) 789-2205","statuscollective420@yahoo.com","","Rancho Cucamonga","California","Rancho Cucamonga, California US 91739"
"The House Of Ounces","213-214-5440","TheLAhouseofounces@gmail.com","","Rancho Cucamonga","California","Rancho Cucamonga, California US 91701"
"TKO Delivery - Rancho Cucamonga","909-325-0163","tkodelivery420@gmail.com","","Rancho Cucamonga","CA","Rancho Cucamonga, CA  91730"
"MCEC - Rancho Cucamonga","760-299-6232","customerservice@mcecdelivery.com","https://mcecdelivery.com/shopping-cart/","Rancho Cucamonga","California","Rancho Cucamonga, California US 91730"
"Todays Meds - Rancho Cucamonga","1-877-420-Meds","todaysmeds@yahoo.com","http://www.todaysmeds.com","Rancho Cucamonga","CA","Rancho Cucamonga, CA  91730"
"35 Cap PRC - Rancho Cucamonga","(909) 242-9226","prc40cap@gmail.com","","Rancho Cucamonga","CA","Rancho Cucamonga, CA  91730"
"Rehab Delivery","4422679282","rehabdelivery@gmail.com","http://www.rehabdeliveries.com","Rancho Cucamonga","California","Rancho Cucamonga, California US 91701"
"Clones OG Life Marijuana Plants","(909) 547-5268","info@og.life","https://og.life","Rancho Cucamonga","California","Rancho Cucamonga, California US 91730"
"Green Eagle Collective","909-307-4985","greeneaglecollective@gmail.com","","Rancho Cucamonga","California","Rancho Cucamonga, California  91739"
"The Honey Co.","7605076406","thehoneycomp@gmail.com","","Rancho Cucamonga","California","Rancho Cucamonga, California US 91730"
"PDC","909-757-3336","pdcollective100@gmail.com","","Rancho Cucamonga","CALIFORNIA","Rancho Cucamonga, CALIFORNIA United States 91730"
"Chubby's Med House","9093177296","chubbysmed@gmail.com","","Rancho Cucamonga","California","Rancho Cucamonga, California US 91730"
"Chubby's Med House","909-317-7296","chubbysmed@gmail.com","","Rancho Cucamonga","California","Rancho Cucamonga, California US 91730"
"Hyperwolf - Rancho 2.0","951-200-2088","Info@Hyperwolf.com","http://Hyperwolf.com","Rancho Cucamonga","California","Rancho Cucamonga, California US 91730"
"Mr.Chowws Remedies","909-706-5526","MrChowwsRemedies@Yahoo.com","","Rancho Cucamonga","California","Rancho Cucamonga, California US 91739"
