"Business name","Phone","Email","Website","State","City","Address"
"Green Rush Extracts - Redland / Mentone","909-435-1057","therealgreenrush89@gmail.com","","Redlands","California","Redlands, California US 92373"
"Inland Plug","(909) 961-5692","inlandplug4200@gmail.com","https://www.instagram.com/inlandplug4200/","Redlands","California","Redlands, California US 92374"
"Hyperwolf - Redlands","951-200-2088","order@Hyperwolf.com","https://www.Hyperwolf.com","Redlands","California","Redlands, California US 92373"
"Fuzzie Dunnlop","(909) 273-3471","Fuzzie.dunnlop@gmail.com","","Redlands","CA","Redlands, CA  92359"
"Let's Just Be Blunt INC - Redlands / Mentone","909-573-7594","letsjustbeblunt@gmail.com","","Redlands","California","Redlands, California US 92373"
"Half Baked Delivery","(310)936-1969","halfbakedelivery@gmail.com","","Redlands","California","Redlands, California US 92399"
"The Leaf 909","909-255-2340","theleaf909@gmail.com","","Redlands","California","Redlands, California US 92373"
"California Summer Inc","(909) 213-9072","NA@gmail.com","","Redlands","California","Redlands, California US 92373"
"Legendary Remedies","951-404-6702","legendaryremedies@yahoo.com","","Redlands","CA","Redlands, CA  92374"
"Redlands Finest","909-709-3841","redlandsfinest@mail.com","","Redlands","CA","Redlands, CA  92374"
"The Reliable Guys REDLANDS","909-763-8745","thereliableguys@gmail.com","http://www.thereliableguys.com","Redlands","","Redlands, US 92374"
"California Care Group","909-583-5715","delivery@calicaregroup.com","http://www.calicaregroup.com","Redlands","California","Redlands, California US 92373"
"Dank Bank Collective","9095330065","superstickyy710@gmail.com","","Redlands","CA","Redlands, CA USA 92373"
"Rehab Delivery","4422679282","rehabdelivery@gmail.com","http://www.rehabdeliveries.com","Redlands","California","Redlands, California US 92373"
"909 Labs","909-735-2523","909labs1@gmail.com","","Redlands","California","Redlands, California US 92373"
"Wings of Wellness County Line","(909) 316-9116","countylinewingsofwellness@gmail.com","","Redlands","California","Redlands, California US 92374"
"Todays Meds - Redlands/Mentone","1-877-420-Meds","todaysmeds@yahoo.com","http://www.todaysmeds.com","Redlands","CA","Redlands, CA  92373"
"ARC Collective","951-217-0052","arccollective25@gmail.com","http://arccollective25.com","Redlands","California","Redlands, California US 92374"
"Hyperwolf - Redlands 2.0","951-200-2088","order@hyperwolf.com","https://www.Hyperwolf.com","Redlands","California","Redlands, California US 92373"
"Black Sheep Co.","909-301-7948","blacksheepmeds2018@icloud.com","","Redlands","California","Redlands, California US 92373"
"Green Cloud CG","909-894-9522","greencloudcg420@icloud.com","","Redlands","California","Redlands, California US 92374"
"Dynamic Budz","909-213-0693","dynamicbudz@icloud.com","","redlands","California","redlands, California US 92374"
