"Business name","Phone","Email","Website","State","City","Address"
"Fly Fast Delivery - Richmond","(510) 776-2965","flyfast2017@gmail.com","http://www.flyfastfam.com","Richmond","California","Richmond, California US 94841"
"TOP SHELF EXPRESS","408 703 4420","topshelfhomedelivery@gmail.com","","Richmond","California","Richmond, California US 90001"
"The City.Delivery-RICHMOND AREA","  5109009420","info@thecity.delivery","http://www.thecity.delivery","Richmond","California","Richmond, California US 94530"
"MCPG Happy Herbs Delivery Service - Richmond / Hercules / Rodeo","707 567-1790","mcpgmembership@gmail.com","","Rodeo","California","Rodeo, California US 94572"
"Golden Gate Holistics","707-771-4103 ","administration@goldengateholistics.com","","Pinole","CA","Pinole, CA  94547"
"420 Super Budz","(510) 978-6310","420superbudz@gmail.com","","Richmond","California","Richmond, California US 94805"
"Cloud City Co Op","(510) 906-7279","cloudcitycoop@gmail.com","http://cloudcitycoop.com","Rodeo","California","Rodeo, California US 94572"
"Hii-Timez Delivery - Richmond","(510) 860-8387","hiitimezdelivery1@gmail.com","","Berkeley","California","Berkeley, California US 94805"
"420 Express","5102539241 ","m_a_c_@live.com","","Richmond","California","Richmond, California US 94801"
"Cali Xpress","415-295-6999","99oz@calixpress.org","http://www.calixpress.com","Richmond","CA","Richmond, CA  94806"
"Smoakland - Hercules","(510)513-9570","register@smoakland.com","http://www.smoakland.com","Hercules","CA","Hercules, CA  94547"
"Positive Vibes Collective","5103557508","mp3tequila@gmail.com","","San Pablo","CA","San Pablo, CA (Select a country) 94806"
"Only Exclusivez powered by Highwayz","209-640-4215","onlyexclusivez@gmail.com","http://OnlyExclusivez.com","Richmond","California","Richmond, California US 94564"
"Budee","(925) 953-2850","contact@budee.org","http://www.budee.org","Richmond","California","Richmond, California US 94806"
"The Hybrid Room","5103151200","info@thehybridroom.com","https://thehybridroom.com","Richmond","CA","Richmond, CA  94804"
"Weden (fka M Delivers)","1-800-CANNABIS","wecare@weden.com","http://www.weden.com","Richmond","California","Richmond, California US 94806"
"Weden (fka M Delivers)","1-800-CANNABIS","wecare@weden.com","http://www.weden.com","San Pablo","California","San Pablo, California US 94806"
"Budee","(925)953-2850","contact@budee.org","http://www.budee.org","Hercules","California","Hercules, California US 94547"
"Vallejo Relief Center - Crockett","(707) 651-9988","vallejorelief@gmail.com","","Crockett","California","Crockett, California US 94525"
"Weden (fka M Delivers)","1-800-CANNABIS","wecare@weden.com","http://www.weden.com","Pinole","California","Pinole, California US 94564"
"Weden (fka M Delivers)","1-800-CANNABIS","wecare@weden.com","http://www.weden.com","El Cerrito","California","El Cerrito, California US 94530"
"The Natural Fix - Richmond","707-580-1522 707-365-5104","thenaturalfix18@gmail.com","","Richmond","California","Richmond, California US 94801"
"RNF","5103798762","akilfadil@gmail.com","http://www.akilfadil.com/","Richmond","California","Richmond, California US 94805"
