"Business name","Phone","Email","Website","State","City","Address"
"WeedBell Delivery - Riverside","(909)774-6132","hello@weedbell.com","http://WeedBell.com","Riverside","California","Riverside, California USA 92506"
"Hyperwolf - Riverside","951-200-2088","order@hyperwolf.com","https://www.hyperwolf.com","Riverside","California","Riverside, California US 92503"
"The Marathon Delivery","909-212-1281","sales@themarathondelivery.com","","Riverside","California","Riverside, California US 92507"
"Cali Greens Co. - Riverside","310-492-3781","caligreensco@gmail.com","","Riverside","CA","Riverside, CA  92503"
"Green Tree Remedy","3238005420","sales@greentreeremedy.com","","Riverside","Ca","Riverside, Ca  92507"
"Diamond Budz Association","9514103687","diamondbudzriverside@gmail.com","","Riverside","California","Riverside, California US 92507"
"The Grasshopper Delivery - Riverside","9512109273","grasshopperdelivery714@gmail.com","","Riverside","California","Riverside, California US 92507"
"GrassRoots 420 Delivery - Riverside","(951) 423-4544","GrassRoots420Delivery@Gmail.com","","Riverside","California","Riverside, California US 92501"
"Inland Plug","(909) 961-5692","inlandplug4200@gmail.com","https://www.instagram.com/inlandplug4200/","RIVERSIDE","California","RIVERSIDE, California US 92501"
"HoneyBudz - RIVERSIDE - Grand Opening!!!","9514102321","honeybubz@gmail.com","","Riverside","California","Riverside, California US 92501"
"Goodfellas Inc","(951) 373-4388","goodfellasincd@gmail.com","","Riverside","CA","Riverside, CA (Select a country) 92503"
"Jane Welnis","951-512-0000","sales@janewelnis.com","","Riverside","California","Riverside, California US 92507"
"Empire Green Delivery - Riverside","(951)207-4398","empiregreendelivery@gmail.com","","Riverside","CA","Riverside, CA USA 92503"
"Diamond Medicines","855-202-6435","diamondmedicines@gmail.com","","Riverside","California","Riverside, California US 92506"
"Direct Connect","951-551-5524","directconnectteam420@gmail.com","","Riverside","Ca","Riverside, Ca USA 92503"
"Tree House Care","(951) 402-4842","thc420mobile@gmail.com","https://www.sway.com/4uStHNgGO8JAOqpG","Riverside","California","Riverside, California US 92503"
"Draco Delivery & Clones","(951) 204-3529","dracodeliveryIE@gmail.com","","Riverside","California","Riverside, California US 92507"
"Alpha","951-662-0031","alphamedic.riv@gmail.com","","Riverside","California","Riverside, California US 92507"
"Puffy Delivery - Riverside","951-289-0761","support@puffydelivery.com","http://puffydelivery.com","Riverside","California","Riverside, California US 92506"
"Reptar's Delivery-Riverside","9516424597","highsky850@gmail.com","","Riverside","California","Riverside, California US 92506"
"Draco Delivery & Clones","(951) 204-3529","dracodeliveryIE@gmail.com","","Riverside","California","Riverside, California US 92507"
"Pristine Greens","951-254-2391","pristinegreens19@gmail.com","","Riverside","California","Riverside, California US 92504"
"RICO","(507)400-7426","RICO2Help@gmail.com","http://RicoToGo.com","Riverside","California","Riverside, California US 92501"
"Dank Bank Collective","909-533-0065","superstickyy710@gmail.com","","Riverside","CA","Riverside, CA  92507"
"Todays Meds - Riverside","1-877-420-MEDS","todaysmeds@yahoo.com","http://www.todaysmeds.com","Riverside","CA","Riverside, CA USA 92503"
"Almighty Green Delivery","951-206-6916","Kurrentkings@gmail.com","","Riverside","California","Riverside, California US 92508"
"Lucky 8","(951) 488-7821","bmark1586@gmail.com","","Riverside","California","Riverside, California US 92506"
"High Noon","(951) 455-0867","highnoonlimited@gmail.com","","Riverside","California","Riverside, California US 92507"
"Chocolate City Collective","951-347-8439","chocolatecitycollective@yahoo.com","","Riverside","CA","Riverside, CA  92506"
"Rehab Delivery","4422679282","rehabdelivery@gmail.com","http://www.rehabdeliveries.com","Riverside","California","Riverside, California US 92506"
"Mountain Side Premium","951-977-6005","mountainsidepremium@gmail.com","","Perris","California","Perris, California US 92503"
"HP","(909) 632-9071","mmjhealthpros@gmail.com","","Riverside","Ca","Riverside, Ca  92506"
"Legendary Remedies","951-404-6702","legendaryremedies@yahoo.com","","Riverside","California","Riverside, California US 92501"
"Limitless Delivery Services","951-289-4401","limitlessdeliveryservices@gmail.com","","Riverside","California","Riverside, California US 92505"
"Hyperwolf - UCR 2.0","951-200-2088","order@Hyperwolf.com","https://www.Hyperwolf.com","Riverside","California","Riverside, California US 92521"
"ARC Collective","951-217-0052","arccollective25@gmail.com","http://arccollective25.com","Riverside","California","Riverside, California US 92507"
"Marshmellow Buds","9512330139","notwgarcia7@att.net","","Riverside","California","Riverside, California US 92507"
"Leaf House Delivery","9514969466","theleafhousedelivery@gmail.com","","Riverside","CA","Riverside, CA  92505"
"IE OG","(951) 776-6591","InlandEmpireOG951@gmail.com","","Riverside","CA","Riverside, CA USA 92506"
