"Business name","Phone","Email","Website","State","City","Address"
"COMPASSIONATE BAY DELIVERY-HOLLISTER","(844) 223-4911","members@cbd831.com","http://www.compassionatebay.com","Hollister","California","Hollister, California US 95023"
"TOP SHELF EXPRESS","408 703 4420","topshelfhomedelivery@gmail.com","","Morgan Hill","California","Morgan Hill, California US 95037"
"MINT XPRESS now Enjoymint","(408) 659-8434 ","info@enjoymintdelivered.com","http://www.mintxpress.net","Morgan Hill","California","Morgan Hill, California US 94015"
"GW Farms","(831)-537-6012","gw_farms@yahoo.com","","Gilroy","CA","Gilroy, CA  95020"
"Door Rush 420","866-787-4420","orders@doorrush420.com","http://doorrush420.com","Gilroy","California","Gilroy, California US 95023"
"Hollister's Farmaceutical","831-710-1125","HollistersFarmaceutical@gmail.com","","Hollister","CA","Hollister, CA (Select a country) 95023"
"Gilroy's Farmaceutical","831-710-1125","GilroysFarmaceutical@gmail.com","","Gilroy","CA","Gilroy, CA USA 95020"
"Hollister Sanctuary","831-524-5055","Hollistersanctuary@gmail.com","http://usanctuary.com/","Hollister","California","Hollister, California US 95023"
"MINT XPRESS - Morgan Hill","(408) 610-2944","info@mintxpress.net","http://www.mintxpress.net","Gilroy","California","Gilroy, California US 95037"
"Four Rivers Express","8312058178","FourRivers408@gmail.com","","Gilroy","California","Gilroy, California US 95020"
"Budee","925-953-2850","contact@budee.org","http://www.budee.org","Morgan Hill","California","Morgan Hill, California US 95020"
"OZ Budget Express","(831) 775-9399","mrstoned420215@gmail.com","","Gilroy","California","Gilroy, California US 95020"
"Door Rush 420","1-866-787-4420","orders@doorrush420.com","http://doorrush420.com","Hollister","California","Hollister, California US 95023"
"Four Rivers Express","8312058178","FourRiversHolly@gmail.com","","Hollister","California","Hollister, California US 95023"
"Door Rush 420","1-866-787-4420","orders@doorrush420.com","http://doorrush420.com","Morgan Hill","California","Morgan Hill, California US 95037"
"Golden Essentials Delivery","831-206-2524","goldenessdelivery@gmail.com","http://www.goldenessentialsdelivery.com","Hollister","CA","Hollister, CA (Select a country) 95023"
"The Members Only Club","(831) 754-8805","info@mocdelivery.com","http://www.mocdelivery.com","Morgan Hill","California","Morgan Hill, California US 95037"
"Budee","(925)953-2850","contact@budee.org","http://www.budee.org","Gilroy","California","Gilroy, California US 95023"
"Elemental Wellness- Morgan Hill","408-433-3344","delivery@elementalwellnesscenter.com","https://elementalwellnesscenter.com","Morgan Hill","California","Morgan Hill, California US 95037"
"Canna Culture Collective Delivery","(408) 264-7877","info@cannaculturecollective.com","http://cannaculturecollective.com/","San Jose","CA","San Jose, CA USA 95136"
