"Business name","Phone","Email","Website","State","City","Address"
"Bento - South San Francisco","415-862-3686","order@bento.delivery","http://www.bento.delivery","South San Francisco","California","South San Francisco, California US 94080"
"Mission Organic Delivery","415-585-6337","info@MissionOrganicCenter.com","http://www.missionorganiccenter.com","San Francisco","California","San Francisco, California US 94132"
"MINT XPRESS now Enjoymint","(650) 285-1601 ","info@enjoymintdelivered.com","http://www.mintxpress.net","San Francisco","California","San Francisco, California US 94015"
"Cannabis Express - San Francisco South","415-363-9617","contact@cannabisexpress.com","http://www.CannabisExpress.com","San Francisco","CA","San Francisco, CA  94132"
"TOP SHELF EXPRESS","408 703 4420","topshelfhomedelivery@gmail.com","","Millbrae","California","Millbrae, California US 94030"
"Green Bay Collective","(650)257-0313","greenbaycollective@gmail.com","","Daly City","CA","Daly City, CA (Select a country) 94015"
"SmileHouse","4155300545","smilehouse415@gmail.com","http://www.smilehousesf.com","San Francisco","CA","San Francisco, CA USA 94132"
"Citius Group","(415) 686-7492","citiusgroup415@gmail.com","","San Francisco","California","San Francisco, California US 94112"
"420doordash SF","925-257-4098","420doordash@gmail.com","http://my.dudaone.com/site/6e452c52/?preview=true&insitepreview=true&dm_device=mobile","Daly City","California","Daly City, California US 94014"
"Puffy Delivery - South San Francisco","628-246-2240","support@puffydelivery.com","http://puffydelivery.com","South San Francisco","California","South San Francisco, California US 94080"
"INDIKA","(415) 988-0263","indikamcc@gmail.com","http://indikamcc.com","South San Francisco","California","South San Francisco, California US 94030"
"Bento - San Francisco South","415-862-3686","order@bento.delivery","http://www.bento.delivery","South San Francisco","California","South San Francisco, California US 94080"
"Phog Center","844-504-8771","info@phogcenter.com","http://www.phogcenter.com","Pacifica","CA","Pacifica, CA  94044"
"Buzz Delivery","(844) 420-2899","info@buzzdelivery.org","http://www.buzzdelivery.org/","San Bruno","California","San Bruno, California US 94066"
"Tickles and Giggles","4159964685","ticklesandgigglesdelivery@gmail.com","http://ticklesandgiggles.org","South San Francisco","CA","South San Francisco, CA (Select a country) 94127"
"Herbi","844-464-3724","support@herbi.com","http://www.herbi.com","San Francisco","CA","San Francisco, CA  94102"
"Best Buds Collective","510-214-6193","bestbudscollective510@gmail.com","","San Francisco","California","San Francisco, California US 94132"
"Highwayz","415-754-5443","highwayz.co@gmail.com","http://highwayz.co","San Francisco","California","San Francisco, California US 94115"
"Buzz Delivery","(844) 420-2899","info@buzzdelivery.org","http://www.buzzdelivery.org","South San Francisco","California","South San Francisco, California US 94080"
"Cali Xpress","415-295-6999","99oz@calixpress.org","http://www.calixpress.com","Coma","CA","Coma, CA  94014"
"Citius Group","(415)686-7492","citiusgroup415@gmail.com","","South San Fransicsco","California","South San Fransicsco, California US 94080"
"JAHNETICS","4155243561","jahnetics.official@gmail.com","http://www.jahnetics.com/","San Francisco","California","San Francisco, California US 94080"
"Bliss","(650)703-7474","blissdelivery650@gmail.com","","Daly City","California","Daly City, California US 94014"
"Bay Care Delivery","(415) 647-7520","baycaredelivery@gmail.com","http://www.baycaredelivery.com/","South San Francisco","California","South San Francisco, California US 94080"
"CEAS - San Francisco","650-556-5135","info@ceascollective.org","http://ceascollective.org","San Francisco","California","San Francisco, California US 94080"
"Highwayz","415-754-5443","Highwayz.co@gmail.com","http://highwayz.co","Clay Ave","California","Clay Ave, California US 94080"
"Jingletown Cannabis Club","(510) 210-1689","Oakland@jtcclub.com","http://www.jtcclub.com","Daly City","California","Daly City, California US 94014"
"Le Shoppe","(408) 858-2422","join@leshoppedelivery.org","","South San Franciscco","CA","South San Franciscco, CA US 94112"
"Proven SF","415-872-2964","support@ProvenSF.com","https://provensf.com/","San Francisco","CA","San Francisco, CA  94127"
"MINT XPRESS - S. San Francisco","(408) 610-4007","info@mintxpress.net","http://www.mintxpress.net","San Francisco","California","San Francisco, California US 94015"
"Enjoymint - Pacifica","(833)835-0749","info@enjoymintdelivered.com","","Pacifica","California","Pacifica, California US 90001"
"Budee","9259532850","contact@budee.org","http://www.budee.org","San Francisco","California","San Francisco, California US 94132"
"Budee","(925)953-2850","contact@budee.org","http://www.budee.org","San Francisco","California","San Francisco, California US 94015"
"SFFOGG","4158964271","sffogg@gmail.com","http://www.sffogg.com/","San Francisco","California","San Francisco, California US 94080"
"Le Shoppe","(408) 858-2422","leshoppecoop@gmail.com","","San Francisco","","San Francisco,  US 94080"
"Family Roots Delivery","650-771-5609","info@familytreedelivery.com","http://www.familytreedelivery.com","San Francisco","CA","San Francisco, CA  94037"
"Caliva Delivery","408-297-2615","onlineorders@gocaliva.com","https://caliva.com","San Francisco","California","San Francisco, California US 94080"
"Budee","(925)953-2850","contact@budee.org","http://www.budee.org","San Bruno","California","San Bruno, California US 94066"
"MediThrive Cannabis Dispensary & Delivery - Daly City"," (415) 562-6334","info@medithrive.com","https://www.medithrive.com/","Daly City","California","Daly City, California US 94014"
"Le Shoppe","(408) 858-2422","leshoppecoop@gmail.com","","Daly City","CA","Daly City, CA US 94105"
"Weedhub","4157873688","support@weedhub.delivery","https://www.weedhub.delivery","San Francisco","California","San Francisco, California US 94501"
"Le Shoppe","(408) 858-2422","join@leshoppedelivery.org","","San Bruno","CA","San Bruno, CA US 94066"
"SF Green Delivery","4153229734","info@sfgreendelivery.org","https://www.sfgreendelivery.org","San Francisco","California","San Francisco, California US 94112"
