"Business name","Phone","Email","Website","State","City","Address"
"TeleGram Collective","(661) 349-9028 ","info@420telegram.com","http://www.420telegram.com","Santa Clarita","CA","Santa Clarita, CA USA 91355"
"Supreme Greens","661-476-9824","supremegreens05@gmail.com","","Santa Clarita","California","Santa Clarita, California US 91321"
"The Gas Station - Delivery Service","(818) 799-6168","DeliveryGasStation@Gmail.com","","Santa Clarita","California","Santa Clarita, California US 91321"
"BLK Deliveries","818-878-8868","Weareblk.info@gmail.com","http://Www.blkdelivery.com","Santa Clarita","California","Santa Clarita, California US 91355"
"Emberz Delivery","3109350063","emberzdelivery@gmail.com","http://emberzdelivery.com","Santa Clarita","California","Santa Clarita, California US 91355"
"Vader Group","6616002998","vadergroup661@gmail.com","","Santa Clarita","CA","Santa Clarita, CA  91355"
"R&R Deliveries","424-261-2627","restnrelaxation68@gmail.com","","Santa Clarita","CA","Santa Clarita, CA  91321"
"Top Gun Greens","6616707128","Topgungreens@hotmail.com","","Santa Clarita","California","Santa Clarita, California US 91355"
"Pineapple Express","877 WE-DELIVER","support@pineappleexpress.com","https://pineappleexpress.com/?utm_source=weedmaps&utm_medium=affiliate&utm_campaign=santa_clarita","Valencia","CA","Valencia, CA  91355"
"Golden leaf","818-442-2463","weedmaps@goldenleaf420.com","http://goldenleaf420.com","Santa Clarita","California","Santa Clarita, California US 91354"
"Royal Garden","661-670-7929","royalgardendelivery@gmail.com","","Santa Clarita","CA","Santa Clarita, CA  90001"
"MCEC - Santa Clarita","760-299-6232","customerservice@mcecdelivery.com","https://mcecdelivery.com/shopping-cart/","Santa Clarita","California","Santa Clarita, California US 91321"
"Royal Garden","661-670-7929","royalgardendelivery@gmail.com","","Santa Clarita","California","Santa Clarita, California US 91355"
"Canna Canyon","(661) 347-6929","scvcannacanyon@gmail.com","","Santa Clarita","California","Santa Clarita, California US 91350"
"Green Highway Express","1-661-388-8815","greenhighwayexpress@gmail.com","","Santa Clarita","CA","Santa Clarita, CA United States 91355"
"The Gas Station - Delivery Service","(818) 799-6168","DeliveryGasStation@Gmail.com","","Santa Clarita","California","Santa Clarita, California US 91351"
"Cannix - Santa Clarita","833-462-2664","management@dannyvisualstv.com","","Castaic","California","Castaic, California US 91384"
"HCMA - NC Co-Op Delivery","(818)699-9333","hcmadelivery@gmail.com","https://hcmadelivery.com/","Stevenson Ranch","California","Stevenson Ranch, California US 91381"
"HCMA - NC Co-Op Delivery","(818)699-9333","hcmadelivery@gmail.com","https://hcmadelivery.com/","Canyon Country","California","Canyon Country, California US 91351"
"HCMA - NC Co-Op Delivery","(818)699-9333","hcmadelivery@gmail.com","https://hcmadelivery.com/","Valencia","California","Valencia, California US 91355"
