"Business name","Phone","Email","Website","State","City","Address"
"KUSHAGRAM","323-739-1134","donations@kushagram.com","","Norwalk","California","Norwalk, California US 90650"
"Green Tree Remedy","3238005420","sales@greentreeremedy.com","","Santa Fe Springs","Ca","Santa Fe Springs, Ca  90670"
"Hyperwolf - Whittier","310-566-8384","order@hyperwolf.com","http://www.HyperWolf.com","Whittier","California","Whittier, California US 90602"
"OG Maywood Delivery","323-208-9066","info@ogsinsemilla.delivery","http://www.OGMaywood.com","Santa Fe Springs","California","Santa Fe Springs, California US 90605"
"Meds On Wheels","562-347-7540","MedsOnWheels@gmail.com","","Whittier","California","Whittier, California US 90601"
"Forbidden Garden","626 734 9820","FORBIDDENGARDEN710@GMAIL.COM","","Whittier","California","Whittier, California US 90601"
"Top Shelf Essentials","562-991-9470","topshelfessentials@yahoo.com","","Norwalk","CA","Norwalk, CA USA 90650"
"562 Go Green","562-552-2206","562gogreen@gmail.com","","Whittier","California","Whittier, California US 90601"
"Smoke Now, Smoke Later","562-379-1564","qualitycollective.delivery@gmail.com","","Santa Fe Springs","California","Santa Fe Springs, California US 90638"
"HotBox On Wheels","562-361-0111","whbx562@gmail.com","","Whittier","California","Whittier, California US 90605"
"Green Rush Collective","562-641-1879","whittiergreenrush@gmail.com","","Whittier","California","Whittier, California US 90604"
"BudEx Delivery","626-425-0432","sgvbudex@yahoo.com","","Pico Rivera","California","Pico Rivera, California US 91790"
"Buddies","626-238-8784","Buddiesmedexpress@yahoo.com","","Whittier","California","Whittier, California US 91706"
"Best Remedy","626-371-5321","sgvbestremedy@yahoo.com","","Whittier","CA","Whittier, CA  90638"
"Quality Meds Delivery","626-782-3270","qualitymedsdelivery@gmail.com","","Santa Fe Springs","California","Santa Fe Springs, California US 99999"
"420 Dank Delivery","562-547-8676","qualityorganicsolutions@gmail.com","","La Mirada","CA","La Mirada, CA  90638"
"40 Cap CC Delivery - Whittier","562-631-4161","40capCC@gmail.com","","Whittier","California","Whittier, California US 90670"
"420 Dank Delivery","562-547-8676","qualityorganicsolutions@gmail.com","","Santa Fe Springs","Ca","Santa Fe Springs, Ca  92654"
"420 Dank Delivery","562-547-8676","qualityorganicsolutions@gmail.com","","Whittier","Ca","Whittier, Ca  90602"
"Puffy Delivery","562-362-6037","support@puffydelivery.com","http://puffydelivery.com","Santa Fe Springs","California","Santa Fe Springs, California US 90670"
"Friendly Xpress","562-325-4435","friendlyxpress@gmail.com","","Whittier","California","Whittier, California US 90604"
"The Medicine Man (OPEN LATE)","310-951-6006","mundunugucaregivers@gmail.com","","Norwalk","California","Norwalk, California US 90650"
"Nug Runner - Whittier","562-714-1002","thenugrunner420@gmail.com","","La Mirada","California","La Mirada, California US 90638"
"FLYING HIGH","714-760-6349","flyinghighh01@gmail.com","","Whittier","California","Whittier, California US 90605"
"40 Cap CC Delivery - Norwalk","(562) 631-0541","40capCC@gmail.com","","Norwalk","California","Norwalk, California US 90660"
"Buds On The Run","714 574 7278","budsontherun@gmail.com","","Santa Fe Springs","CA","Santa Fe Springs, CA  90650"
"40 Cap CC Delivery - Pico Rivera","(562) 631-0541","40capCC@gmail.com","","Pico Rivera","California","Pico Rivera, California US 90650"
"UGC - UnderGround Cannabis","5623629052","ugclbc420@gmail.com","","Norwalk","California","Norwalk, California US 90650"
"40 Cap CC Delivery- Whittier","(562) 631-0541","40capCC@gmail.com","","Whittier","California","Whittier, California US 90650"
"The House Of Ounces","657-289-8133","TheLAhouseofounces@gmail.com","","Santa Fe Springs","California","Santa Fe Springs, California US 90670"
"Good Tree","562-315-8955","support@goodtreedelivery.com","","Norwalk","California","Norwalk, California US 90670"
"KUSHAGRAM - NORWALK","323-739-1134","donations@kushagram.com","http://kushagram.com","Norwalk","California","Norwalk, California US 90650"
"562 Go Green","562-552-2206","562gogreen@gmail.com","","Santa Fe Springs","California","Santa Fe Springs, California US 90670"
"Weedrive2U - Norwalk","(562) 350-5637","weedrive2u@gmail.com","","Norwalk","California","Norwalk, California US 90650"
"Real Remedies - La Mirada","714-860-3240","realremediescollective@gmail.com","http://RealRemediesCollective.com","La Mirada","California","La Mirada, California US 90638"
