"Business name","Phone","Email","Website","State","City","Address"
"Westside Organic Delivery","310-309-9752","westsideorganic@gmail.com","","Santa Monica","CA","Santa Monica, CA USA 90401"
"KUSHAGRAM","323-739-1134","donations@kushagram.com","http://kushagram.com","Santa Monica","California","Santa Monica, California US 90401"
"Hyperwolf - Santa Monica","310-566-8384","order@HyperWolf.com","http://www.HyperWolf.com","Santa Monica","CA","Santa Monica, CA  90401"
"GRASSDOOR","310.749.9135","support@grassdoor.com","http://www.grassdoor.com","Santa Monica","California","Santa Monica, California US 90404"
"High Tide Organics","310-853-0805","info@hightideorganics.org","http://www.hightideorg.com","Santa Monica","California","Santa Monica, California US 90403"
"Golden Leaf","424-444-3363","weedmaps@goldenleaf420.com","http://goldenleaf420.com","Santa Monica","California","Santa Monica, California US 90403"
"WeeDeals","+1 (323) 9556947","weedeliver420la@gmail.com","","Santa Monica","CA","Santa Monica, CA (Select a country) 90401"
"LuvBrite Delivery","310-697-2611","info@luvbrite.com","http://www.luvbrite.com","Santa Monica","CA","Santa Monica, CA United States 90404"
"Westside Botanicals","310-433-9393","wsbotanicals@gmail.com","","Santa Monica","CA","Santa Monica, CA  90403"
"DR Kush Delivery ðŸ”¥","(818) 855-0602","drkushdelivery@gmail.com","","Santa Monica","CA","Santa Monica, CA  90401"
"FLOWER CO.","415-360-0896","hello@flowercompany.com","https://www.flowercompany.com","Santa Monica","California","Santa Monica, California US 90404"
"Pure Decision","818-288-1435","puredecision@icloud.com","","Santa Monica","California","Santa Monica, California US 90401"
"HERB","(844) 437-2213","support@HERB.delivery","http://www.HERB.delivery","Santa Monica","CA","Santa Monica, CA  90403"
"ganjarunner","(855) 554-2652","contact@ganjarunner.com","http://ganjarunner.com","Santa Monica","California","Santa Monica, California US 90291"
"Weed Fast Delivery","323-907-6598","weedfastdelivery@gmail.com","","Santa Monica","California","Santa Monica, California US 90401"
"Mr Smoke","747-272-2744","mrsmokela@gmail.com","","Santa Monica","California","Santa Monica, California US 90401"
"Sunny Buds","424-256-5346","sunnybudsdeliveryservice@gmail.com","","Santa Monica","CA","Santa Monica, CA (Select a country) 90401"
"Venice Buds Delivery- Santa Monica","747-777-2275","venicebudsdelivery@gmail.com","","Santa Monica","California","Santa Monica, California US 90401"
"ASAP BUDZ","747-900-3357","asapbudz420@hotmail.com","","Santa Monica","California","Santa Monica, California US 90404"
"Green Guest","(424) 362-6244 ","jordangest1@gmail.com","","Santa Monica","California","Santa Monica, California US 90404"
"Puffy Delivery","424-272-7927","support@puffydelivery.com","http://puffydelivery.com","Santa Monica","California","Santa Monica, California US 90404"
"Xaler Delivery","424-261-9333","xalercollective@gmail.com","","Santa Monica","California","Santa Monica, California US 90025"
"Xaler Delivery","424 261 9333","xalercollective@gmail.com","","Santa Monica","California","Santa Monica, California US 90291"
"Westside Organic Delivery","310-309-9752","support@westsideorganicdelivers.com","https://www.westsideorganicdelivers.com/","Santa Monica","CA","Santa Monica, CA USA 90405"
"Metro Green Meds - Santa Monica","310-261-8827","MGMmeds@gmail.com","http://metrogreenmeds.com","Santa Monica","California","Santa Monica, California US 90405"
"Cannix","833-462-2664","management@dannyvisualstv.com","","santa monica","California","santa monica, California US 90401"
"KushCab Delivery","kushcabdelivery.com","order@kushcabdelivery.com","http://kushcabdelivery.com","Santa Monica","California","Santa Monica, California US 90401"
"LA's Finest","323-482-4218","lasfinest215@gmail.com","","Santa Monica","CA","Santa Monica, CA  90403"
"VIP LA"," 323-334-5153","VeryImportantPatients@gmail.com","","Santa Monica","California","Santa Monica, California US 90405"
"Vape Cartridge Valet","424-262-7318","customerservice@weedmaps.com","","Santa Monica","California","Santa Monica, California US 90404"
"KUSHAGRAM","323-739-1134","donations@kushagram.com","http://kushagram.com","Santa Monica","California","Santa Monica, California US 90403"
"Honor Roll Delivery","(888) 884-7229","honorrolldelivery@gmail.com","http://www.honorrolldelivery.com","Santa Monica","California","Santa Monica, California US 90401"
"The House Of Ounces","213-985-5615","TheLAhouseofounces@gmail.com","","Santa M","California","Santa M, California US 90404"
"The Pottery Delivery","424-256-5388","soco.losangeles@gmail.com","http://thepottery.delivery","Santa Monica","California","Santa Monica, California US 90405"
"Venice Buds Delivery- Santa Monica","747-777-2275","venicebudsdelivery@gmail.com","","Santa Monica","California","Santa Monica, California US 90405"
"The Pottery Delivery","424-256-5388","soco.losangeles@gmail.com","http://thepottery.delivery","Santa Monica","California","Santa Monica, California US 90402"
"Joy Delivery","818-423-3744","joydelivered420@gmail.com","","Santa Monica","California","Santa Monica, California US 90401"
"Good Tree","562-315-8955","support@goodtreedelivery.com","","Los Angeles","California","Los Angeles, California US 90461"
