"Business name","Phone","Email","Website","State","City","Address"
"KUSHAGRAM","323-739-1134","donations@kushagram.com","","Long Beach","California","Long Beach, California US 90815"
"Weedrive2U - South Long Beach","(562) 350-5637","weedrive2u@gmail.com","","Long Beach","California","Long Beach, California US 90804"
"The Healing Nug Delivery","5622458801","thehealingnug@gmail.com","","Long Beach","CA","Long Beach, CA USA 90804"
"Healing Tree Holistic Association","562-308-6279","healingtreelongbeach@gmail.com","","Long Beach","CA","Long Beach, CA  90804"
"Coastline Caregivers Collective","(562) 326-7834 ","coastlinecaregiverscollective@gmail.com","","Long Beach","California","Long Beach, California US 90803"
"TreeHouse Delivery","562-212-4383","treehousemeds@yahoo.com","http://www.treehousemeds.com","Long Beach","California","Long Beach, California US 90803"
"Friendly Strangers","(562) 682-8953","friendlystrangersdeliveries@gmail.com","","Long Beach","CA","Long Beach, CA USA 90804"
"Higher Purpose Delivery","562-552-0889","higherpurposedelivery@gmail.com","http://HigherPurposeDelivery.com","Long Beach","CA","Long Beach, CA USA 90803"
"ABC Delivery","5628262052 ","O@O.com","http://www.abccollective.com","South Long beach","CA","South Long beach, CA USA 90814"
"Krafted Strains","(562) 922-4439","MasterTheKraft@KraftedStrains.com","","Long Beach","California","Long Beach, California US 90805"
"Down To Deliver","6572045710","downtodeliver@gmail.com","https://www.snapchat.com/add/dtdlbc","Long Beach","California","Long Beach, California US 90815"
"Yoshi Express","562 225 8409","Jayyamamoto777@gmail.com","","Long Beach","California","Long Beach, California US 90815"
"GRASSDOOR","310.749.9135","support@grassdoor.com","http://www.grassdoor.com","Long Beach","California","Long Beach, California US 90815"
"Belmont Delivery","(619) 750-0870","stonerland713@gmail.com","","Belmont Shores","California","Belmont Shores, California US 90803"
"NU CULTURE","(562) 446-1752","nuculture420@gmail.com","","Long Beach","California","Long Beach, California US 90803"
"AGT - Belmont Shore","562-342-0897","alphagardentech@gmail.com","http://AGT420.com","Long Beach","California","Long Beach, California US 90814"
"Puffy Delivery","562-270-9997","support@puffydelivery.com","http://puffydelivery.com","Long Beach","California","Long Beach, California US 90803"
"KUSHAGRAM","323-739-1134","donations@kushagram.com","","Belmont Shore","California","Belmont Shore, California US 90803"
"Friendly Strangers","(562) 682-8953","friendlystrangersdeliveries@gmail.com","","Long Beach","CA","Long Beach, CA USA 90815"
"The Medicine Man (OPEN LATE)","310-951-6006","mundunugucaregivers@gmail.com","","Long Beach","California","Long Beach, California US 90813"
"9 Planet Organics","5625138164","dbissman1@gmail.com","","Long Beach","Ca","Long Beach, Ca USA 90814"
"Coastline Cannabis","562-449-9901","coastlinecannabis2014@gmail.com","","Long Beach","California","Long Beach, California US 90814"
"MoeGreenENERGY - CSULB/Belmont Shore","562-349-4018","moegreenenergy@gmail.com","","Long Beach","CA","Long Beach, CA USA 90740"
"The Humble Collective Delivery Service","562-217-2146","thehumblecollective@yahoo.com","","Long Beach","CA","Long Beach, CA  90804"
"UGC - UnderGround Cannabis","5623629052","ugclbc420@gmail.com","","Long Beach","California","Long Beach, California US 90804"
"Good Tree","562-315-8955","support@goodtreedelivery.com","http://goodtreedelivery.com","Long Beach","California","Long Beach, California US 90814"
"Down To Deliver","6572045710","downtodeliver@gmail.com","","Long Beach","California","Long Beach, California US 90803"
"Mobile Medz","(562) 448-6451","Mobilemedco@gmail.com","","Long beach","California","Long beach, California US 90804"
"Root215 -Belmont Shores","562-228-4408","root215delivery@gmail.com","","Belmont Shores","CA","Belmont Shores, CA USA 90803"
"Deals on Wheels 420 Wellness","949-546-7131","dealsonwheelslb@gmail.com","","Long Beach","California","Long Beach, California US 90815"
"Mary Couture Delivery Service","310-920-0136","Marycouture1@gmail.com","","Long Beach","CA","Long Beach, CA USA 90403"
"South Bay Botanics","424-264-4135","southbaybotanics2019@gmail.com","","Belmont Shore","California","Belmont Shore, California US 90814"
"Shaka Medical","(562)588-6764","shakamedicalmmj@gmail.com","","Belmont Shores","California","Belmont Shores, California US 90815"
"Good Tree","562-315-8955","support@goodtreedelivery.com","","Long Beach","California","Long Beach, California US 90803"
"The Station - Delivery","562-221-1490","longbeachstation@gmail.com","http://thestationlb.com","Long Beach","California","Long Beach, California US 90803"
"Canna Harbor- South Long Beach","1-424-305-4416","elevateharborcitydelivery@gmail.com","","South Long Beach","California","South Long Beach, California US 90815"
"MedMen Delivery - Long Beach","562-485-9303","info.LBBroadway@medmen.com","https://medmen.com/stores/long-beach-broadway","Long Beach","California","Long Beach, California US 90803"
