"Business name","Phone","Email","Website","State","City","Address"
"Medallion Wellness Delivery - Stockton","209-222-3110","medallionwellnessdelivery@gmail.com","http://medallionwellness.com/","Stockton","","Stockton, US 95202"
"Empire Delivery - Stockton","209-589-6475","empirehealthandwellness64@gmail.com","http://www.empirehw.com","Stockton","California","Stockton, California US 95205"
"Hempire Inc","5108773515","hempinc209@gmail.com","","Stockton","CA","Stockton, CA  95120"
"Specialty Meds - Stockton","209-237-8932","specialtymeds209@gmail.com","","Stockton","CA","Stockton, CA  95206"
"Zippy MD","209-688-3877","zippymd10@gmail.com","","Stockton","CA","Stockton, CA  95205"
"Smoke On The Water","209-715-3458","smokeonthewater143@gmail.com","","Stockton","California","Stockton, California US 95204"
"831 Delivery - Stockton","888-575-1323","support@lyfted.co","http://www.831.delivery","Stockton","California","Stockton, California US 95203"
"I Heart Canna - Stockton"," 1 (844) 882-2662","iheartcannastockton@gmail.com","https://iheartcanna.club/stockton-menu/","Stockton","California","Stockton, California US 95209"
"Humble Root","916-793-5182","orders@humbleroot.com","http://www.humbleroot.com","Stockton","California","Stockton, California US 95205"
"Meds 4 Less","2094752411","davidsmeds36@gmail.com","","Stockton","California","Stockton, California US 95209"
"Smoakland - Stockton","(510)513-9570","register@smoakland.com","https://www.smoakland.com","Stockton","CA","Stockton, CA  95202"
"Titan 420","925-392-0046","Titan4201@yahoo.com","","Stockton","CA","Stockton, CA  95210"
"Titan 420 - Stockton","925-392-0046","titan420@yahoo.com","","Stockton","Ca","Stockton, Ca USA 95210"
"TruLeaf Delivery","(209) 606-9694","info@truleafinc.com","","Stockton","California","Stockton, California US 95204"
"Urban Flavours Delivery - Stockton","855-635-2868","orders@urbanflavoursdelivery.com","http://urbanflavoursdelivery.com","Stockton","California","Stockton, California US 90001"
"Budee","(925)953-2850","contact@budee.org","http://www.budee.org","Stockton","California","Stockton, California US 95206"
"Budee","(925)953-2850","contact@budee.org","http://www.budee.org","Stockton","California","Stockton, California US 95207"
"Humble Root","916-793-5182","orders@humbleroot.com","http://www.humbleroot.com","Stockton","California","Stockton, California US 95204"
"Humble Root","916-793-5182","orders@humbleroot.com","http://www.humbleroot.com","Stockton","California","Stockton, California US 95207"
"Humble Root","916-793-5182","orders@humbleroot.com","http://www.humbleroot.com","Stockton","California","Stockton, California US 95240"
