"Business name","Phone","Email","Website","State","City","Address"
"BLK Deliveries","8188788868","Weareblk.info@gmail.com","http://weareblk.info","Thousand Oaks","California","Thousand Oaks, California US 91360"
"Royal Kush","805-608-0858","royalkush2019@gmail.com","","Thousand Oaks","California","Thousand Oaks, California US 91361"
"Golden leaf","805-405-7615","weedmaps@goldenleaf420.com","http://goldenleaf420.com","Thousand Oaks","California","Thousand Oaks, California US 93065"
"CanEx Delivery","(310) 384-8880","canexdelivery@gmail.com","","Thousand Oaks","California","Thousand Oaks, California US 91362"
"Emberz Delivery","3109350063","emberzdelivery@gmail.com","http://emberzdelivery.com","Thousand Oaks","California","Thousand Oaks, California US 91362"
"LA Rush - Thousand Oaks","(818) 724-9797","larush818@gmail.com","","Thousand Oaks","CA","Thousand Oaks, CA USA 91358"
"Winner's Collective Medicinal Delivery Service - Thousand Oaks","877-764-1727","Winnerscollective3000@gmail.com","http://www.winnerscollective.com","West Lake Village","California","West Lake Village, California US 91362"
"Green Health Elite Medical Collective","818-577-3322","greenhealthelite@gmail.com","","Westlake Village","California","Westlake Village, California US 91362"
"Thousand Buds","8053729549","Flowersflav37@gmail.com","","Thousand Oaks","California","Thousand Oaks, California US 91360"
"Green HEMPire","8188368995","greenhempire19@gmail.com","","Thousand Oaks","California","Thousand Oaks, California US 91358"
"Cali Coast Delivery"," 805-980-8293","registration@calicoast420.com","https://www.calicoast420.com","Thousand Oaks","California","Thousand Oaks, California US 91360"
"SeeMeeGreen","(805) 813-4031","SeeMeeGreen@gmail.com","","Thousand Oaks","CA","Thousand Oaks, CA USA 91362"
"Gold Leaf - Thousand Oaks","8182576602","OfficialGoldLeafDelivery@gmail.com","","Thousand Oaks","California","Thousand Oaks, California US 91362"
"ledlloyd420 - Westlake Village - Agoura Hills","310-924-4300","ledlloyd420@gmail.com","","Westlake Village","CA","Westlake Village, CA USA 91361"
"Deals on Greens - DOG","(424) 268 6911","dealsongreen@yahoo.com","","Thousand Oaks","CA","Thousand Oaks, CA USA 91360"
"Rabbit Run","(818) 600-1568","420RabbitRun@gmail.com","","Agoura Hills","California","Agoura Hills, California US 91301"
"Down To Earth Organics","818-835-3346","downtoearth818@gmail.com","https://downtoearth.club","Thousand Oaks","California","Thousand Oaks, California US 91361"
"Platinum Genetics Delivery","805-261-9640","Platinumgeneticsdelivery@gmail.com","https://weedmaps.com/deliveries/platinum-genetics-delivery","Thousand Oaks","California","Thousand Oaks, California US 91360"
"Fire Bud","818-581-9554","firebudindustries@gmail.com","","Westlake Village","California","Westlake Village, California US 91361"
"Fire Bud","(424)-301-1267","firebudindustries@gmail.com","","Thousand Oaks","California","Thousand Oaks, California US 91361"
"Gold Leaf - Oak Park","8182576602","OfficialGoldLeafDelivery@gmail.com","","thousand oaks","California","thousand oaks, California US 91360"
"Firehouse Caregivers Thousand Oaks","805-901-0121","firehousecaregivers@gmail.com","","Thousand Oaks","CA","Thousand Oaks, CA USA 91360"
"Firehouse Caregivers Westlake Village","805-901-0121","firehousecaregivers@gmail.com","","Westlake Village","CA","Westlake Village, CA USA 91362"
"Gold Leaf - Thousand Oaks","8182576602","OfficialGoldLeafDelivery@gmail.com","","Thousand Oaks","California","Thousand Oaks, California US 91320"
"Royal Kush","805-608-0858","royalkush2019@gmail.com","","Thousand Oaks","California","Thousand Oaks, California US 91377"
"The Rolling Trees","818-913-70-12","tbd@gmail.com","","Augora HIlls","California","Augora HIlls, California US 91301"
"Divine Wellness Delivery","3107348463","divinewellnesscenter@gmail.com","https://divinewellnessla.com/view-menu/","Thousand Oaks","California","Thousand Oaks, California US 91301"
"Cana Farms","(818) 591-5899","canacanogapark@gmail.com","http://www.canafarmscanoga.com","Thousand Oaks","California","Thousand Oaks, California US 91319"
"Gold Leaf - Thousand Oaks","8182576602","OfficialGoldLeafDelivery@gmail.com","","Thousand Oaks","California","Thousand Oaks, California US 91301"
"Platinum Genetics Delivery","805-261-9640","Platinumgeneticsdelivery@gmail.com","https://weedmaps.com/deliveries/platinum-genetics-delivery","Thousand Oaks","California","Thousand Oaks, California US 91362"
"DC Delivers","818-887-0980","info@dccollective.com","http://www.dccollective.com","Thousand Oaks","California","Thousand Oaks, California US 91361"
"Firehouse Caregivers Newbury Park","805-901-0121","firehousecaregivers@gmail.com","","Newbury Park","CA","Newbury Park, CA USA 93012"
