"Business name","Phone","Email","Website","State","City","Address"
"Ez Meds","(818) 455-2338","ezmedsdelivery@yahoo.com","","Van Nuys","California","Van Nuys, California US 91401"
"SMOKERS DELIVERY NETWORK","(714) 640-7968","thesacrament420@gmail.com","https://www.instagram.com/smokersdeliverynetwork/","Van Nuys","California","Van Nuys, California US 91401"
"Potmates Delivery - Van Nuys","626-545-5749","Potmates77@gmail.com","","Van Nuys","California","Van Nuys, California US 91406"
"Quality Control - Van Nuys","8183704122","qualitycontrol150@yahoo.com","","Van Nuys","California","Van Nuys, California US 91401"
"KUSHANOVA","2132746120","KushanovaLA@icloud.com","","Vany Nuys","California","Vany Nuys, California US 91411"
"MIDNIGHT EXPRESS","213-858-6969","connoisseurdelivery@gmail.com","","Van Nuys","California","Van Nuys, California  91401"
"BudHut","818-739-9008","budhutla@gmail.com","","Van Nuys","California","Van Nuys, California US 91405"
"Tasty Farms Delivery - Van Nuys","(818) 388-1920 ","tastyfarmsdelivery@gmail.com","http://www.tastyfarmsdelivery.com","Van Nuys","California","Van Nuys, California US 91403"
"Cloud 420 Delivery","818-270-0979","cloud420w@gmail.com","","Van Nuys","California","Van Nuys, California US 91407"
"Cali K Delivery","818-310-6586","calikdelivery@gmail.com","","Van Nuys","California","Van Nuys, California US 91411"
"The Gas Station - Delivery Service","818-799-6168","DeliveryGasStation@Gmail.com","","Van Nuys","California","Van Nuys, California US 91401"
"Mr Smoke","747-272-2744","mrsmokela@gmail.com","","Van Nuys","California","Van Nuys, California US 91405"
"CanEx Delivery","(310) 384-8880","canexdelivery@gmail.com","http://www.canexdelivery.org","Van Nuys","California","Van Nuys, California US 91403"
"Post Meds","818-747-3046","POSTMED420@gmail.com","","Van Nuys","California","Van Nuys, California US 91405"
"Joy Delivery","818-423-3744 ","joydelivered420@gmail.com","","Van Nuys","California","Van Nuys, California US 91411"
"FLOWER CO.","415-360-0896","hello@flowercompany.com","https://www.flowercompany.com","Van Nuys","California","Van Nuys, California US 91401"
"Weedmates","(818)-964-6010","weedmates19@gmail.com","","Van Nuys","California","Van Nuys, California US 91401"
"Green Kingdom","(747)248-8952","greenkingdomla@yahoo.com","","Van Nuys","CA","Van Nuys, CA  91405"
"BudExpress","3237902727","bigbudexpress@gmail.com","","Van Nuys","California","Van Nuys, California US 91401"
"iWeed","747-203-5085","iweed007@gmail.com","https://iweed.me/","Van Nuys","CA","Van Nuys, CA  91405"
"Green Panda Express","(818) 747-0514","greenpandaexpress90@yahoo.com","","Van Nuys","CA","Van Nuys, CA  91405"
"AceBuds","8189153311","Acebuds19@gmail.com","","Van Nuys","California","Van Nuys, California US 91411"
"Whisper Weed","818-815-1983","whisperweeddelivery@gmail.com","","Van Nuys","California","Van Nuys, California US 91401"
"Stone Zone Delivery","3234847846","stonezone818@gmail.com","","Van Nuys","California","Van Nuys, California US 91405"
"GRASSDOOR","310.749.9135","support@grassdoor.com","http://www.grassdoor.com","Van Nuys","California","Van Nuys, California US 91411"
"Emberz Delivery","3109350063","emberzdelivery@gmail.com","https://emberzdelivery.com/","Van Nuys","California","Van Nuys, California US 91401"
"Level Up Delivery","323-873-0777","level420delivery@gmail.com","","Van Nuys","California","Van Nuys, California US 91405"
"Magna Med","TEXT (747) 201-0802","magnamed@yahoo.com","","Van Nuys","ca","Van Nuys, ca  91401"
"Crystal Cannabis","626-689-5142","Crystalcannabisla@gmail.com","","Van Nuys","California","Van Nuys, California US 91401"
"The House Of Ounces","213-985-5615","TheLAhouseofounces@gmail.com","","Van Nuys","California","Van Nuys, California US 91405"
"ASAP BUDZ","747-900-3357","asapbudz420@hotmail.com","","Lake Balboa","California","Lake Balboa, California US 91406"
"Cannix","833-462-2664","management@dannyvisualstv.com","","Van Nuys","California","Van Nuys, California US 91411"
"HCMA - NC Co-Op Delivery","(818)699-9333","hcmadelivery@gmail.com","https://hcmadelivery.com/","Van Nuys","California","Van Nuys, California US 91405"
"Cloud Nine Delivery","2137606102","cloud9delivery@aol.com","","Los Angeles","(Select a state)","Los Angeles, (Select a state) US 91401"
"BudHut","818-739-9008","budhutla@gmail.com","","Van Nuys","California","Van Nuys, California US 91405"
"We The Best Delivery","213-712-3607","wethebestdelivery420@gmail.com","","Van Nuys","CA","Van Nuys, CA  91401"
"Canoga Budz Delivery","(747) 214 - 9421","Canoga0800@gmail.com","","Van Nuys","California","Van Nuys, California US 91405"
"Starleaf - Van Nuys","501-550-5055","starleaf@yahoo.com","","Van Nuys","CA","Van Nuys, CA  91405"
"HCMA - NC Co-Op Delivery","(818)699-9333","hcmadelivery@gmail.com","https://hcmadelivery.com/","Van Nuys","California","Van Nuys, California US 91406"
"Moonrock Walker","8183100814","Abutler3131@gmail.com","","Van Nuys","California","Van Nuys, California US 94105"
