"Business name","Phone","Email","Website","State","City","Address"
"Enjoymint - Walnut Creek","(833) 295-2750","info@enjoymintdelivered.com","http://www.mintxpress.net","Walnut Creek","California","Walnut Creek, California US 90001"
"Taste","925-914-0540","tastedelivery@outlook.com","","Walnut Creek","California","Walnut Creek, California US 94598"
"Mountain Remedy - Walnut Creek","9254204215","info@mountainremedy.com","http://www.mountainremedy.com","Walnut Creek","CA","Walnut Creek, CA  94595"
"TOP SHELF EXPRESS","408 703 4420","topshelfhomedelivery@gmail.com","","Walnut Creek","California","Walnut Creek, California US 95020"
"Violet - Walnut Creek","(925) 471-1939","Violetpatientcontact@gmail.com","","Walnut Creek","California","Walnut Creek, California US 94597"
"Healthy Greens - Walnut Creek","(510)240-2437","hgnewpatient@gmail.com","http://www.healthygreensdelivery.com","Walnut Creek","CA","Walnut Creek, CA (Select a country) 94596"
"Mobile420rx","(925) 557-0151","m420walnutcreek@gmail.com","http://mobile420rx.com","Walnut Creek","CA","Walnut Creek, CA USA 94598"
"The 1 Delivery Service - Walnut Creek","925-705-0831","eastbaythe1delivery@gmail.com","http://www.the1delivery.com","Walnut Creek","California","Walnut Creek, California US 94598"
"Higher Elevation","(925)579-3330","info@higherelevation.com","http://higherelevation.com","Walnut Creek","CA","Walnut Creek, CA  94597"
"Royal Greens","(510) 491-0899","info@royalgreens.shop","http://www.royalgreens.shop","Walnut Creek","California","Walnut Creek, California US 94542"
"Angel Care 360","(925) 658 - 8040","info@angelcare360.com","http://angelcare360.org","Walnut Creek","CA","Walnut Creek, CA  94598"
"Cali Coast Delivery","510-325-6617","registration@calicoast420.com","http://www.calicoast420.com","Walnut Creek","California","Walnut Creek, California US 94597"
"CPC Delivery","925-420-4272","CPCdelivery@gmail.com","http://www.facebook.com/CPC-Delivery-1870667283205078/","Walnut Creek","California","Walnut Creek, California US 94598"
"MCDG","(925) 899-6292","info@TEAMMCDG.com","https://teammcdg.com/","Walnut Creek","CA","Walnut Creek, CA USA 94598"
"Golden State Canna","5104993681","Goldenstatecann@gmail.com","http://BioMassGardens.Com","Walnut Creek","CA","Walnut Creek, CA  94596"
"West Coast Premium Medz - Walnut Creek","(925) 214-8743","bayareagreenery@gmail.com","http://WESTCOASTPREMIUMMEDZ.COM","Walnut Creek","California","Walnut Creek, California US 94595"
"Buzz Delivery","844-420-2899","info@buzzdelivery.org","http://www.buzzdelivery.org/","Walnut Creek","California","Walnut Creek, California US 94597"
"InstantGrams Delivery Inc","(925) 339-9948","instantgramsca@gmail.com","http://instantgramsdelivery.com","Walnut Creek","CA","Walnut Creek, CA United States 94595"
"A Cut Above Deliveries","6503962883","info@enjoymintdelivered.com","","Walnut Creek","California","Walnut Creek, California US 94597"
"Smoakland - Lafayette","(510)513-9570","register@smoakland.com","http://www.cannabicarecollective.com","Lafayette","CA","Lafayette, CA USA 94549"
"Green On The Go","(510) 7472283","greenonthego7@gmail.com","http://www.greenonthego7.com","Walnut Creek","California","Walnut Creek, California US 94596"
"Mountain Remedy","9254204215","info@mountainremedy.com","https://www.mountainremedy.com","Walnut Creek","CA","Walnut Creek, CA  94596"
"Mountain Remedy","9254204215","info@mountainremedy.com","https://www.mountainremedy.com","Walnut Creek","CA","Walnut Creek, CA  94567"
"Golden State Canna","510-499-3681","Goldenstatecann@gmail.com","http://BioMassGardens.Com","Lafayette","California","Lafayette, California US 94549"
"Mountain Remedy","9254204215","info@mountainremedy.com","https://www.mountainremedy.com","Walnut Creek","CA","Walnut Creek, CA  94596"
"Duber","+19253856323","waxhouse925@gmail.com","","Walnut Creek","California","Walnut Creek, California US 94598"
"Cali Xpress","415-295-6999","99oz@calixpress.org","http://www.calixpress.com","Walnut Creek","CA","Walnut Creek, CA  94598"
"Mountain Lion Delivery","(510) 878-7462","Mountainliondelivery@gmail.com","http://www.mountainliondelivery.com","Walnut Creek","California","Walnut Creek, California US 94596"
"Door Rush 420","1-866-787-4420","orders@doorrush420.com","https://www.doorrush420.com/","Walnut Creek","California","Walnut Creek, California US 94549"
"C3 Delivery","C3 Delivery","C3DeliveryBay@gmail.com","http://C3Delivered.com","Walnut Creek","California","Walnut Creek, California US 94598"
"ZENGANIC","(925) 421-5894","info@zenganic.us","http://www.zenganic.us","Walnut Creek","California","Walnut Creek, California US 94596"
"Green Coach - Walnut Creek","925-339-2033","greencoach420@gmail.com","","Walnut Creek","California","Walnut Creek, California US 94523"
"GRO","707-631-4096","hello@gro.life","http://www.gro.life","Dixon","California","Dixon, California US 94596"
"Urban Flavours Delivery - Walnut Creek","855-205-3380","orders@urbanflavoursdelivery.com","https://urbanflavoursdelivery.com","Walnut Creek","California","Walnut Creek, California US 94597"
"Good Tree","510-725-4405","support@goodtreedelivery.com","http://goodtreedelivery.com","Walnut Creek","California","Walnut Creek, California US 90001"
"Euphoric Phlowerz","925-428-1555","euphoricphlowerz@gmail.com","","Rossmoor","CA","Rossmoor, CA  94595"
"CBD - East Bay CBD","(925) 597-3492","info@eastbaycbd.com","http://www.eastbaycbd.com","Walnut Creek","California","Walnut Creek, California US 94596"
"The Hybrid Room","5103151200","info@thehybridroom.com","https://thehybridroom.com","Lafayette","California","Lafayette, California US 94549"
"The City.Delivery-Walnut Creek","510-900-9420","info@thecity.delivery","http://www.thecity.delivery","Walnut Creek","California","Walnut Creek, California US 94596"
