"Business name","Phone","Email","Website","State","City","Address"
"Bud Runners - West Hollywood","323-455-6464","budrunners@gmail.com","http://budrunnersla.com","West Hollywood","California","West Hollywood, California US 90210"
"420 King Delivery","3235735431","420kingdelivery@gmail.com","http://420kingla.com","Los Angeles","CA","Los Angeles, CA USA 90046"
"Hyperwolf - West Hollywood","310-566-8384","order@hyperwolf.com","http://www.HyperWolf.com","West Hollywood","California","West Hollywood, California US 90069"
"Green Tree Remedy","3238005420","sales@greentreeremedy.com","","West Hollywood","California","West Hollywood, California US 90048"
"LYT Delivery","(213) 706-3342","info@lyt.delivery","http://lyt.delivery","West Hollywood","California","West Hollywood, California US 90069"
"Top Shelf California","323-494-8861","TOPshelfdeliveryservices@gmail.com","http://topshelf.delivery","Los Angeles","California","Los Angeles, California US 90048"
"Fast Buds Organic","818-422-6788","organicfastbuds@gmail.com","","West Hollywood","California","West Hollywood, California US 90069"
"Pure Decision","818-288-1435","puredecision@icloud.com","","West Hollywood","California","West Hollywood, California US 90069"
"HCC Delivery","3232364912","hiighcitycollective@gmail.com","","Los Angles","California","Los Angles, California US 90211"
"Kush House","626-328-9108","Kushhouse@gmail.com","","West Hollywood","California","West Hollywood, California US 90069"
"Golden leaf","424-444-3363","weedmaps@goldenleaf420.com","http://www.goldenleaf420.com","West Hollywood","California","West Hollywood, California US 90069"
"Da Green Corner 140oz","(310) 894-9727","dagreencorner@gmail.com","http://dagreencorner.com/","Culver City","California","Culver City, California US 90232"
"Joy Delivery","818-423-3744","joydelivered420@gmail.com","","West Hollywood","California","West Hollywood, California US 90069"
"KUSHAGRAM - WeHo","323-739-1134","donations@kushagram.com","","West Hollywood","California","West Hollywood, California US 90069"
"FLOWER CO.","415-360-0896","hello@flowercompany.com","https://www.flowercompany.com","West Hollywood","California","West Hollywood, California US 90046"
"GRASSDOOR","310.749.9135","support@grassdoor.com","http://www.grassdoor.com","West Hollywood","California","West Hollywood, California US 90048"
"RUSH","818-927-9923","rushdeliveryla@gmail.com","","West Hollywood","California","West Hollywood, California US 90038"
"Green Guest","(424) 362-6244 ","jordangest1@gmail.com","","Hollywood","California","Hollywood, California US 90069"
"Puffy Delivery - WEHO","818-452-0219","support@puffydelivery.com","http://puffydelivery.com","Beverly Hills","California","Beverly Hills, California US 90210"
"Cloud Nine Delivery","2137606102","cloud9delivery@aol.com","","Los Angeles","CA","Los Angeles, CA (Select a country) 90028"
"The Private Reserve","323-488-5050","ThePrivateReserveLA@gmail.com","","West Hollywood","California","West Hollywood, California US 90046"
"DR Kush Delivery","818) 855-0602","drkushdelivery@gmail.com","","West Hollywood","Ca","West Hollywood, Ca  90069"
"420 Open Late","424-240-8768","jd420222@gmail.com","","Beverly Hills","","Beverly Hills,  US 90210"
"Xaler Delivery","424-261-9333","xalercollective@gmail.com","","Beverly Hills","California","Beverly Hills, California US 90210"
"Angels City - 25 Cap - West Hollywood","(747) 248-8143","AngelsCity420@gmail.com","","West Hollywood","California","West Hollywood, California US 90046"
"DGLA","3234644745","DGLAORDERS@gmail.com","","Los Angeles","California","Los Angeles, California US 90069"
"Daze Market","(310) 270-0623","dazemarket.ca@gmail.com","","Los Angeles","California","Los Angeles, California US 90211"
"Captain OG Delivery","1 (310) 739-6895","greenlife01010@gmail.com","https://weedmaps.com/deliveries/green-life-10","Los Angeles","California","Los Angeles, California US 90036"
"AceBuds","8189153311","Acebuds19@gmail.com","","Los Angeles","California","Los Angeles, California US 90046"
"HCMA - NC Co-Op Delivery","(818)699-9333","hcmadelivery@gmail.com","https://hcmadelivery.com/","Beverly Hills","California","Beverly Hills, California US 90210"
"Level Up Delivery","(323) 873-0777","level420delivery@gmail.com","","West Hollywood","CA","West Hollywood, CA USA 90210"
"Cannix - Beverly Hills","833-462-2664","management@dannyvisualstv.com","","Beverly Hills","California","Beverly Hills, California US 93065"
"LA's Finest","323-482-4218","lasfinest215@gmail.com","","West Hollywood","CA","West Hollywood, CA  90069"
"Med City Delivery - West Hollywood","3233358623","420citydelivery@gmail.com","","West Hollywood","California","West Hollywood, California US 90046"
"Fast Buds Organic","818-422-6788","organicfastbuds@gmail.com","","Los Angeles","California","Los Angeles, California US 90212"
"We The Best Delivery - West Hollywood","2137123607","wethebestdelivery420@gmail.com","","West Hollywood","CA","West Hollywood, CA  90069"
"Jungle Tree","(310) 403-4092","jungletreedelivery@gmail.com","http://www.jungletreedelivery.com","Hollywood","California","Hollywood, California US 90046"
"Orangeleaf","818-572-5156 ","orangeleaf2007@mail.com","","West Hollywood","California","West Hollywood, California US 90210"
"BARC - BEVERLY ALTERNATIVE RELIEF DELIVERY","3102287074","barcdelivery@gmail.com","http://barccollective.com/","Los Angeles","California","Los Angeles, California US 90048"
"Medfleet Delivery","2135884180","medfleetdelivery@gmail.com","","West Hollywood","California","West Hollywood, California US 90046"
"KUSHAGRAM","323-739-1134","donations@kushagram.com","http://kushagram.com","We Ho","California","We Ho, California US 90036"
"BudHut","818-739-9008","budhutla@gmail.com","","West Hollywood","California","West Hollywood, California US 90069"
"The Spot Delivery- West Hollywood","747-998-9199","TheSpotDelivery818@yahoo.com","","West Hollywood","California","West Hollywood, California US 90046"
"Mr Smoke","747-272-2744","mrsmokela@gmail.com","","West Hollywood","California","West Hollywood, California US 90046"
"HCMA - NC Co-Op Delivery","(818)699-9333","hcmadelivery@gmail.com","https://hcmadelivery.com/","West Hollywood","California","West Hollywood, California US 90046"
"Honor Roll Delivery","(888) 884-7229","honorrolldelivery@gmail.com","http://www.honorrolldelivery.com","West Hollywood","California","West Hollywood, California US 90046"
"Emberz Delivery","3109350063","emberzdelivery@gmail.com","http://emberzdelivery.com","Beverly Hills","California","Beverly Hills, California US 90211"
"KUSHAGRAM","323-739-1134","donations@kushagram.com","http://kushagram.com","Los Angeles","California","Los Angeles, California US 90036"
"Mary Couture Delivery Service","(310)8703434","marycouture420@gmail.com","https://www.instagram.com/marycouture1/","West Hollywood","California","West Hollywood, California US 90069"
"KUSHAGRAM","323-739-1134","donations@kushagram.com","","Beverly Hills","California","Beverly Hills, California US 90212"
"Express Buds","424-522-6065","expressbuds424@gmail.com","","West Hollywood","California","West Hollywood, California US 90036"
"Good Tree","562-315-8955","support@goodtreedelivery.com","http://www.goodtreedelivery.com","Los Angeles","California","Los Angeles, California US 92651"
"Urban Treez Delivery","844-688-7339","Contact@UrbanTreez.com","http://www.urbantreez.com","Beverly Hills","California","Beverly Hills, California US 90210"
"HCMA - NC Co-Op Delivery","(818)699-9333","hcmadelivery@gmail.com","https://hcmadelivery.com/","Los Angeles","California","Los Angeles, California US 90077"
"MedMen Delivery - West Hollywood","(310) 307-3478","info.beverlyhills@medmen.com","https://medmen.com/stores/los-angeles-beverly-hills","West Hollywood","California","West Hollywood, California US 90046"
"DGLA","3234644745","DGLAorders@gmail.com","","Los Angeles","California","Los Angeles, California US 90029"
"HCMA - NC Co-Op Delivery","(818)699-9333","hcmadelivery@gmail.com","https://hcmadelivery.com/","La Brea","California","La Brea, California US 90036"
"MedMen Delivery - Beverly Hills","(310) 307-3478","info.beverlyhills@medmen.com","https://medmen.com/stores/los-angeles-beverly-hills","Beverly Hills","California","Beverly Hills, California US 90048"
"HCMA - NC Co-Op Delivery","(818)699-9333","hcmadelivery@gmail.com","https://hcmadelivery.com/","Los Angeles","California","Los Angeles, California US 90046"
"HOLLYWEED DELIVERY","(323) 592-3113","hollyweedhollywood@gmail.com","","Beverly Hills","California","Beverly Hills, California US 90210"
