"Business name","Phone","Email","Website","State","City","Address"
"KUSHAGRAM - WESTMINSTER","949-750-2003","donations@kushagram.com","","Westminster","California","Westminster, California US 92683"
"KushMates","9012068188","kushmatesdelivery@gmail.com","","Westminister","California","Westminister, California US 92646"
"Puffy Delivery","714-408-4662","support@puffydelivery.com","http://puffydelivery.com","Westminster","California","Westminster, California US 92647"
"Sky High Holistic Delivery","714-620-4205","na@gmail.com","","Westminster","CA","Westminster, CA  92655"
"Green Tree Remedy","3238005420","sales@greentreeremedy.com","","Westminster","CA","Westminster, CA  92683"
"Higher Purpose Delivery","562-552-0889","higherpurposedelivery@gmail.com","http://HigherPurposeDelivery.com","Sunset Beach","CA","Sunset Beach, CA  92683"
"Euphorik Drop","(949) 394-1426","EuphorikDrop@gmail.com","","Westminster","California","Westminster, California US 92683"
"Hello THC - Westminster","714-467-8765","hellothcdelivery@gmail.com","http://www.hellothc.com","Westminister","CA","Westminister, CA USA 92683"
"GTR GREEN TREE REMEDY","714-313-4704","greentreeremedy@gmail.com","","Westminster","CA","Westminster, CA  92683"
"GRASSDOOR","310.749.9135","support@grassdoor.com","http://www.grassdoor.com","Seal Beach","California","Seal Beach, California US 90740"
"OneStopOC - West OC","714-585-5657","DabLabzOC@gmail.com","","Westminster","CA","Westminster, CA  92683"
"Top Shelf Best Price - Seal Beach","714-742-6854","topshelfbestprice@gmail.com","","Westminster","Ca","Westminster, Ca  92683"
"OrganaCann","714-369-8260","OrganaCann@gmail.com","http://www.OrganaCann.com","Sunset Beach / Seal Beach","California","Sunset Beach / Seal Beach, California US 92649"
"Root215-Westminster Beach","562-228-4408","root215delivery@gmail.com","","Westminster","CA","Westminster, CA USA 92683"
"Shaka Medical","(562)588-6764","shakamedicalmmj@gmail.com","","Seal Beach","California","Seal Beach, California US 90740"
"The House Of Ounces","657-289-8133","TheLAhouseofounces@gmail.com","","Wesminster","California","Wesminster, California US 92683"
"UGC - UnderGround Cannabis","5623629052","ugclbc420@gmail.com","","Westminster","California","Westminster, California US 90740"
"KUSHAGRAM","949-750-2003","donations@kushagram.com","","Midway City","California","Midway City, California US 92655"
"KUSHAGRAM - SEAL BEACH","323-739-1134","donations@kushagram.com","","Seal Beach","California","Seal Beach, California US 90740"
"1-866-DELIVERY","1-866-DELIVERY","info@DeliveryGreens.com","http://www.DeliveryGreens.com","Westminster","CA","Westminster, CA  92683"
"KUSHAGRAM","949-750-2003","donations@kushagram.com","","Westminster","California","Westminster, California US 92683"
"Good Tree","5623158955","support@goodtreedelivery.com","http://goodtreedelivery.com","Seal Beach","California","Seal Beach, California US 90740"
"KUSHAGRAM - SEAL BEACH","949-750-2003","donations@kushagram.com","","Seal Beach","California","Seal Beach, California US 92649"
"KUSHAGRAM","949-750-2003","donations@kushagram.com","","Westminster","California","Westminster, California US 92683"
"1-866-DELIVERY","1-866-DELIVERY","info@DeliveryGreens.com","http://www.DeliveryGreens.com","Seal Beach","CA","Seal Beach, CA  90740"
"1-866-DELIVERY","1-866-DELIVERY","info@DeliveryGreens.com","http://www.DeliveryGreens.com","Westminster","CA","Westminster, CA  92683"
"Jungle Jane Delivery","8554203293","orders@junglejanedelivery.com","https://junglejanedelivery.com/shop/?v=7516fd43adaa","Seal Beach","California","Seal Beach, California US 90740"
"KUSHAGRAM","949-750-2003","donations@kushagram.com","","Westminster","California","Westminster, California US 92683"
"Coastline Cannabis","562-449-9901","coastlinecannabis2014@gmail.com","","Seal Sunset","California","Seal Sunset, California US 99999"
