"Business name","Phone","Email","Website","State","City","Address"
"FCC FLIGHT CLUB COLLECTIVE"," (310) 422-6992","FCCWESTLA@gmail.com","https://fccwestla.greenlightapp.com/product","Los Angeles","California","Los Angeles, California US 90024"
"LYT Delivery","(213) 706-3342","info@lyt.delivery","http://lyt.delivery","West Los Angeles","California","West Los Angeles, California US 90025"
"Hyperwolf - West LA","310-566-8384","order@hyperwolf.com","http://www.HyperWolf.com","West Los Angeles","CA","West Los Angeles, CA  90024"
"Green Tree Remedy - West Los Angeles","3238005420","sales@greentreeremedy.com","","West Los Angeles","CA","West Los Angeles, CA  90024"
"The Pottery Delivery","424-256-5388","soco.losangeles@gmail.com","https://thepottery.delivery/","Los Angeles","CA","Los Angeles, CA USA 90025"
"Jamie's Weed Delivery","424-206-0050","jamiesweeddelivery@yahoo.com","","West Los Angeles","California","West Los Angeles, California US 90025"
"Kush Coast LA","(213) 999-1760","kushcoastla@gmail.com","","Los Angeles","California","Los Angeles, California US 90095"
"Greens Good","424-581-2754","greensgood948@gmail.com","https://thegreensgood.com/","Los Angeles","California","Los Angeles, California US 90067"
"WeeDeals","+1 (323) 9556947","weedeliver420la@gmail.com","","Los Angeles","CA","Los Angeles, CA  90024"
"DR Kush Delivery ðŸ”¥","(818) 855-0602","drkushdelivery@gmail.com","","West LA","CA","West LA, CA  90025"
"Kush House","626-328-9108","Kushhouse@gmail.com","","West Los Angeles","California","West Los Angeles, California US 90024"
"LuvBrite Delivery - West LA","310-697-2611","info@luvbrite.com","https://www.luvbrite.com","West LA","CA","West LA, CA  90025"
"ASAP BUDZ","747-900-3357","asapbudz420@hotmail.com","","West Hollywood","California","West Hollywood, California US 90067"
"GRASSDOOR","310-749-9135","support@grassdoor.com","http://www.grassdoor.com","West Los Angeles","California","West Los Angeles, California US 90230"
"ganjarunner","855-554-2652","contact@ganjarunner.com","https://ganjarunner.com/","West Los Angeles","California","West Los Angeles, California US 90025"
"HERB","(844) 437-2213","support@HERB.delivery","http://www.HERB.delivery","West Los Angeles","CA","West Los Angeles, CA  90024"
"Golden Leaf","424-444-3363","weedmaps@goldenleaf420.com","http://www.goldenleaf420.com","los Angeles","California","los Angeles, California US 90095"
"Tasty Farms - West LA","323-891-7691","tastyfarmswest@gmail.com","http://www.tastyfarmsdelivery@gmail.com","West Los Angeles","California","West Los Angeles, California US 90064"
"Da Green Corner 140oz","(310) 894-9727","dagreencorner@gmail.com","http://dagreencorner.com/","Los Angeles","California","Los Angeles, California US 90035"
"Sunny Buds","424-256-5346","sunnybudsdeliveryservice@gmail.com","","Santa Monica","CA","Santa Monica, CA (Select a country) 90049"
"Flora's Remedy","3104386836","florasremedy@gmail.com","","Los Angeles","California","Los Angeles, California US 90024"
"Xaler Delivery","424 261 9333","xalercollective@gmail.com","","West Los Angeles","California","West Los Angeles, California US 90025"
"Mary Couture Delivery Service","3108703434","marycouture420@gmail.com","","Los Angeles","California","Los Angeles, California US 90024"
"Xaler Delivery","424-261-9333","xalercollective@gmail.com","","West Los Angeles","California","West Los Angeles, California US 90024"
"Uplift","2132672466","upliftdelivery02@gmail.com","","Los Angeles","California","Los Angeles, California US 90025"
"BudHut","818-739-9008","budhutla@gmail.com","","Los Angeles","California","Los Angeles, California US 90089"
"AceBuds","8189153311","Acebuds19@gmail.com","","Los Angeles","California","Los Angeles, California US 90024"
"VIP LA","323-334-5153","VeryImportantPatients@gmail.com","","Los Angeles","California","Los Angeles, California US 90025"
"Kush Mobile","3232078089","qnicorporation@gmail.com","https://www.yelp.com/biz/kushmobile-los-angeles-2?utm_campaign=www_business_share_popup&utm_medium=copy_link&utm_source=(direct)","Brentwood","CA","Brentwood, CA  90049"
"Cloud 420 Delivery","818-270-0979","cloud420w@gmail.com","","West Los Angeles","California","West Los Angeles, California US 90025"
"KUSHAGRAM","323-739-1134","donations@kushagram.com","http://kushagram.com","West Los Angeles","California","West Los Angeles, California US 90024"
"Starleaf","501-550-5055","starleaf@yahoo.com","","West La","CA","West La, CA  90024"
"LA's Finest","323-482-4218","lasfinest215@gmail.com","","Los Angeles","CA","Los Angeles, CA  90049"
"OrangeLeaf","818-572-5156 ","orangeleaf2007@mail.com","","Los Angeles","California","Los Angeles, California US 90024"
"KUSHAGRAM","323-739-1134","donations@kushagram.com","http://kushagram.com","West Los Angeles","California","West Los Angeles, California US 90024"
"Hyperwolf - West LA 2.0","310-566-8384","order@HyperWolf.com","http://www.HyperWolf.com","Los Angeles","CA","Los Angeles, CA  90064"
"HCMA - NC Co-Op Delivery","(818)699-9333","hcmadelivery@gmail.com","https://hcmadelivery.com/","West Los Angeles","California","West Los Angeles, California US 90210"
"Pure Decision","818-288-1435","puredecision@icloud.com","","West Los Angeles","California","West Los Angeles, California US 90025"
"Kushy Delivery Santa Monica Highs","855-695-8749","bryanrnyc@gmail.com","http://uclahighgrades.com","West Los Angeles","California","West Los Angeles, California US 90049"
"Joy Delivery","818-423-3744","joydelivered420@gmail.com","","West Los Angeles","California","West Los Angeles, California US 90025"
"HCMA - NC Co-Op Delivery","(818)699-9333","hcmadelivery@gmail.com","https://hcmadelivery.com/","Los Angeles","California","Los Angeles, California US 90049"
"Honor Roll Delivery","(888) 884-7229","honorrolldelivery@gmail.com","http://www.honorrolldelivery.com","Los Angeles","California","Los Angeles, California US 90064"
"Venice Buds Delivery- West LA","747-777-2275","venicebudsdelivery@gmail.com","","West Los Angeles","California","West Los Angeles, California US 90024"
"Good Tree","562-315-8955","support@goodtreedelivery.com","http://GoodTreeDelivery.com","Los Angeles","California","Los Angeles, California US 92651"
"Uplift","2132672466","upliftdelivery02@gmail.com","","Los Angeles","California","Los Angeles, California US 90095"
"HCMA - NC Co-Op Delivery","(818)699-9333","hcmadelivery@gmail.com","https://hcmadelivery.com/","Los Angeles","California","Los Angeles, California US 90024"
"HCMA - NC Co-Op Delivery","(818)699-9333","hcmadelivery@gmail.com","https://hcmadelivery.com/","Los Angeles","California","Los Angeles, California US 90067"
"Cannary West","424-293-2479","info@cannarywest.com","","Los Angeles","California","Los Angeles, California US 90064"
