"Business name","Phone","Email","Website","State","City","Address"
"MJ Rush Delivery","747-494-7578","MJRUSHDELIVERY@GMAIL.COM","","Los Angeles","California","Los Angeles, California US 91306"
"GRASSDOOR","310.749.9135","support@grassdoor.com","http://www.grassdoor.com","woodland hills","California","woodland hills, California US 91303"
"M&O","(310) 740-4752","modelivery4200@gmail.com","","West Hills","California","West Hills, California US 91304"
"The Gas Station - Delivery Service","818-799-6168","DeliveryGasStation@Gmail.com","","Woodland Hills","California","Woodland Hills, California US 91307"
"Dope Dynasty","818-213-3992","dopedynasty420@gmail.com","","Woodlands Hills","California","Woodlands Hills, California US 91367"
"ASAP BUDZ","747-900-3357","asapbudz420@hotmail.com","","Woodland Hills","CA","Woodland Hills, CA USA 91367"
"The Shop WH","818-884-5638","deliveries@theshopwh.com","http://www.theshop-wh.com","Woodland Hills","California","Woodland Hills, California US 91367"
"Deluxe Caregivers","818-427-6706","deluxecaregiversds@gmail.com","","Woodland Hills","California","Woodland Hills, California US 91401"
"Tasty Farms Delivery - Woodland Hills","(818) 388-1920","tastyfarmsdelivery@gmail.com","http://www.tastyfarmsdelivery.com","Woodland Hills","","Woodland Hills,  US 91364"
"Cannix","833-462-2664","management@dannyvisualstv.com","","canoga park","California","canoga park, California US 91304"
"Cali Coast Delivery","805-980-8293","registration@calicoast420.com","http://www.calicoast420.com","Woodland hills","California","Woodland hills, California US 91367"
"CanEx Delivery","(310) 384-8880","canexdelivery@gmail.com","http://www.canexdelivery.org","Woodland Hills","California","Woodland Hills, California US 91367"
"California Spirit","818-514-3000","Californiaspirit0@gmail.com","","Woodland HIlls","California","Woodland HIlls, California US 91364"
"The Kushy Center","8182215041","thekushycenter@gmail.com","","Woodland hills","California","Woodland hills, California US 91364"
"Thousand Buds","8053729549","Flowersflav37@gmail.com","","Calabasas","California","Calabasas, California US 91367"
"Green HEMPire","8188368995","greenhempire19@gmail.com","","Woodland Hills","California","Woodland Hills, California US 91364"
"Green Panda Express","818- 747-0514","Greenpandaexpress90@yahoo.com","","Winnetka","CA","Winnetka, CA  91316"
"Deals on Greens - DOG","(424) 268 6911","dealsongreen@yahoo.com","","Woodland Hills","CA","Woodland Hills, CA USA 91367"
"Weedmates","(818)-964-6010","weedmates19@gmail.com","","Woodland Hills","California","Woodland Hills, California US 91364"
"Mr Smoke","747-272-2744","mrsmokela@gmail.com","","Woodland Hills","California","Woodland Hills, California US 91367"
"The Highlife Cannabis Express","7472664087","thlcannabisexpress28@gmail.com","","Woodland Hills","CA","Woodland Hills, CA USA 91316"
"Nightime with Remedy","818-336-8535","nightimeremedy35@gmail.com","http://nightimeremedy.com","Woodland Hills","California","Woodland Hills, California US 91302"
"Fire Bud","(424)-301-1267","firebudindustries@gmail.com","","Woodland Hills","California","Woodland Hills, California US 91306"
"HIGH HOPES LA","818-960-3636","highhopesla@gmaill.com","","Woodland HIlls","California","Woodland HIlls, California US 91364"
"BLK Deliveries","818-878-8868","Weareblk.info@gmail.com","http://Www.blkdelivery.com","West Hills","CA","West Hills, CA  91303"
"Fire Bud","818-581-9554","firebudindustries@gmail.com","","Woodland Hills","California","Woodland Hills, California US 91304"
"Deluxe Caregivers","8184276706","DeluxeCaregiversDS@gmail.com","","Santa Monica","California","Santa Monica, California US 90291"
"Cloud 420 Delivery","818-270-0979","cloud420w@gmail.com","","Woodland Hills","California","Woodland Hills, California US 99999"
"Emberz Delivery","3109350063","emberzdelivery@gmail.com","http://emberzdelivery.com","Canoga Park","California","Canoga Park, California US 92706"
"Canoga Budz Delivery","(747) 214 - 9421","Canoga0800@gmail.com","","Canoga park","California","Canoga park, California US 91304"
"iWeed","747-203-5085","iweed007@gmail.com","https://iweed.me/","Winetka","California","Winetka, California US 91306"
"Canoga Budz Delivery","(747) 214 - 9421","Canoga0800@gmail.com","","Calabasas","California","Calabasas, California US 91302"
"Gold Leaf - Calabasas","8182576602","OfficialGoldLeafDelivery@gmail.com","","Calabasas","California","Calabasas, California US 91302"
"Divine Wellness Center","(310)734-8436","divinewellnesscenter@gmail.com","https://divinewellnessla.com/view-menu/","Canoga Park","California","Canoga Park, California US 91303"
"The Rolling Trees","818-913-7012","tbd@gmail.com","","Calabasas","California","Calabasas, California US 91302"
"BudHut","818-739-9008","budhutla@gmail.com","","Woodland Hills","California","Woodland Hills, California US 91364"
"HCMA - NC Co-Op Delivery","(818)699-9333","hcmadelivery@gmail.com","https://hcmadelivery.com/","Woodland hills","California","Woodland hills, California US 91306"
"THE HEALING TOUCH Delivery","(818) 881-1462","delivery@thtcannabis.com","https://www.thtcannabis.com","Woodland Hills","California","Woodland Hills, California US 91364"
