"Business name","Phone","Email","Website","State","City","Address"
"KUSHAGRAM - Placentia","949-750-2002","donations@kushagram.com","","Placentia","California","Placentia, California US 92870"
"1-866-DELIVERY","1-866-DELIVERY","info@DeliveryGreens.com","http://www.DeliveryGreens.com","Yorba Linda","Ca","Yorba Linda, Ca  92887"
"Fullerton- ECC Ease Cannabis Delivery","714-888-1176","eccdelivery@gmail.com","","Yorba Linda","California","Yorba Linda, California US 92831"
"Real Remedies - Yorba Linda","714-860-3240","realremediescollective@gmail.com","http://realremediescollective.com","Yorba Linda","CA","Yorba Linda, CA USA 92886"
"Buderfly Delivery","909-438-7592","Buderflydelivery@gmail.com","","Yorba Linda","California","Yorba Linda, California US 92870"
"Puffy Delivery - Yorba Linda","714-589-2614","support@puffydelivery.com","http://puffydelivery.com","Yorba Linda","California","Yorba Linda, California US 92886"
"Papa Greens - Yorba Linda","714-813-2405","mypapagreensoc@gmail.com","","Yorba Linda","California","Yorba Linda, California US 92886"
"Apollo","(657) 217-7866","Apollocollectives19@gmail.com","","Yorba Linda","California","Yorba Linda, California US 92886"
"Stone Zone Delivery - Placentia","714-696-8718","stonezonecollective@gmail.com","https://www.stonezonedelivery.com","Placentia","CA","Placentia, CA USA 92886"
"Hot Box Xpress","714-559-2001","hotboxoc@gmail.com","https://weedmaps.com/deliveries/hot-box-xpress","Yorba Linda","California","Yorba Linda, California US 92886"
"The Herb Collective - Yorba Linda","844-THC-88OC","none@none.com","http://www.theherbcollectiveoc.com","Yorba Linda","California","Yorba Linda, California US 92887"
"Secret Nug Exchange","714-420-6133","snedelivers@gmail.com","","Placentia","CA","Placentia, CA  92870"
"KUSHAGRAM","949-750-2002","donations@kushagram.com","http://kushagram.com","Yorba Linda","California","Yorba Linda, California US 92886"
"Exotik 420","714-586-2653","exotik420@protonmail.com","","Yorba Linda","California","Yorba Linda, California US 92886"
"POT Delivery","714-312-9707","potdeliveryoc@gmail.com","","Yorba Linda","California","Yorba Linda, California US 92885"
"Hill Valley Healers - Yorba Linda","657-234-7783","hillvalleyhealers@gmail.com","","Yorba Linda","California","Yorba Linda, California US 92832"
"Mr.Chowws Remedies","714-773-2107","MrChowwsRemedies@Yahoo.com","","Placentia","CA","Placentia, CA  92870"
"Stone Zone Delivery - Yorba Linda","714-696-8718","stonezonecollective@gmail.com","","Yorba Linda","CA","Yorba Linda, CA USA 92886"
"Stone Zone Delivery - Placentia","714-696-8718","stonezonecollective@gmail.com","","Placentia","California","Placentia, California US 92886"
"Secret Nug Exchange","714-420-6133","snedelivers@gmail.com","","Yorba Linda","CA","Yorba Linda, CA  92886"
"Stone Zone Delivery - Yorba Linda","714-696-8718","stonezonecollective@gmail.com","","Yorba Linda","CA","Yorba Linda, CA CA 92886"
"Secret Nug Exchange","714-420-6133","snedelivers@gmail.com","","Placentia","California","Placentia, California US 92870"
"Secret Nug Exchange","714-420-6133","snedelivers@gmail.com","","Yorba Linda","CA","Yorba Linda, CA  92887"
"Stone Zone Delivery - Yorba Linda","714-696-8718","stonezonecollective@gmail.com","","Yorba Linda","California","Yorba Linda, California US 92886"
"Secret Nug Exchange","714-420-6133","snedelivers@gmail.com","","Yorba LInda","California","Yorba LInda, California US 92886"
"Secret Nug Exchange","714-420-6133","snedelivers@gmail.com","","Yorba Linda","California","Yorba Linda, California US 92832"
"1 Stop OC - Yorba Linda","714-585-5657","santaanapc@gmail.com","","Yorba Linda","CA","Yorba Linda, CA  92885"
"OG Pharmacy","626-991-6909","og.pharmacyco@gmail.com","https://ogpharmacy.dropdelivery.app","Yorba Linda","California","Yorba Linda, California US 92886"
